{
"type": "FeatureCollection",
"name": "Baiya",
"crs": { "type": "name", "properties": { "name": "urn:ogc:def:crs:OGC:1.3:CRS84" } },
"features": [
{ "type": "Feature", "properties": { "Id": 0, "Nama_Jalan": "Jl. Vatamoento", "Armada": "Pick Up", "kelurahan": "Baiya" }, "geometry": { "type": "LineString", "coordinates": [ [ 119.862519578621601, -0.724275771386286 ], [ 119.862399861322018, -0.724244289478863 ], [ 119.861654893499306, -0.723952850958522 ], [ 119.860966449688604, -0.723662093248209 ], [ 119.860574459202383, -0.723465821217326 ], [ 119.860200989697375, -0.723263799414764 ], [ 119.860192417395155, -0.72322794333375 ], [ 119.860398764376924, -0.722790301825973 ], [ 119.860538218568621, -0.722481804332227 ], [ 119.860708971028174, -0.722091522829011 ], [ 119.861254846324627, -0.722269049725102 ], [ 119.86188483779118, -0.722515377033873 ], [ 119.862366604328713, -0.722717329889831 ], [ 119.862781349539475, -0.722843298835006 ], [ 119.862891165671314, -0.722992412675682 ] ] } },
{ "type": "Feature", "properties": { "Id": 0, "Nama_Jalan": "Jl. Vatamoento Lorong", "Armada": "Pick Up", "kelurahan": "Baiya" }, "geometry": { "type": "LineString", "coordinates": [ [ 119.861503402760391, -0.723888870312523 ], [ 119.861309633713518, -0.724348646582911 ] ] } },
{ "type": "Feature", "properties": { "Id": 0, "Nama_Jalan": "Lorong Tanpa Nama", "Armada": "Pick Up", "kelurahan": "Baiya" }, "geometry": { "type": "LineString", "coordinates": [ [ 119.860871946589512, -0.722144524962772 ], [ 119.861003280465511, -0.721720193643309 ], [ 119.861103754807672, -0.721362471329944 ] ] } },
{ "type": "Feature", "properties": { "Id": 0, "Nama_Jalan": "Jl. Tanainolo", "Armada": "Pick Up", "kelurahan": "Baiya" }, "geometry": { "type": "LineString", "coordinates": [ [ 119.862781349539475, -0.722843298835006 ], [ 119.862763165617977, -0.722780576766428 ], [ 119.862610471041208, -0.722424928170619 ], [ 119.862193772204293, -0.721454064268451 ], [ 119.862085298730847, -0.7211729791321 ], [ 119.862003458225018, -0.720945430199097 ], [ 119.861950144639152, -0.720761853241307 ], [ 119.861875816871688, -0.720394678835414 ], [ 119.861691714629202, -0.719182677410429 ] ] } },
{ "type": "Feature", "properties": { "Id": 0, "Nama_Jalan": "Jl. Moh Nasir", "Armada": "Pick Up", "kelurahan": "Baiya" }, "geometry": { "type": "LineString", "coordinates": [ [ 119.861870802791373, -0.720361669732027 ], [ 119.862293991178788, -0.720307629499194 ], [ 119.862419389641886, -0.720309462763437 ], [ 119.862561912797943, -0.720351450010188 ], [ 119.863783884155296, -0.720828828673737 ], [ 119.864287507663505, -0.721044634256836 ] ] } },
{ "type": "Feature", "properties": { "Id": 0, "Nama_Jalan": "Jl. Vinase", "Armada": "Pick Up", "kelurahan": "Baiya" }, "geometry": { "type": "LineString", "coordinates": [ [ 119.865651384885851, -0.718043708505588 ], [ 119.865852733315165, -0.717968989751678 ], [ 119.867349670232073, -0.71760847494296 ], [ 119.867547212485476, -0.717524195694198 ], [ 119.867815045642672, -0.717428396471249 ], [ 119.868282319610145, -0.717246404299289 ], [ 119.868531142391689, -0.71713340375688 ], [ 119.868654592468985, -0.717058734402251 ], [ 119.868751919162364, -0.716985516000995 ], [ 119.868804809713851, -0.71695498002552 ] ] } },
{ "type": "Feature", "properties": { "Id": 0, "Nama_Jalan": "Jalan Tanpa Nama", "Armada": "Pick Up", "kelurahan": "Baiya" }, "geometry": { "type": "LineString", "coordinates": [ [ 119.866187430882064, -0.715401584874407 ], [ 119.866409067812853, -0.715304380792884 ], [ 119.86654203103582, -0.715250744212605 ], [ 119.866711098029015, -0.715204735338386 ], [ 119.867265822496222, -0.715106843514671 ], [ 119.867651485798405, -0.715064523566927 ], [ 119.868406969604337, -0.714964592824223 ], [ 119.868807349952704, -0.714910788005863 ], [ 119.86898118516163, -0.714894899635951 ], [ 119.869140784121115, -0.714900536971091 ] ] } },
{ "type": "Feature", "properties": { "Id": 0, "Nama_Jalan": "Jl. Wiro", "Armada": "Pick Up", "kelurahan": "Baiya" }, "geometry": { "type": "LineString", "coordinates": [ [ 119.869140784121115, -0.714900536971091 ], [ 119.869144144127318, -0.714976154261986 ], [ 119.868997873562734, -0.715780972722869 ], [ 119.868965239584185, -0.716006201925527 ], [ 119.868897120934903, -0.71645522771669 ], [ 119.868851645467956, -0.716653210509557 ], [ 119.868804790635281, -0.716924351143686 ], [ 119.868804827269955, -0.716983163574857 ], [ 119.868854738395683, -0.717043378969574 ], [ 119.868911768960032, -0.717094983163498 ], [ 119.868963113987562, -0.717169542140038 ], [ 119.869023031126844, -0.717279956941343 ], [ 119.869346929881729, -0.717974025884077 ], [ 119.86948389069596, -0.718237877949158 ], [ 119.869925197128495, -0.719068622732654 ], [ 119.869960861450707, -0.719133150333418 ], [ 119.869976567382849, -0.719183346086681 ], [ 119.869986575274496, -0.719236414345432 ], [ 119.869973119099754, -0.720504475446304 ], [ 119.86995277339453, -0.721388108717997 ], [ 119.86995291492471, -0.721613795213101 ], [ 119.869966326126558, -0.721791658317448 ], [ 119.870006317405512, -0.721938902945512 ], [ 119.870114871267802, -0.722348129867159 ], [ 119.870193672687677, -0.722652421847062 ] ] } },
{ "type": "Feature", "properties": { "Id": 0, "Nama_Jalan": "Jl. Uevuku", "Armada": "Pick Up", "kelurahan": "Baiya" }, "geometry": { "type": "LineString", "coordinates": [ [ 119.865935111092682, -0.714892062413316 ], [ 119.866125347110824, -0.71528020153767 ], [ 119.866403077218678, -0.71582320638004 ], [ 119.867093460499618, -0.716950729221151 ], [ 119.867320291773126, -0.7173718368494 ], [ 119.867378771507575, -0.717462170402316 ], [ 119.867417913114082, -0.717579359860721 ], [ 119.867428763157534, -0.717651486481859 ], [ 119.867440309487492, -0.717886729288878 ], [ 119.867438996322903, -0.718066036596496 ], [ 119.867402096715693, -0.718305613375835 ], [ 119.867308313246667, -0.718728835992541 ], [ 119.867103452699311, -0.719264016241309 ], [ 119.866769587232824, -0.720105773089837 ], [ 119.866542341052167, -0.720542468903344 ], [ 119.866461202464293, -0.720677358921755 ], [ 119.8662149915762, -0.721169532511005 ], [ 119.865843963100303, -0.721828182167915 ], [ 119.8657305418362, -0.721989391168641 ], [ 119.86570398083623, -0.72205061140477 ], [ 119.865593967071035, -0.722343548984053 ], [ 119.865578341011286, -0.722421019434851 ], [ 119.865589787503751, -0.722495603777636 ], [ 119.865622666058854, -0.722661979561543 ], [ 119.865649882572669, -0.72288860600529 ], [ 119.865657614863409, -0.723059768396543 ] ] } },
{ "type": "Feature", "properties": { "Id": 0, "Nama_Jalan": null, "Armada": "Pick Up", "kelurahan": "Baiya" }, "geometry": { "type": "LineString", "coordinates": [ [ 119.866034142884274, -0.715094117328439 ], [ 119.866211380453223, -0.714999033816014 ] ] } },
{ "type": "Feature", "properties": { "Id": 0, "Nama_Jalan": null, "Armada": "Pick Up", "kelurahan": "Baiya" }, "geometry": { "type": "LineString", "coordinates": [ [ 119.865049691345689, -0.716978648690157 ], [ 119.865338146239452, -0.716817090702619 ], [ 119.865181159335023, -0.716429886892867 ], [ 119.865615661868944, -0.71625030638102 ] ] } },
{ "type": "Feature", "properties": { "Id": 0, "Nama_Jalan": null, "Armada": "Pick Up", "kelurahan": "Baiya" }, "geometry": { "type": "LineString", "coordinates": [ [ 119.866608457649647, -0.72041541352885 ], [ 119.866646202288308, -0.72043114686411 ], [ 119.86668229957192, -0.720428255079459 ], [ 119.866716487931043, -0.720411019977355 ], [ 119.866746872797805, -0.720388049475967 ], [ 119.866783916464854, -0.720379419281752 ], [ 119.866830470054566, -0.720387040189627 ], [ 119.867004352063475, -0.720445264373038 ], [ 119.867029963714359, -0.720385001139767 ], [ 119.86712403341069, -0.72042032466639 ], [ 119.867219989292394, -0.720433652057428 ], [ 119.867274140872965, -0.720438399234781 ], [ 119.86731784870679, -0.720452716045187 ], [ 119.867353009754453, -0.720471819779194 ], [ 119.86740241324874, -0.720479438866692 ], [ 119.867549666564628, -0.720490821115463 ], [ 119.867677124966917, -0.720559474431419 ], [ 119.867762655922263, -0.720612494892605 ], [ 119.867835370296447, -0.720678433535337 ], [ 119.867882428169366, -0.72073291283406 ], [ 119.868046501801416, -0.721056994686254 ], [ 119.868086458241024, -0.721148774190225 ], [ 119.868087912855628, -0.721196110149536 ], [ 119.86808675872625, -0.721249329013926 ], [ 119.868109585080006, -0.721292348051342 ], [ 119.868159469535968, -0.721309529790411 ], [ 119.868236429165833, -0.721328128786776 ], [ 119.868310781155287, -0.721354379838942 ], [ 119.868361861013227, -0.721384231791558 ], [ 119.868518715434973, -0.721557461609833 ], [ 119.868570999246657, -0.721613611037599 ], [ 119.868661285031465, -0.721674517816008 ], [ 119.868739590565141, -0.721732772485825 ], [ 119.868902130912858, -0.72188376459659 ], [ 119.868960120724708, -0.721949712433019 ], [ 119.869097038187149, -0.722142797958658 ], [ 119.869214949594593, -0.722325376225708 ], [ 119.86928244877042, -0.722406618762614 ], [ 119.869317615816399, -0.722435285380034 ], [ 119.869380334507014, -0.722467759665092 ], [ 119.869508618802371, -0.722527924913097 ], [ 119.869609347846861, -0.722578544685523 ], [ 119.869685363758535, -0.722607185290611 ], [ 119.869791777620492, -0.722633893945397 ], [ 119.869871583206503, -0.722646275041335 ], [ 119.869962786066125, -0.722654823683392 ], [ 119.870090084902671, -0.722658567850846 ], [ 119.870193672687677, -0.722652421847062 ] ] } },
{ "type": "Feature", "properties": { "Id": 0, "Nama_Jalan": null, "Armada": "Pick Up", "kelurahan": "Baiya" }, "geometry": { "type": "LineString", "coordinates": [ [ 119.866223924460613, -0.721151675739633 ], [ 119.866521287661939, -0.721253926650976 ], [ 119.866594921280736, -0.721270615212569 ], [ 119.866673307020747, -0.721290886887209 ], [ 119.867377688386952, -0.721628731417903 ], [ 119.867445395106898, -0.721662158963564 ], [ 119.867497651990149, -0.721675274917118 ], [ 119.86753684071806, -0.721678836157497 ], [ 119.867571266083175, -0.721660883647987 ], [ 119.867594992988899, -0.721625007288675 ], [ 119.867611591335461, -0.721583158576102 ], [ 119.867636466760814, -0.721485121922621 ], [ 119.867654221124212, -0.721393066675684 ], [ 119.86766962601709, -0.721341655715949 ], [ 119.867693358170158, -0.721314146996205 ], [ 119.867731338450895, -0.721284238480278 ], [ 119.8677681424941, -0.721272261355108 ], [ 119.867888082820897, -0.721281748223321 ], [ 119.868019915794619, -0.72131991655749 ], [ 119.868053178392941, -0.721341412204412 ], [ 119.868110191857298, -0.721365283520682 ], [ 119.868185016595902, -0.721387948147994 ], [ 119.86824914962186, -0.721403447306763 ], [ 119.868303779153663, -0.721412975620077 ], [ 119.868337029012238, -0.721414149880324 ], [ 119.868345330052776, -0.721396213975419 ], [ 119.868346406827115, -0.721375200098138 ] ] } },
{ "type": "Feature", "properties": { "Id": 0, "Nama_Jalan": null, "Armada": "Pick Up", "kelurahan": "Baiya" }, "geometry": { "type": "LineString", "coordinates": [ [ 119.867731338450895, -0.721284238480278 ], [ 119.867777094925756, -0.721156782335749 ] ] } },
{ "type": "Feature", "properties": { "Id": 0, "Nama_Jalan": null, "Armada": "Pick Up", "kelurahan": "Baiya" }, "geometry": { "type": "LineString", "coordinates": [ [ 119.867405736059581, -0.721642578860087 ], [ 119.867386127431303, -0.721755196898902 ], [ 119.867332868911092, -0.722038534983502 ] ] } },
{ "type": "Feature", "properties": { "Id": 0, "Nama_Jalan": null, "Armada": "Pick Up", "kelurahan": "Baiya" }, "geometry": { "type": "LineString", "coordinates": [ [ 119.868785868384705, -0.721775762344529 ], [ 119.868868528902894, -0.721762861818529 ], [ 119.868894162613245, -0.721737981729295 ], [ 119.868965308735071, -0.721575365531632 ], [ 119.868974779097954, -0.721528500819067 ], [ 119.868992802825517, -0.721487368473032 ], [ 119.869441223890846, -0.721666628819853 ], [ 119.869495863119226, -0.721691696956314 ], [ 119.869552857037291, -0.721684488487464 ], [ 119.869814048759537, -0.721603037043984 ], [ 119.869952893127319, -0.721579041322369 ] ] } },
{ "type": "Feature", "properties": { "Id": 0, "Nama_Jalan": null, "Armada": "Pick Up", "kelurahan": "Baiya" }, "geometry": { "type": "MultiLineString", "coordinates": [ [ [ 119.866463376259631, -0.721742331251339 ], [ 119.866479771665695, -0.721756250624854 ], [ 119.866503575000436, -0.721842302690232 ], [ 119.866686927576993, -0.721853661875225 ] ], [ [ 119.866463376259631, -0.721742331251339 ], [ 119.866516534686724, -0.721577637887385 ] ], [ [ 119.865946712603176, -0.721645781210114 ], [ 119.866051283210496, -0.721678105875797 ], [ 119.86625080042603, -0.721713362403585 ], [ 119.866436999969096, -0.721719938304456 ], [ 119.866463376259631, -0.721742331251339 ] ] ] } },
{ "type": "Feature", "properties": { "Id": 0, "Nama_Jalan": "Jl. Logo", "Armada": "Pick Up", "kelurahan": "Baiya" }, "geometry": { "type": "LineString", "coordinates": [ [ 119.865585339991952, -0.722386320077302 ], [ 119.865456624571351, -0.722378257939375 ], [ 119.865352593975857, -0.722365413935048 ], [ 119.864504632018622, -0.722195252299889 ], [ 119.864377788393256, -0.722160905893959 ], [ 119.863715037510445, -0.721936116910204 ] ] } },
{ "type": "Feature", "properties": { "Id": 0, "Nama_Jalan": null, "Armada": "Pick Up", "kelurahan": "Baiya" }, "geometry": { "type": "LineString", "coordinates": [ [ 119.864941220127207, -0.722282863044715 ], [ 119.864919597867754, -0.722409320304759 ], [ 119.864866526210406, -0.72261209032747 ], [ 119.865439434581859, -0.722726482646965 ], [ 119.865629324408786, -0.722717422340847 ] ] } },
{ "type": "Feature", "properties": { "Id": 0, "Nama_Jalan": null, "Armada": "Pick Up", "kelurahan": "Baiya" }, "geometry": { "type": "LineString", "coordinates": [ [ 119.864866526210406, -0.72261209032747 ], [ 119.864747070873719, -0.722997843407753 ] ] } },
{ "type": "Feature", "properties": { "Id": 0, "Nama_Jalan": null, "Armada": "Pick Up", "kelurahan": "Baiya" }, "geometry": { "type": "LineString", "coordinates": [ [ 119.864566788196299, -0.720731050232397 ], [ 119.864670173749388, -0.72085171804573 ], [ 119.864735537034662, -0.720935353176074 ], [ 119.864861514480353, -0.721103821795175 ], [ 119.864954213565028, -0.721225691692274 ] ] } },
{ "type": "Feature", "properties": { "Id": 0, "Nama_Jalan": null, "Armada": "Pick Up", "kelurahan": "Baiya" }, "geometry": { "type": "MultiLineString", "coordinates": [ [ [ 119.862902987629269, -0.724020175985879 ], [ 119.862936096961789, -0.724059068226345 ], [ 119.862959879472953, -0.724111649869283 ], [ 119.862980117577166, -0.724192922913494 ], [ 119.863005120599539, -0.72429810054549 ] ], [ [ 119.862902987629269, -0.724020175985879 ], [ 119.863041761174969, -0.72402553033239 ] ], [ [ 119.862584572189618, -0.724007890436881 ], [ 119.862902987629269, -0.724020175985879 ] ] ] } },
{ "type": "Feature", "properties": { "Id": 0, "Nama_Jalan": null, "Armada": "Pick Up", "kelurahan": "Baiya" }, "geometry": { "type": "LineString", "coordinates": [ [ 119.865636197216389, -0.719165622173561 ], [ 119.865978293121188, -0.719332758719687 ], [ 119.866153147526262, -0.719426843861723 ], [ 119.866184513752785, -0.719454078626979 ], [ 119.866207340050849, -0.719497097782384 ], [ 119.866264413867341, -0.719617555737367 ], [ 119.866307185184468, -0.71965338999343 ], [ 119.866415503040827, -0.719686313842397 ], [ 119.866535245694024, -0.719759395131532 ], [ 119.866613656334948, -0.719819592501345 ] ] } },
{ "type": "Feature", "properties": { "Id": 0, "Nama_Jalan": "Jl. Ramba", "Armada": "R3", "kelurahan": "Baiya" }, "geometry": { "type": "LineString", "coordinates": [ [ 119.863511697625697, -0.730685288477802 ], [ 119.863448825565882, -0.730712453459311 ], [ 119.86239591513872, -0.730638906773723 ], [ 119.862141789021138, -0.730629506818038 ], [ 119.861957475914082, -0.73060332669236 ], [ 119.861609703816853, -0.730479230057309 ], [ 119.861527979931779, -0.730439117626105 ], [ 119.861444224142218, -0.730190531735942 ], [ 119.861346948526858, -0.729593858980645 ], [ 119.861316262604362, -0.729140589442014 ], [ 119.861295203511204, -0.728888138050618 ], [ 119.861270400100764, -0.728723669231054 ], [ 119.861222771791873, -0.728519050137271 ], [ 119.861203687643069, -0.72838517944634 ], [ 119.861216866689062, -0.728193909734513 ] ] } },
{ "type": "Feature", "properties": { "Id": 0, "Nama_Jalan": "Jl. Bunga Raya", "Armada": "R3", "kelurahan": "Baiya" }, "geometry": { "type": "LineString", "coordinates": [ [ 119.863511697625697, -0.730685288477802 ], [ 119.863572961368178, -0.730669470115078 ], [ 119.864110237923086, -0.730768102542976 ], [ 119.864885510121681, -0.730907583388544 ], [ 119.866282133740881, -0.731150542700287 ], [ 119.866802778185985, -0.731239143870563 ] ] } },
{ "type": "Feature", "properties": { "Id": 0, "Nama_Jalan": "Jl. Marjuni", "Armada": "R3", "kelurahan": "Baiya" }, "geometry": { "type": "LineString", "coordinates": [ [ 119.863275289838015, -0.728600353397899 ], [ 119.863051090847478, -0.728594759105314 ], [ 119.862201743987441, -0.728493934375877 ], [ 119.861778437352939, -0.728351715649228 ], [ 119.861601696421118, -0.728281540207764 ], [ 119.861363678932619, -0.728207100544467 ], [ 119.861202631665563, -0.72816703865682 ], [ 119.861062977076045, -0.728155652271326 ], [ 119.860930438286431, -0.728129916729563 ], [ 119.860243444505286, -0.727882194150175 ], [ 119.86003678979958, -0.72782925112348 ], [ 119.859937031653146, -0.727813535778586 ], [ 119.8589836529205, -0.72770225663211 ], [ 119.858829746519262, -0.72768801027181 ] ] } },
{ "type": "Feature", "properties": { "Id": 0, "Nama_Jalan": null, "Armada": "R3", "kelurahan": "Baiya" }, "geometry": { "type": "LineString", "coordinates": [ [ 119.860767384921502, -0.728071121464585 ], [ 119.860746274814574, -0.728152746749512 ], [ 119.860704635491558, -0.72840619468214 ], [ 119.860691490258233, -0.728651017642925 ], [ 119.860689848143224, -0.72905936171993 ], [ 119.860689949631976, -0.729220021206211 ] ] } },
{ "type": "Feature", "properties": { "Id": 0, "Nama_Jalan": null, "Armada": "R3", "kelurahan": "Baiya" }, "geometry": { "type": "MultiLineString", "coordinates": [ [ [ 119.862528552179484, -0.728532729329327 ], [ 119.862550696381263, -0.728469628108955 ], [ 119.862579011036956, -0.728176980576024 ], [ 119.862617851592915, -0.728004820786181 ], [ 119.862650986252248, -0.727823101604064 ] ], [ [ 119.862650986252248, -0.727823101604064 ], [ 119.862870451670972, -0.727854519333488 ], [ 119.863162121585745, -0.727895453906913 ] ], [ [ 119.862650986252248, -0.727823101604064 ], [ 119.862305992927574, -0.727710557830322 ] ] ] } },
{ "type": "Feature", "properties": { "Id": 0, "Nama_Jalan": null, "Armada": "R3", "kelurahan": "Baiya" }, "geometry": { "type": "LineString", "coordinates": [ [ 119.860790138622463, -0.728079326202007 ], [ 119.860862039841564, -0.727882510118047 ], [ 119.860943861974434, -0.727701954947856 ], [ 119.86111415646171, -0.72734131858645 ], [ 119.861218494762795, -0.727087830748992 ], [ 119.861239358209829, -0.727030439044654 ], [ 119.861250724854827, -0.726977834936666 ], [ 119.86125923974987, -0.726922363730908 ], [ 119.861253498297856, -0.726856382255056 ], [ 119.861231621617364, -0.726813362429818 ], [ 119.861142286606508, -0.726755084748855 ], [ 119.861122323140677, -0.726733102438985 ], [ 119.861109004729514, -0.726703465436001 ], [ 119.861106132504773, -0.726668083927834 ], [ 119.861190509890136, -0.726396439059785 ], [ 119.861186904423278, -0.726328065448749 ], [ 119.861164312269068, -0.726280264534384 ], [ 119.861126292695531, -0.726248013436426 ], [ 119.861107260718839, -0.726196624098044 ], [ 119.861122649781734, -0.726120109765269 ], [ 119.861296996066997, -0.725781705228781 ], [ 119.861521395290211, -0.725425593175618 ] ] } },
{ "type": "Feature", "properties": { "Id": 0, "Nama_Jalan": null, "Armada": "R3", "kelurahan": "Baiya" }, "geometry": { "type": "LineString", "coordinates": [ [ 119.861231621617364, -0.726813362429818 ], [ 119.861296094613678, -0.72681477167957 ], [ 119.861892310302622, -0.726976963109429 ], [ 119.861994444563123, -0.726994828627628 ], [ 119.862072821759483, -0.727000755489948 ], [ 119.862211757969888, -0.727003057531145 ], [ 119.862304384863052, -0.727008975287676 ], [ 119.862388708458582, -0.727029242925785 ] ] } },
{ "type": "Feature", "properties": { "Id": 0, "Nama_Jalan": null, "Armada": "R3", "kelurahan": "Baiya" }, "geometry": { "type": "LineString", "coordinates": [ [ 119.863340931463739, -0.728700494242085 ], [ 119.863956516676595, -0.728697231098937 ], [ 119.864114695542668, -0.72870860543306 ], [ 119.864448181858833, -0.728777245679483 ], [ 119.864533688157366, -0.728790100996883 ], [ 119.864971175140667, -0.728824008521866 ], [ 119.865263312515367, -0.728853705773563 ], [ 119.865390388032012, -0.728878727278692 ], [ 119.865422466442553, -0.728905005046622 ], [ 119.865428429517593, -0.728945644096414 ], [ 119.865413101267364, -0.729117788441604 ], [ 119.865361054428917, -0.729436987914898 ], [ 119.865346909179337, -0.729601959245354 ], [ 119.865255787903337, -0.730098099895809 ], [ 119.86522389654121, -0.730367080600256 ], [ 119.865169588162658, -0.730957002209569 ] ] } },
{ "type": "Feature", "properties": { "Id": 0, "Nama_Jalan": null, "Armada": "R3", "kelurahan": "Baiya" }, "geometry": { "type": "LineString", "coordinates": [ [ 119.865346909179337, -0.729601959245354 ], [ 119.866166725524266, -0.72976519994471 ], [ 119.866600215433181, -0.729863540290998 ], [ 119.866739749088694, -0.72987241602322 ] ] } },
{ "type": "Feature", "properties": { "Id": 0, "Nama_Jalan": null, "Armada": "R3", "kelurahan": "Baiya" }, "geometry": { "type": "LineString", "coordinates": [ [ 119.863513981886484, -0.730070289594198 ], [ 119.863824616344885, -0.73005574572021 ], [ 119.863875909820209, -0.730047106070063 ], [ 119.863920057552733, -0.730005478512455 ], [ 119.863974067469073, -0.729785972068936 ], [ 119.86407776621563, -0.729273804755626 ], [ 119.864125972061203, -0.72888933965991 ] ] } },
{ "type": "Feature", "properties": { "Id": 0, "Nama_Jalan": "Jl. Andudana", "Armada": "R3", "kelurahan": "Baiya" }, "geometry": { "type": "LineString", "coordinates": [ [ 119.863193156693612, -0.727111808055266 ], [ 119.864065443435194, -0.727436872170075 ], [ 119.864414519075964, -0.727558697221222 ], [ 119.865657290670768, -0.727873960228455 ], [ 119.866217872801741, -0.728024218940869 ], [ 119.866849219854302, -0.728161522025398 ], [ 119.867188901277061, -0.728263509103949 ], [ 119.867181838137853, -0.728361056372989 ], [ 119.867055214018009, -0.728673848118173 ], [ 119.866928614466332, -0.729025370128603 ], [ 119.866762300671269, -0.729668589731902 ], [ 119.866742184078944, -0.729779772726235 ], [ 119.866739749088694, -0.72987241602322 ], [ 119.866756581457608, -0.730012862034421 ], [ 119.866779252539331, -0.730184981785393 ], [ 119.866834019506314, -0.730410872874798 ], [ 119.866802778185985, -0.731239143870563 ] ] } },
{ "type": "Feature", "properties": { "Id": 0, "Nama_Jalan": null, "Armada": "R3", "kelurahan": "Baiya" }, "geometry": { "type": "LineString", "coordinates": [ [ 119.865989527262172, -0.731099640382428 ], [ 119.865960394616692, -0.731420094187296 ], [ 119.865936217517842, -0.731494701331116 ], [ 119.865867823606308, -0.731501917602999 ], [ 119.865665479943772, -0.731504916689644 ], [ 119.864851766297519, -0.731416503893702 ], [ 119.864588110536261, -0.731359295221661 ] ] } },
{ "type": "Feature", "properties": { "Id": 0, "Nama_Jalan": null, "Armada": "R3", "kelurahan": "Baiya" }, "geometry": { "type": "LineString", "coordinates": [ [ 119.86541054896729, -0.730998920239306 ], [ 119.865388836680765, -0.731190949153057 ], [ 119.8653572759588, -0.731471429288472 ] ] } },
{ "type": "Feature", "properties": { "Id": 0, "Nama_Jalan": null, "Armada": "R3", "kelurahan": "Baiya" }, "geometry": { "type": "LineString", "coordinates": [ [ 119.865936217517842, -0.731494701331116 ], [ 119.865935200479356, -0.731576107230501 ], [ 119.86591103249819, -0.731665058910144 ], [ 119.865874018855678, -0.731721026424981 ], [ 119.865834140700599, -0.731754044526271 ], [ 119.865795680224281, -0.731775586086406 ], [ 119.865683110460282, -0.731779961896984 ] ] } },
{ "type": "Feature", "properties": { "Id": 0, "Nama_Jalan": null, "Armada": "R3", "kelurahan": "Baiya" }, "geometry": { "type": "LineString", "coordinates": [ [ 119.864705986971444, -0.731384872342739 ], [ 119.864619909531712, -0.731755941516748 ] ] } },
{ "type": "Feature", "properties": { "Id": 0, "Nama_Jalan": "Jl. Pendidikan", "Armada": "R3", "kelurahan": "Baiya" }, "geometry": { "type": "LineString", "coordinates": [ [ 119.863133748857962, -0.726065090706396 ], [ 119.863190736810722, -0.726047840862812 ], [ 119.864138815057871, -0.726045323296483 ], [ 119.864412417413547, -0.72605853692935 ], [ 119.864717008885663, -0.726103288772339 ] ] } },
{ "type": "Feature", "properties": { "Id": 0, "Nama_Jalan": null, "Armada": "R3", "kelurahan": "Baiya" }, "geometry": { "type": "LineString", "coordinates": [ [ 119.864133831628806, -0.726045336530213 ], [ 119.864161051775682, -0.726257847657352 ], [ 119.864185423110825, -0.726490931180858 ], [ 119.864194037560253, -0.726593489274881 ], [ 119.864221129141967, -0.726620726632775 ], [ 119.864299517331006, -0.726644345083974 ], [ 119.864459135042736, -0.726677952829736 ], [ 119.864473397385964, -0.72669802609598 ], [ 119.864446401668658, -0.726822840975372 ], [ 119.864771336476565, -0.726889335512502 ], [ 119.865209338687819, -0.726987554789862 ], [ 119.865377975663478, -0.727012549935451 ], [ 119.865474165475376, -0.727019660709666 ], [ 119.865702202436779, -0.72708645609436 ] ] } }
]
}
