{
"type": "FeatureCollection",
"name": "Balaroa",
"crs": { "type": "name", "properties": { "name": "urn:ogc:def:crs:OGC:1.3:CRS84" } },
"features": [
{ "type": "Feature", "properties": { "Id": 0, "Nama_Jalan": "Jl. Kunduri", "Armada": 2.0, "kelurahan": "Balaroa" }, "geometry": { "type": "LineString", "coordinates": [ [ 119.847514427002181, -0.901773174224644 ], [ 119.847808558521621, -0.901770144664092 ], [ 119.848616064386974, -0.901862745836914 ], [ 119.85003184746418, -0.902040941669117 ] ] } },
{ "type": "Feature", "properties": { "Id": 0, "Nama_Jalan": "Lrg. Kunduri II", "Armada": 2.0, "kelurahan": "Balaroa" }, "geometry": { "type": "LineString", "coordinates": [ [ 119.848616064386974, -0.901862745836914 ], [ 119.848615778020914, -0.902218536362756 ], [ 119.848637092889319, -0.902902883422668 ] ] } },
{ "type": "Feature", "properties": { "Id": 0, "Nama_Jalan": "Jl. Labu Lrg III", "Armada": 2.0, "kelurahan": "Balaroa" }, "geometry": { "type": "LineString", "coordinates": [ [ 119.849599989261534, -0.906927403330989 ], [ 119.849078762178195, -0.906909502966343 ], [ 119.848235717030633, -0.906898839242123 ] ] } },
{ "type": "Feature", "properties": { "Id": 0, "Nama_Jalan": "Jl. Labu Lrg I", "Armada": 2.0, "kelurahan": "Balaroa" }, "geometry": { "type": "LineString", "coordinates": [ [ 119.847544562970299, -0.903298705920419 ], [ 119.848719522503046, -0.903305999938924 ], [ 119.849805724607904, -0.903323815438835 ] ] } },
{ "type": "Feature", "properties": { "Id": 0, "Nama_Jalan": "Jl. Labu Lrg IV", "Armada": 2.0, "kelurahan": "Balaroa" }, "geometry": { "type": "LineString", "coordinates": [ [ 119.849505918902125, -0.907792675935259 ], [ 119.849222796782996, -0.907777599618076 ], [ 119.849029004787965, -0.907796879749867 ], [ 119.849078762178195, -0.906909502966343 ] ] } },
{ "type": "Feature", "properties": { "Id": 0, "Nama_Jalan": "Dalam Terminal", "Armada": 2.0, "kelurahan": "Balaroa" }, "geometry": { "type": "LineString", "coordinates": [ [ 119.84940029423889, -0.904536983068215 ], [ 119.849369828843294, -0.905062980802144 ], [ 119.84965009423135, -0.905069931357289 ] ] } },
{ "type": "Feature", "properties": { "Id": 0, "Nama_Jalan": "Jl. Bayam Lrg II", "Armada": 2.0, "kelurahan": "Balaroa" }, "geometry": { "type": "LineString", "coordinates": [ [ 119.850631196805807, -0.90465629437621 ], [ 119.85063160894552, -0.906398699336903 ], [ 119.850627182701913, -0.906812548009788 ], [ 119.850585717976784, -0.906939292597479 ], [ 119.850419667226333, -0.907201215515087 ], [ 119.850375772202071, -0.907257433845616 ], [ 119.850238293634277, -0.907610184089355 ] ] } },
{ "type": "Feature", "properties": { "Id": 0, "Nama_Jalan": "Jl. Bayam Lrg I", "Armada": 2.0, "kelurahan": "Balaroa" }, "geometry": { "type": "LineString", "coordinates": [ [ 119.851323832809967, -0.904637069519054 ], [ 119.851320696393088, -0.905486278898125 ], [ 119.851300187631537, -0.905987403728847 ] ] } },
{ "type": "Feature", "properties": { "Id": 0, "Nama_Jalan": "Lrg. Labu II", "Armada": 2.0, "kelurahan": "Balaroa" }, "geometry": { "type": "LineString", "coordinates": [ [ 119.850631506797697, -0.905967879833128 ], [ 119.849650273820103, -0.906006551198734 ] ] } },
{ "type": "Feature", "properties": { "Id": 0, "Nama_Jalan": "Jl. Ketimun", "Armada": 2.0, "kelurahan": "Balaroa" }, "geometry": { "type": "LineString", "coordinates": [ [ 119.84759596220691, -0.905787277388451 ], [ 119.847706098413227, -0.905792919689713 ], [ 119.84958493005422, -0.905969545743271 ], [ 119.849650273820103, -0.906006551198734 ] ] } },
{ "type": "Feature", "properties": { "Id": 0, "Nama_Jalan": "Jl. Ketimun Lrg II", "Armada": 2.0, "kelurahan": "Balaroa" }, "geometry": { "type": "LineString", "coordinates": [ [ 119.847871631168871, -0.905806271539575 ], [ 119.847926484680144, -0.905057488316444 ], [ 119.848734524662504, -0.90510287179609 ], [ 119.848714001885639, -0.905586784057657 ] ] } },
{ "type": "Feature", "properties": { "Id": 0, "Nama_Jalan": "Jl. Kelor", "Armada": 1.0, "kelurahan": "Balaroa" }, "geometry": { "type": "LineString", "coordinates": [ [ 119.847513937357874, -0.901748386784149 ], [ 119.847567251413736, -0.904447163907522 ], [ 119.847657471908946, -0.908658075691237 ], [ 119.847682102255163, -0.909552541354096 ] ] } },
{ "type": "Feature", "properties": { "Id": 0, "Nama_Jalan": "Jl. Kamboja", "Armada": 1.0, "kelurahan": "Balaroa" }, "geometry": { "type": "LineString", "coordinates": [ [ 119.84759596220691, -0.905787277388451 ], [ 119.846526629682728, -0.90571937968017 ], [ 119.846221054947591, -0.905694742210976 ] ] } },
{ "type": "Feature", "properties": { "Id": 0, "Nama_Jalan": "Jl. Manggis", "Armada": 1.0, "kelurahan": "Balaroa" }, "geometry": { "type": "LineString", "coordinates": [ [ 119.840090572160918, -0.903764472641121 ], [ 119.84016714318679, -0.903745512113398 ], [ 119.841607286517416, -0.903680834695175 ], [ 119.84219233058333, -0.903652480900214 ], [ 119.842297305411108, -0.903646660231431 ], [ 119.842388499088415, -0.903633678011557 ], [ 119.842471129019884, -0.903603488755033 ], [ 119.842530950208427, -0.903563276103851 ], [ 119.842571869294289, -0.903497257676301 ], [ 119.842823384530575, -0.902418209610027 ], [ 119.842923966247582, -0.901954912392577 ], [ 119.842948162134562, -0.901916162349336 ], [ 119.842986475366359, -0.901886690432328 ], [ 119.843079218328882, -0.901852942039914 ], [ 119.84348392873666, -0.90184545116902 ], [ 119.844088550830449, -0.901746474338929 ], [ 119.844406794546117, -0.901722315861104 ], [ 119.844798662263557, -0.901693317815966 ], [ 119.845178671110943, -0.901685846266436 ], [ 119.845371081228691, -0.901721556745546 ], [ 119.845544511044906, -0.90178358091841 ], [ 119.845627655880762, -0.901805032617715 ], [ 119.845728372280291, -0.901821210720263 ], [ 119.845992482110418, -0.901821002711054 ], [ 119.846271792439993, -0.901820782709158 ], [ 119.846437083652077, -0.901801526142181 ], [ 119.846627072767774, -0.901778424845106 ], [ 119.846836065514935, -0.901759133845985 ], [ 119.847513937357874, -0.901748386784149 ] ] } },
{ "type": "Feature", "properties": { "Id": 0, "Nama_Jalan": "Jl. Sumur Yuga", "Armada": 1.0, "kelurahan": "Balaroa" }, "geometry": { "type": "LineString", "coordinates": [ [ 119.840090572160918, -0.903764472641121 ], [ 119.839936696787987, -0.903804759432775 ], [ 119.839371109037671, -0.904013205367448 ], [ 119.838316969695285, -0.904537623453695 ], [ 119.837980426974354, -0.904703253153726 ], [ 119.837529275604581, -0.904856620685699 ], [ 119.837391549098584, -0.904894982228245 ], [ 119.837099462835894, -0.90496215517102 ], [ 119.836766981045088, -0.905005451794886 ], [ 119.836253996352085, -0.905056063055114 ], [ 119.835807527547374, -0.905123357618741 ], [ 119.83557956924183, -0.905190958235733 ], [ 119.834897642067958, -0.905455441767477 ], [ 119.834525755984188, -0.905528734395804 ], [ 119.834399900939147, -0.905562305011989 ], [ 119.834281174940458, -0.905600651657256 ], [ 119.834139903919748, -0.905662924274292 ], [ 119.83383241381236, -0.905775535080946 ], [ 119.833702996009407, -0.905809108526311 ], [ 119.83313424939287, -0.905930293038986 ], [ 119.832820796104798, -0.906010632505535 ], [ 119.832388638809675, -0.90615800856677 ], [ 119.831833019686258, -0.906362861745043 ], [ 119.831737678484117, -0.906388518676617 ], [ 119.831692095123927, -0.906412941005524 ], [ 119.831667897884998, -0.906450256951863 ], [ 119.831645144676585, -0.906511958189116 ], [ 119.831630928522728, -0.906556438754777 ], [ 119.83161386445542, -0.906603790556503 ], [ 119.8315782599458, -0.906632508520964 ], [ 119.831447214596295, -0.906711509034106 ], [ 119.831387376034755, -0.906730204624993 ], [ 119.831334364655518, -0.906749483050335 ] ] } },
{ "type": "Feature", "properties": { "Id": 0, "Nama_Jalan": "Jl. Gawalise", "Armada": 1.0, "kelurahan": "Balaroa" }, "geometry": { "type": "LineString", "coordinates": [ [ 119.840105203400498, -0.903760849651648 ], [ 119.839928576694177, -0.904512444120478 ], [ 119.839843446943647, -0.904993063862908 ], [ 119.839825795587004, -0.905201078182065 ], [ 119.839843706586322, -0.905326581532287 ], [ 119.839900859867626, -0.905520191969464 ], [ 119.839883264482069, -0.905799930513369 ], [ 119.839862176376712, -0.906169327164095 ], [ 119.839908815195571, -0.906585291096151 ], [ 119.839877311699325, -0.906694815040951 ], [ 119.839600235164355, -0.907125379700965 ], [ 119.839463775352911, -0.907569221883961 ], [ 119.83943731301072, -0.907747119071472 ], [ 119.839431272121729, -0.907919262167181 ], [ 119.839460034396865, -0.908253474637302 ], [ 119.839400925212431, -0.908647845683126 ] ] } },
{ "type": "Feature", "properties": { "Id": 0, "Nama_Jalan": "Jl. Topo Sando", "Armada": 1.0, "kelurahan": "Balaroa" }, "geometry": { "type": "LineString", "coordinates": [ [ 119.837413057487922, -0.90488899140622 ], [ 119.837455640122982, -0.905151987767705 ], [ 119.837499384164445, -0.905511292636389 ], [ 119.83752010342026, -0.905583000718672 ], [ 119.837534505909844, -0.905778079778728 ], [ 119.837538258419599, -0.906021939839525 ], [ 119.837528632359835, -0.906165635351912 ], [ 119.837533009649391, -0.90625493692877 ], [ 119.837548469022153, -0.906323891579871 ] ] } },
{ "type": "Feature", "properties": { "Id": 0, "Nama_Jalan": "Jl. Yambaere", "Armada": 1.0, "kelurahan": "Balaroa" }, "geometry": { "type": "LineString", "coordinates": [ [ 119.837548469022153, -0.906323891579871 ], [ 119.837597956676717, -0.906343114378998 ], [ 119.837840959858084, -0.90638093651623 ], [ 119.838243323755179, -0.906407156913061 ], [ 119.838604335352173, -0.906422400139159 ], [ 119.839252307295979, -0.906455706537541 ] ] } },
{ "type": "Feature", "properties": { "Id": 0, "Nama_Jalan": "Jl. Sungai Manonda", "Armada": 1.0, "kelurahan": "Balaroa" }, "geometry": { "type": "LineString", "coordinates": [ [ 119.847682102255163, -0.909552541354096 ], [ 119.847224178878051, -0.909545254763204 ], [ 119.845538244822478, -0.909427293415618 ], [ 119.843703377898663, -0.909294267521911 ], [ 119.841515190747728, -0.909134623818454 ], [ 119.839892521164799, -0.908763426575426 ], [ 119.839396045586099, -0.908663405718436 ] ] } },
{ "type": "Feature", "properties": { "Id": 0, "Nama_Jalan": "Huntap Balaroa", "Armada": 1.0, "kelurahan": "Balaroa" }, "geometry": { "type": "MultiLineString", "coordinates": [ [ [ 119.836645173970197, -0.907988552638839 ], [ 119.835602261727047, -0.908101930560722 ] ], [ [ 119.836645173970197, -0.907988552638839 ], [ 119.836656974028855, -0.90830909793503 ], [ 119.836642751343376, -0.908344971417088 ], [ 119.836592885189859, -0.908359355741506 ], [ 119.835621527447273, -0.908441411477112 ] ], [ [ 119.836633028807043, -0.907658630107967 ], [ 119.835578247745744, -0.907764844200997 ] ], [ [ 119.836633028807043, -0.907658630107967 ], [ 119.836645173970197, -0.907988552638839 ] ], [ [ 119.836633028807043, -0.907658630107967 ], [ 119.836623002709658, -0.907386269892318 ], [ 119.836637214239602, -0.907336051535559 ], [ 119.836658573466806, -0.907314517323694 ], [ 119.836259573377689, -0.907338740603742 ], [ 119.835554233865935, -0.907427757826473 ] ] ] } },
{ "type": "Feature", "properties": { "Id": 0, "Nama_Jalan": "BTN Grand Citra Residence", "Armada": 1.0, "kelurahan": "Balaroa" }, "geometry": { "type": "LineString", "coordinates": [ [ 119.844803784962451, -0.909374045999474 ], [ 119.844875691331737, -0.908207856773758 ], [ 119.845493234472954, -0.908231275052004 ], [ 119.845481587336508, -0.908522961565425 ], [ 119.844856918849132, -0.908499549093555 ] ] } },
{ "type": "Feature", "properties": { "Id": 0, "Nama_Jalan": "Jl. Kelor Lrg II", "Armada": 1.0, "kelurahan": "Balaroa" }, "geometry": { "type": "LineString", "coordinates": [ [ 119.847528693319674, -0.902495371236877 ], [ 119.846720174265073, -0.902547633211931 ] ] } },
{ "type": "Feature", "properties": { "Id": 0, "Nama_Jalan": "Jl. Kelor Lrg IV", "Armada": 1.0, "kelurahan": "Balaroa" }, "geometry": { "type": "LineString", "coordinates": [ [ 119.847604973243904, -0.9062078641029 ], [ 119.84739862169701, -0.906202293565622 ], [ 119.846971078120518, -0.906167248331056 ], [ 119.846954251751484, -0.90651823025448 ] ] } },
{ "type": "Feature", "properties": { "Id": 0, "Nama_Jalan": "Jl. Kelor Lrg V", "Armada": 1.0, "kelurahan": "Balaroa" }, "geometry": { "type": "LineString", "coordinates": [ [ 119.847613201988182, -0.906591931295212 ], [ 119.848000301867984, -0.906595819620666 ], [ 119.848020129219279, -0.906438011634079 ] ] } },
{ "type": "Feature", "properties": { "Id": 0, "Nama_Jalan": "Jl. Kelor Lrg I", "Armada": 1.0, "kelurahan": "Balaroa" }, "geometry": { "type": "LineString", "coordinates": [ [ 119.847524912705538, -0.902303989249932 ], [ 119.847135051760617, -0.902325829893398 ] ] } },
{ "type": "Feature", "properties": { "Id": 0, "Nama_Jalan": "Jl. Manggis Lrg II", "Armada": 1.0, "kelurahan": "Balaroa" }, "geometry": { "type": "LineString", "coordinates": [ [ 119.840714086864793, -0.903720948710596 ], [ 119.84066581532403, -0.90311405461969 ], [ 119.840687648411304, -0.903091085680043 ], [ 119.841206215192656, -0.902891284149764 ], [ 119.841231855113989, -0.902876919127599 ], [ 119.841250356365464, -0.902845345920779 ], [ 119.84122306407528, -0.902567077553721 ], [ 119.841485250407658, -0.902535312580741 ], [ 119.841565044782058, -0.902523773915291 ], [ 119.841737447897088, -0.902486341667227 ], [ 119.841845723363107, -0.902448959892499 ], [ 119.842061577516787, -0.902394518741342 ], [ 119.842232562177713, -0.902365694516545 ], [ 119.84254890601413, -0.902341059326695 ], [ 119.842841745230388, -0.902333636914726 ] ] } },
{ "type": "Feature", "properties": { "Id": 0, "Nama_Jalan": "Jl. Manggis Lrg I", "Armada": 1.0, "kelurahan": "Balaroa" }, "geometry": { "type": "LineString", "coordinates": [ [ 119.846696605786761, -0.901772006626158 ], [ 119.84670899996523, -0.902494020876434 ] ] } },
{ "type": "Feature", "properties": { "Id": 0, "Nama_Jalan": "BTN Harvest", "Armada": 1.0, "kelurahan": "Balaroa" }, "geometry": { "type": "LineString", "coordinates": [ [ 119.837548469022153, -0.906323891579871 ], [ 119.836772162204639, -0.906321515639185 ] ] } },
{ "type": "Feature", "properties": { "Id": 0, "Nama_Jalan": "Jl. Yambaere Lrg I", "Armada": 1.0, "kelurahan": "Balaroa" }, "geometry": { "type": "LineString", "coordinates": [ [ 119.839206741124173, -0.904094975863614 ], [ 119.839259161303616, -0.904276716572188 ], [ 119.839262989727487, -0.90431305387316 ], [ 119.839263981414405, -0.90436660724356 ], [ 119.839254589586389, -0.904506237969574 ], [ 119.839246067477575, -0.904542585003653 ], [ 119.839241354462317, -0.904590404925921 ], [ 119.839227298758459, -0.904840972936324 ], [ 119.83922638592135, -0.904888789864436 ], [ 119.839221682593518, -0.904949041995475 ], [ 119.839206500530722, -0.904972962070676 ], [ 119.839178173050783, -0.90498244249902 ], [ 119.839080505467166, -0.904978488554309 ], [ 119.838729899067658, -0.904926167123122 ], [ 119.838705318960706, -0.904929055473681 ], [ 119.838692261461844, -0.904936238201591 ], [ 119.838678621346745, -0.904957766258298 ], [ 119.83866914836176, -0.904993038196921 ], [ 119.838636762476341, -0.905342361309945 ], [ 119.838610576374549, -0.905875532969949 ], [ 119.838599846971391, -0.906127293910221 ], [ 119.838595535819621, -0.906422028591307 ] ] } },
{ "type": "Feature", "properties": { "Id": 0, "Nama_Jalan": "Lrg. Tolia I", "Armada": 1.0, "kelurahan": "Balaroa" }, "geometry": { "type": "LineString", "coordinates": [ [ 119.8388237588116, -0.906433678737112 ], [ 119.838797807371321, -0.906882992642064 ], [ 119.83880031856981, -0.907057519882189 ] ] } },
{ "type": "Feature", "properties": { "Id": 0, "Nama_Jalan": "Jl Tolia", "Armada": 1.0, "kelurahan": "Balaroa" }, "geometry": { "type": "LineString", "coordinates": [ [ 119.837572632156579, -0.906914801864856 ], [ 119.837980002394445, -0.906964687205258 ], [ 119.838513252246912, -0.907013277606255 ], [ 119.838637952814622, -0.907022742328365 ], [ 119.838735346169798, -0.907040596460914 ], [ 119.83880031856981, -0.907057519882189 ], [ 119.838923348274776, -0.907107151532729 ], [ 119.838920532830414, -0.907151622842956 ], [ 119.838909168123934, -0.907197535396848 ], [ 119.838879279826998, -0.907246331565586 ], [ 119.838842265092111, -0.907293698882646 ], [ 119.838799541148973, -0.907329594820994 ], [ 119.838751116948387, -0.907365495267217 ], [ 119.83870696010483, -0.907391350934383 ], [ 119.838675067963749, -0.907915920195897 ], [ 119.838643352131783, -0.908361831643923 ], [ 119.838627965277269, -0.908427591139117 ] ] } },
{ "type": "Feature", "properties": { "Id": 0, "Nama_Jalan": "Lrg. Tolia", "Armada": 1.0, "kelurahan": "Balaroa" }, "geometry": { "type": "LineString", "coordinates": [ [ 119.837511018819626, -0.907601492293822 ], [ 119.837712937606369, -0.90764556276169 ], [ 119.837799622556531, -0.907637126398281 ], [ 119.837971790894045, -0.907602323521181 ], [ 119.83802998011835, -0.907601082119582 ], [ 119.838136853462601, -0.907592629795925 ] ] } },
{ "type": "Feature", "properties": { "Id": 0, "Nama_Jalan": "Lrg. Kamboja I", "Armada": 1.0, "kelurahan": "Balaroa" }, "geometry": { "type": "LineString", "coordinates": [ [ 119.846526629682728, -0.90571937968017 ], [ 119.846489824738271, -0.906034993774427 ], [ 119.846442264093497, -0.906567700622238 ], [ 119.846416354872858, -0.906845053407327 ], [ 119.846416467022678, -0.90698850104311 ], [ 119.846430740933116, -0.907018374676809 ], [ 119.846461626457554, -0.907030304183194 ], [ 119.846534070455633, -0.907035028375287 ], [ 119.84666114619769, -0.907045686264696 ], [ 119.84668609679639, -0.907061206660969 ], [ 119.846695618657947, -0.90708869325643 ], [ 119.846696839858424, -0.907131726595553 ], [ 119.846676658953825, -0.907748328582824 ] ] } },
{ "type": "Feature", "properties": { "Id": 0, "Nama_Jalan": "Lrg. Kamboja II", "Armada": 1.0, "kelurahan": "Balaroa" }, "geometry": { "type": "LineString", "coordinates": [ [ 119.846221054947591, -0.905694742210976 ], [ 119.846181607508399, -0.906276214981587 ], [ 119.846142061677611, -0.906731453840398 ], [ 119.846148022053669, -0.907064247919132 ], [ 119.846161627699885, -0.907454415037299 ], [ 119.846160844870312, -0.90766815281453 ], [ 119.846193695211966, -0.907762802287807 ], [ 119.846213697616264, -0.907828772393277 ], [ 119.846243787682113, -0.908038182242459 ], [ 119.846263859727244, -0.908193089885272 ], [ 119.846291000910952, -0.908276268044022 ], [ 119.846322402664271, -0.908340794612554 ], [ 119.846429401984508, -0.908494198779586 ], [ 119.846415236822267, -0.908603230290685 ] ] } }
]
}
