{
"type": "FeatureCollection",
"name": "Baru",
"crs": { "type": "name", "properties": { "name": "urn:ogc:def:crs:OGC:1.3:CRS84" } },
"features": [
{ "type": "Feature", "properties": { "Id": 0, "Nama_Jalan": "Jl. KH. Wahid Hasyim", "Armada": 2.0, "panjang": 0.75570484716099995, "kelurahan": "Baru" }, "geometry": { "type": "LineString", "coordinates": [ [ 119.86090986255364, -0.892974366566029 ], [ 119.860781469139965, -0.893046391025427 ], [ 119.860497887336294, -0.893199323531779 ], [ 119.860204427943756, -0.893325068866219 ], [ 119.859954578213461, -0.893409599080177 ], [ 119.859766502807702, -0.89344704252235 ], [ 119.858110724652093, -0.893542352008298 ], [ 119.856252323735703, -0.893651392880726 ], [ 119.855919831242744, -0.893672572596778 ], [ 119.855797812548076, -0.893697959735077 ] ] } },
{ "type": "Feature", "properties": { "Id": 0, "Nama_Jalan": "Jl. H. Agus Salim", "Armada": 21.0, "panjang": 0.463407387128, "kelurahan": "Baru" }, "geometry": { "type": "LineString", "coordinates": [ [ 119.85790429420571, -0.891431064594654 ], [ 119.857901689874794, -0.891540417841496 ], [ 119.857946745300666, -0.892388335612273 ], [ 119.857961767172867, -0.892618435602471 ], [ 119.857982722117086, -0.892842554011846 ], [ 119.858110724652093, -0.893542352008298 ], [ 119.858185484845507, -0.893983988343588 ], [ 119.858197790421798, -0.894539832926069 ], [ 119.858201050881959, -0.894916376781039 ], [ 119.858142200132846, -0.895594804245626 ] ] } },
{ "type": "Feature", "properties": { "Id": 0, "Nama_Jalan": "Jl. Diponegoro", "Armada": 2.0, "panjang": 0.28505133164000002, "kelurahan": "Baru" }, "geometry": { "type": "LineString", "coordinates": [ [ 119.855200851996614, -0.892216720180305 ], [ 119.855231948852762, -0.892257173559057 ], [ 119.855690041406376, -0.893413353356728 ], [ 119.856011330990128, -0.894261827083966 ], [ 119.856070809269468, -0.894393273109791 ], [ 119.856130271378476, -0.894503799850334 ], [ 119.856195623639948, -0.894581319368272 ] ] } },
{ "type": "Feature", "properties": { "Id": 0, "Nama_Jalan": "Jl. Pimpilido", "Armada": 2.0, "panjang": 0.184106113963, "kelurahan": "Baru" }, "geometry": { "type": "LineString", "coordinates": [ [ 119.857219369803119, -0.891934361366644 ], [ 119.857188039797677, -0.89239769551452 ], [ 119.857174033183867, -0.892713288516973 ], [ 119.857260851495766, -0.893592218045705 ] ] } },
{ "type": "Feature", "properties": { "Id": 0, "Nama_Jalan": "Jl. Durian", "Armada": 2.0, "panjang": 0.51856178920499996, "kelurahan": "Baru" }, "geometry": { "type": "LineString", "coordinates": [ [ 119.849971932980282, -0.895808942999806 ], [ 119.852427622007013, -0.89563010027559 ], [ 119.853472169912806, -0.895621680203074 ], [ 119.854620399980092, -0.895628299999887 ] ] } },
{ "type": "Feature", "properties": { "Id": 0, "Nama_Jalan": "Jl. KH. Mas Mansyur", "Armada": 2.0, "panjang": 0.33920729279400003, "kelurahan": "Baru" }, "geometry": { "type": "LineString", "coordinates": [ [ 119.859877792340086, -0.893406823675105 ], [ 119.859829889850332, -0.892748962911603 ], [ 119.859813212716531, -0.892682034487621 ], [ 119.859762577681735, -0.892622065889232 ], [ 119.859215884791254, -0.892065444986765 ], [ 119.859063399979931, -0.891966299999935 ], [ 119.858445475488864, -0.891629758018494 ], [ 119.858119281909708, -0.891470094841547 ], [ 119.857999853192808, -0.891446360393335 ], [ 119.85790429420571, -0.891431064594654 ] ] } },
{ "type": "Feature", "properties": { "Id": 0, "Nama_Jalan": "Jl. WR. Supratman", "Armada": 2.0, "panjang": 0.21711587896000001, "kelurahan": "Baru" }, "geometry": { "type": "LineString", "coordinates": [ [ 119.851615399980219, -0.895688299999907 ], [ 119.8516211878745, -0.894585530862216 ], [ 119.851605382133911, -0.893726600237132 ] ] } },
{ "type": "Feature", "properties": { "Id": 0, "Nama_Jalan": "Jl. S. Miu", "Armada": 1.0, "panjang": 0.226482050341, "kelurahan": "Baru" }, "geometry": { "type": "LineString", "coordinates": [ [ 119.862555479330766, -0.893949379560533 ], [ 119.862325753230166, -0.894180029436602 ], [ 119.86183155142588, -0.894546204348995 ], [ 119.861750400327153, -0.894643811250661 ], [ 119.861102998399346, -0.895304649084889 ], [ 119.861066801569009, -0.895333964408331 ] ] } },
{ "type": "Feature", "properties": { "Id": 0, "Nama_Jalan": "Jl. Teuku Umar", "Armada": 1.0, "panjang": 0.25138753484100002, "kelurahan": "Baru" }, "geometry": { "type": "LineString", "coordinates": [ [ 119.859877792340086, -0.893406823675105 ], [ 119.859915391227815, -0.893515734531209 ], [ 119.861066801569009, -0.895333964408331 ] ] } },
{ "type": "Feature", "properties": { "Id": 0, "Nama_Jalan": "Lrg. Monteza", "Armada": 1.0, "panjang": 0.104219367506, "kelurahan": "Baru" }, "geometry": { "type": "LineString", "coordinates": [ [ 119.860458813504621, -0.894373871555545 ], [ 119.860755007238055, -0.894173373300122 ], [ 119.860794879225395, -0.894136046059355 ], [ 119.860803392742824, -0.894088702220938 ], [ 119.861032740542981, -0.893982372225365 ], [ 119.861125526479839, -0.894187427010978 ] ] } },
{ "type": "Feature", "properties": { "Id": 0, "Nama_Jalan": "Jl. Hos Cokroaminoto", "Armada": 1.0, "panjang": 0.30988893854499999, "kelurahan": "Baru" }, "geometry": { "type": "LineString", "coordinates": [ [ 119.858200785488719, -0.894885727592749 ], [ 119.85831212003194, -0.894828847158965 ], [ 119.858424916761308, -0.89480485091825 ], [ 119.858594158134267, -0.894828625774483 ], [ 119.860111433551026, -0.895096395694624 ], [ 119.860800252432213, -0.895164588974334 ], [ 119.860930897667828, -0.895119354539759 ] ] } },
{ "type": "Feature", "properties": { "Id": 0, "Nama_Jalan": "Lrg. Kantor Kelurahan", "Armada": 1.0, "panjang": 0.17364235382599999, "kelurahan": "Baru" }, "geometry": { "type": "LineString", "coordinates": [ [ 119.859915391227815, -0.893515734531209 ], [ 119.859816346604703, -0.893581119999028 ], [ 119.859770107065827, -0.893676786964895 ], [ 119.859710876911194, -0.893865704068411 ], [ 119.859700642884789, -0.89414495376849 ], [ 119.859642046704295, -0.894538998291133 ], [ 119.859562031051553, -0.894999436843567 ] ] } },
{ "type": "Feature", "properties": { "Id": 0, "Nama_Jalan": "Lrg. Masjid Jami", "Armada": 1.0, "panjang": 0.060091211760599998, "kelurahan": "Baru" }, "geometry": { "type": "LineString", "coordinates": [ [ 119.858187398093349, -0.894070410817582 ], [ 119.858726811388308, -0.894069930390725 ] ] } },
{ "type": "Feature", "properties": { "Id": 0, "Nama_Jalan": "Jl. Daeng Pawindu", "Armada": 1.0, "panjang": 0.16899981038199999, "kelurahan": "Baru" }, "geometry": { "type": "LineString", "coordinates": [ [ 119.860135616827407, -0.896623200072111 ], [ 119.860102612711231, -0.89632916172025 ], [ 119.860118916302724, -0.895914589923482 ], [ 119.860131958846097, -0.895098427707648 ] ] } },
{ "type": "Feature", "properties": { "Id": 0, "Nama_Jalan": "Lrg. Warung Makan Kita", "Armada": 1.0, "panjang": 0.077209101765899998, "kelurahan": "Baru" }, "geometry": { "type": "LineString", "coordinates": [ [ 119.860786866848116, -0.89663559762471 ], [ 119.860524563920961, -0.896511006108511 ], [ 119.860467554813653, -0.896501009756074 ], [ 119.860122418739138, -0.896505616518403 ] ] } },
{ "type": "Feature", "properties": { "Id": 0, "Nama_Jalan": "Jl. Jaelangkara", "Armada": 1.0, "panjang": 0.33461089155700002, "kelurahan": "Baru" }, "geometry": { "type": "LineString", "coordinates": [ [ 119.854624324704773, -0.894528270399755 ], [ 119.8516211878745, -0.894585530862216 ] ] } },
{ "type": "Feature", "properties": { "Id": 0, "Nama_Jalan": "Lrg. S. Miu", "Armada": 1.0, "panjang": 0.17113340907899999, "kelurahan": "Baru" }, "geometry": { "type": "LineString", "coordinates": [ [ 119.862238307332078, -0.894244821774524 ], [ 119.861945880745111, -0.893777317755615 ], [ 119.861599422909563, -0.89324421030758 ], [ 119.861431026211193, -0.892930195992177 ] ] } },
{ "type": "Feature", "properties": { "Id": 0, "Nama_Jalan": "Lrg. TPA", "Armada": 1.0, "panjang": 0.082710022910299996, "kelurahan": "Baru" }, "geometry": { "type": "LineString", "coordinates": [ [ 119.859222550434808, -0.894939525052049 ], [ 119.859128083011527, -0.895420343195216 ], [ 119.859051321383234, -0.895665696410437 ] ] } },
{ "type": "Feature", "properties": { "Id": 0, "Nama_Jalan": "Lrg. Flamboyan I", "Armada": 1.0, "panjang": 0.112647344612, "kelurahan": "Baru" }, "geometry": { "type": "LineString", "coordinates": [ [ 119.858199941750897, -0.894788287108648 ], [ 119.85794850423936, -0.894784197451565 ], [ 119.857885844904544, -0.894838756215078 ], [ 119.857669250622408, -0.894853270823319 ], [ 119.857619505477061, -0.895022576524829 ], [ 119.857568307531224, -0.895156021797786 ], [ 119.857498577458458, -0.895280874850847 ] ] } },
{ "type": "Feature", "properties": { "Id": 0, "Nama_Jalan": "Lrg. Flamboyan II", "Armada": 1.0, "panjang": 0.052890744216999998, "kelurahan": "Baru" }, "geometry": { "type": "LineString", "coordinates": [ [ 119.858193492918858, -0.894345715516669 ], [ 119.857718959543917, -0.894330370001712 ] ] } },
{ "type": "Feature", "properties": { "Id": 0, "Nama_Jalan": "Kompleks Pasar Bambaru", "Armada": 1.0, "panjang": 0.17833892441599999, "kelurahan": "Baru" }, "geometry": { "type": "MultiLineString", "coordinates": [ [ [ 119.860524563920961, -0.896511006108511 ], [ 119.860489967942272, -0.895952607746952 ] ], [ [ 119.860116544879773, -0.895974890828993 ], [ 119.860489967942272, -0.895952607746952 ] ], [ [ 119.860489967942272, -0.895952607746952 ], [ 119.861159777975175, -0.895912638439364 ] ] ] } },
{ "type": "Feature", "properties": { "Id": 0, "Nama_Jalan": "Lrg. KH. Wahid Hasyim III", "Armada": 2.0, "panjang": 0.097194580912999998, "kelurahan": "Baru" }, "geometry": { "type": "LineString", "coordinates": [ [ 119.859011595278346, -0.893481961092067 ], [ 119.858946017412705, -0.892794322217434 ], [ 119.858759811578125, -0.892792555451281 ] ] } },
{ "type": "Feature", "properties": { "Id": 0, "Nama_Jalan": "Lrg. KH. Wahid Hasyim II", "Armada": 2.0, "panjang": 0.18520140824699999, "kelurahan": "Baru" }, "geometry": { "type": "LineString", "coordinates": [ [ 119.856616823308414, -0.893630006086714 ], [ 119.856622625300844, -0.893882270102063 ], [ 119.856649876294085, -0.894108894135795 ], [ 119.856708035686978, -0.894377571547735 ], [ 119.856793614847092, -0.894476960638026 ], [ 119.857316028949285, -0.894348405515076 ], [ 119.857306339265151, -0.894103597983433 ] ] } },
{ "type": "Feature", "properties": { "Id": 0, "Nama_Jalan": "Lrg. Akbar", "Armada": 2.0, "panjang": 0.223341068235, "kelurahan": "Baru" }, "geometry": { "type": "LineString", "coordinates": [ [ 119.855555293833817, -0.893073264390768 ], [ 119.855994060657792, -0.892954783082687 ], [ 119.856056373708711, -0.892912895744995 ], [ 119.856103805694659, -0.89282320455065 ], [ 119.856094580790526, -0.892410803028169 ], [ 119.856536947364077, -0.892425399331954 ], [ 119.856554790310597, -0.892464235456328 ], [ 119.856550413166161, -0.892947175300784 ] ] } },
{ "type": "Feature", "properties": { "Id": 0, "Nama_Jalan": "Lrg. Biji Durian", "Armada": 2.0, "panjang": 0.11936972020599999, "kelurahan": "Baru" }, "geometry": { "type": "LineString", "coordinates": [ [ 119.853602284324381, -0.895622430359616 ], [ 119.853675900884411, -0.894546354138853 ] ] } },
{ "type": "Feature", "properties": { "Id": 0, "Nama_Jalan": "Lrg. KH. Mas Mansyur I", "Armada": 2.0, "panjang": 0.21647005861499999, "kelurahan": "Baru" }, "geometry": { "type": "LineString", "coordinates": [ [ 119.86090986255364, -0.892974366566029 ], [ 119.860739197427435, -0.892492079408895 ], [ 119.860693458913147, -0.892314242279692 ], [ 119.860632421060942, -0.892008272070673 ], [ 119.860588430475843, -0.891633434425101 ], [ 119.859987300366214, -0.891689474219364 ] ] } }
]
}
