{
"type": "FeatureCollection",
"name": "Besusu Barat",
"crs": { "type": "name", "properties": { "name": "urn:ogc:def:crs:OGC:1.3:CRS84" } },
"features": [
{ "type": "Feature", "properties": { "Id": 0, "Nama_Jalan": "Lorong Bakso", "Armada": 2.0, "panjang": 0.36752004717800002, "kelurahan": "Besusu Barat" }, "geometry": { "type": "LineString", "coordinates": [ [ 119.866363176033005, -0.893460093485313 ], [ 119.865759882261997, -0.893417533984209 ], [ 119.86513517944168, -0.893331957540664 ], [ 119.864389486166488, -0.893423391982788 ], [ 119.864384895450854, -0.893629000768497 ], [ 119.86405480498027, -0.893681856736389 ], [ 119.863833929453847, -0.893686811740778 ], [ 119.863686504294961, -0.893464586906612 ], [ 119.863471413512698, -0.893272299620115 ] ] } },
{ "type": "Feature", "properties": { "Id": 0, "Nama_Jalan": "Jl. Sriwijaya", "Armada": 2.0, "panjang": 0.30415913007700002, "kelurahan": "Besusu Barat" }, "geometry": { "type": "LineString", "coordinates": [ [ 119.864211144118883, -0.891997444721347 ], [ 119.864198767300309, -0.891348961230685 ], [ 119.86424581772711, -0.890766177049818 ], [ 119.864263480466846, -0.890571914117048 ], [ 119.864245522212642, -0.890383655963849 ], [ 119.864214528487253, -0.890230671689164 ], [ 119.864197796115519, -0.890092020798425 ], [ 119.864230402776599, -0.889257620650417 ] ] } },
{ "type": "Feature", "properties": { "Id": 0, "Nama_Jalan": "Jl. Haji Nahu", "Armada": 2.0, "panjang": 0.27680523258200002, "kelurahan": "Besusu Barat" }, "geometry": { "type": "LineString", "coordinates": [ [ 119.864213308520846, -0.89116884786291 ], [ 119.863812733981021, -0.891080900942056 ], [ 119.863286351668151, -0.890987595326784 ], [ 119.862691610656427, -0.890949808717688 ], [ 119.861996188002891, -0.890938877299928 ], [ 119.861754930381011, -0.891000269621738 ] ] } },
{ "type": "Feature", "properties": { "Id": 0, "Nama_Jalan": "Jl. Hayam Wuruk I", "Armada": 2.0, "panjang": 0.20110319165599999, "kelurahan": "Besusu Barat" }, "geometry": { "type": "LineString", "coordinates": [ [ 119.863162378037913, -0.890979718726277 ], [ 119.863189222291425, -0.890693129680743 ], [ 119.863243996942856, -0.89027040038513 ], [ 119.863262815708026, -0.890035134850235 ], [ 119.863283229133344, -0.889403958176305 ], [ 119.863292547891859, -0.889168700085235 ] ] } },
{ "type": "Feature", "properties": { "Id": 0, "Nama_Jalan": "Lrg. Bidan Patrina", "Armada": 2.0, "panjang": 0.083695622559600003, "kelurahan": "Besusu Barat" }, "geometry": { "type": "LineString", "coordinates": [ [ 119.863609088579508, -0.890503235529752 ], [ 119.863917871857083, -0.890492870724917 ], [ 119.863916047166953, -0.890590415117179 ], [ 119.864261446468916, -0.890594284943911 ] ] } },
{ "type": "Feature", "properties": { "Id": 0, "Nama_Jalan": "Palu Golden", "Armada": 2.0, "panjang": 0.146178017632, "kelurahan": "Besusu Barat" }, "geometry": { "type": "LineString", "coordinates": [ [ 119.868653281358419, -0.885357961338237 ], [ 119.868930131244085, -0.88491862024285 ], [ 119.868934839024959, -0.884863629361114 ], [ 119.868894426762708, -0.884815845874068 ], [ 119.86881365186386, -0.884784829064308 ], [ 119.868780419827075, -0.884808762437994 ], [ 119.868673681335821, -0.884988151755693 ], [ 119.868619083216018, -0.885024055528866 ], [ 119.868576347377356, -0.88504321481812 ], [ 119.868521762121077, -0.885095853830629 ], [ 119.868446552755373, -0.885232859306214 ] ] } },
{ "type": "Feature", "properties": { "Id": 0, "Nama_Jalan": "Kompleks Asrama Korem", "Armada": 1.0, "panjang": 0.26206478091099999, "kelurahan": "Besusu Barat" }, "geometry": { "type": "LineString", "coordinates": [ [ 119.869417863399107, -0.895230131277798 ], [ 119.869114999894421, -0.895170601318241 ], [ 119.869153401308637, -0.894922530959285 ], [ 119.868714901617182, -0.894829965293837 ], [ 119.868607489942704, -0.895435935237966 ], [ 119.86896664754974, -0.895502593057361 ], [ 119.869006384472428, -0.895292175887804 ], [ 119.869046931068979, -0.895206634836358 ], [ 119.869101532715888, -0.895175512075641 ] ] } },
{ "type": "Feature", "properties": { "Id": 0, "Nama_Jalan": "Jl. A.R. Hakim", "Armada": 1.0, "panjang": 0.42036406605400001, "kelurahan": "Besusu Barat" }, "geometry": { "type": "LineString", "coordinates": [ [ 119.86812172837142, -0.892224784616298 ], [ 119.868180622672796, -0.891603143378873 ], [ 119.868422964679127, -0.890182848012846 ], [ 119.868594660886217, -0.88923669404952 ], [ 119.868690440204787, -0.888471749929074 ] ] } },
{ "type": "Feature", "properties": { "Id": 0, "Nama_Jalan": "Jl. Mulawarman", "Armada": 2.0, "panjang": 0.30237343238199998, "kelurahan": "Besusu Barat" }, "geometry": { "type": "LineString", "coordinates": [ [ 119.865096278174789, -0.892107507309063 ], [ 119.865076076758712, -0.891587169630712 ], [ 119.865139568750337, -0.890767090429972 ], [ 119.865174638354901, -0.890047445321624 ], [ 119.865216874105599, -0.88938039128801 ] ] } },
{ "type": "Feature", "properties": { "Id": 0, "Nama_Jalan": "Lrg. Pegadaian", "Armada": 1.0, "panjang": 0.140708670403, "kelurahan": "Besusu Barat" }, "geometry": { "type": "LineString", "coordinates": [ [ 119.870672455297282, -0.883457432462541 ], [ 119.870810229689653, -0.883487209537461 ], [ 119.870796032800826, -0.883556552178851 ], [ 119.87110601573265, -0.883611297980225 ], [ 119.871093020150084, -0.883698570250127 ], [ 119.871735529646713, -0.883793761387014 ] ] } },
{ "type": "Feature", "properties": { "Id": 0, "Nama_Jalan": "Lrg Raden Saleh", "Armada": 1.0, "panjang": 0.12066362157, "kelurahan": "Besusu Barat" }, "geometry": { "type": "LineString", "coordinates": [ [ 119.869414739166302, -0.884719121967349 ], [ 119.869155851856448, -0.884707369907461 ], [ 119.869044379891548, -0.884908279589039 ], [ 119.868840932831844, -0.885471518780938 ] ] } },
{ "type": "Feature", "properties": { "Id": 0, "Nama_Jalan": "Jl. Panglima Polem", "Armada": 1.0, "panjang": 0.376658799559, "kelurahan": "Besusu Barat" }, "geometry": { "type": "LineString", "coordinates": [ [ 119.86911824887585, -0.885665453623174 ], [ 119.868919020187718, -0.886021352348892 ], [ 119.868810895510336, -0.886250948565489 ], [ 119.868721819715887, -0.886543645726207 ], [ 119.868670743001928, -0.886834400664582 ], [ 119.86865579483883, -0.887161466797558 ], [ 119.86866154393681, -0.887635786905095 ], [ 119.868982636941155, -0.887620952416965 ], [ 119.869486158177693, -0.887639684859724 ], [ 119.869989671817933, -0.887648854237731 ] ] } },
{ "type": "Feature", "properties": { "Id": 0, "Nama_Jalan": "Lrg Panglima Polem II", "Armada": 1.0, "panjang": 0.16431016864100001, "kelurahan": "Besusu Barat" }, "geometry": { "type": "LineString", "coordinates": [ [ 119.868673228738899, -0.886820250561897 ], [ 119.869211732305885, -0.886881315070447 ], [ 119.869516661813776, -0.886849519072733 ], [ 119.869605414947387, -0.886754776177391 ], [ 119.869698501350015, -0.886735577510127 ], [ 119.869818211651932, -0.886746959608253 ], [ 119.870084287086868, -0.886840469048236 ] ] } },
{ "type": "Feature", "properties": { "Id": 0, "Nama_Jalan": "Lrg. Perdagangan", "Armada": 1.0, "panjang": 0.193878951912, "kelurahan": "Besusu Barat" }, "geometry": { "type": "LineString", "coordinates": [ [ 119.870848438459532, -0.888155817477873 ], [ 119.869546811906901, -0.888013390914471 ], [ 119.869214520746283, -0.888289782122119 ] ] } },
{ "type": "Feature", "properties": { "Id": 0, "Nama_Jalan": "Kantor ESDM", "Armada": 2.0, "panjang": 0.13600785451299999, "kelurahan": "Besusu Barat" }, "geometry": { "type": "LineString", "coordinates": [ [ 119.870786478434255, -0.888314108341896 ], [ 119.870408350318215, -0.888283802705827 ], [ 119.870338401064018, -0.888739055370202 ], [ 119.870716557342007, -0.88880570016022 ] ] } },
{ "type": "Feature", "properties": { "Id": 0, "Nama_Jalan": "Lrg Gereja", "Armada": 2.0, "panjang": 0.094526999811800003, "kelurahan": "Besusu Barat" }, "geometry": { "type": "LineString", "coordinates": [ [ 119.86808555060145, -0.893625331635518 ], [ 119.867996073075545, -0.894474704549258 ] ] } },
{ "type": "Feature", "properties": { "Id": 0, "Nama_Jalan": "Jl Komp Asrama Korem", "Armada": 2.0, "panjang": 0.182628955994, "kelurahan": "Besusu Barat" }, "geometry": { "type": "LineString", "coordinates": [ [ 119.867996073075545, -0.894474704549258 ], [ 119.869094638450505, -0.894616686721544 ], [ 119.869615660865634, -0.894723839091863 ] ] } },
{ "type": "Feature", "properties": { "Id": 0, "Nama_Jalan": "Lrg. Chapizta", "Armada": 1.0, "panjang": 0.38854641400899997, "kelurahan": "Besusu Barat" }, "geometry": { "type": "LineString", "coordinates": [ [ 119.869590559185639, -0.885896615216475 ], [ 119.869691495781481, -0.88558526123276 ], [ 119.869806725649497, -0.885329839627604 ], [ 119.869806671565996, -0.885259551719991 ], [ 119.869786674978116, -0.885199320494983 ], [ 119.869749594745883, -0.885160619305239 ], [ 119.869710818828054, -0.884770001506044 ], [ 119.869722013088236, -0.884502229144795 ], [ 119.869719808782676, -0.88410632319455 ], [ 119.869860482857518, -0.884076887172103 ], [ 119.869917511061686, -0.884112703964084 ], [ 119.870097084027947, -0.884139818637014 ], [ 119.870193987312305, -0.884142612068541 ], [ 119.870836593180258, -0.884043134753798 ], [ 119.871016126307424, -0.884018609330209 ], [ 119.871093020150084, -0.883698570250127 ] ] } },
{ "type": "Feature", "properties": { "Id": 0, "Nama_Jalan": "Lrg. Coca Cola", "Armada": 1.0, "panjang": 0.174467239291, "kelurahan": "Besusu Barat" }, "geometry": { "type": "LineString", "coordinates": [ [ 119.868690440204787, -0.888471749929074 ], [ 119.868630500129356, -0.88845387172544 ], [ 119.867828189004854, -0.888422224018315 ], [ 119.867127549138758, -0.888416794892563 ] ] } },
{ "type": "Feature", "properties": { "Id": 0, "Nama_Jalan": "Lrg. Hayam Wuruk I", "Armada": 2.0, "panjang": 0.10711758292199999, "kelurahan": "Besusu Barat" }, "geometry": { "type": "LineString", "coordinates": [ [ 119.863609088579508, -0.890503235529752 ], [ 119.863615744050563, -0.890305116045998 ], [ 119.863654888504158, -0.889940733675028 ], [ 119.863633968190754, -0.889914929833508 ], [ 119.863267620480329, -0.889886571863015 ] ] } },
{ "type": "Feature", "properties": { "Id": 0, "Nama_Jalan": "Lrg. Wahidin I", "Armada": 1.0, "panjang": 0.167609815499, "kelurahan": "Besusu Barat" }, "geometry": { "type": "LineString", "coordinates": [ [ 119.866494405290297, -0.892901611727042 ], [ 119.866799364793351, -0.89290710998687 ], [ 119.867006458541269, -0.892894515385785 ], [ 119.867264798576812, -0.892811592411029 ], [ 119.867486862756152, -0.892809027200401 ], [ 119.867768799969809, -0.892758400688429 ], [ 119.867981122689883, -0.892751061612125 ] ] } },
{ "type": "Feature", "properties": { "Id": 0, "Nama_Jalan": "Lrg. Cut Mutia", "Armada": 1.0, "panjang": 0.109296019124, "kelurahan": "Besusu Barat" }, "geometry": { "type": "LineString", "coordinates": [ [ 119.869860482857518, -0.884076887172103 ], [ 119.869888993582862, -0.883437338009239 ], [ 119.869903104971527, -0.883256586601344 ], [ 119.869893059385106, -0.883164789752999 ], [ 119.869848838750087, -0.883106011784073 ] ] } },
{ "type": "Feature", "properties": { "Id": 0, "Nama_Jalan": "Jl. Cut Nyak Dien", "Armada": 2.0, "panjang": 0.48211693270400002, "kelurahan": "Besusu Barat" }, "geometry": { "type": "LineString", "coordinates": [ [ 119.866373528152977, -0.89579422663285 ], [ 119.867295598235458, -0.895895345975267 ], [ 119.869144510608251, -0.896128659420716 ], [ 119.869262873950348, -0.896087206092484 ], [ 119.869390364124001, -0.895871340547679 ], [ 119.869615660865634, -0.894723839091863 ] ] } }
]
}
