{
"type": "FeatureCollection",
"name": "Besusu Timur",
"crs": { "type": "name", "properties": { "name": "urn:ogc:def:crs:OGC:1.3:CRS84" } },
"features": [
{ "type": "Feature", "properties": { "Id": 0, "Nama_Jalan": "Jl. Otista IV", "Armada": 1.0, "Armada_1": "1", "panjang": 0.29121944236699998, "kelurahan": "Besusu Timur" }, "geometry": { "type": "LineString", "coordinates": [ [ 119.881591738206893, -0.889345218534602 ], [ 119.881524750145033, -0.889564644279945 ], [ 119.881450029512578, -0.889683282868152 ], [ 119.881406184709633, -0.889802853465693 ], [ 119.881339875387809, -0.890048671882704 ], [ 119.881136801685514, -0.891916714797638 ] ] } },
{ "type": "Feature", "properties": { "Id": 0, "Nama_Jalan": "Jl. Moh. Thamrin", "Armada": 1.0, "Armada_1": "1", "panjang": 1.7501285254000001, "kelurahan": "Besusu Timur" }, "geometry": { "type": "LineString", "coordinates": [ [ 119.880542383670189, -0.895480218756119 ], [ 119.881861083698723, -0.895599666979836 ], [ 119.883659910608699, -0.895745390393705 ], [ 119.886961346063316, -0.895975866133707 ], [ 119.883659910608699, -0.895745390393705 ], [ 119.881861083698723, -0.895599666979836 ], [ 119.880546507155898, -0.895480592263591 ], [ 119.878818783822666, -0.895262362994952 ], [ 119.877726201600822, -0.895167597795394 ] ] } },
{ "type": "Feature", "properties": { "Id": 0, "Nama_Jalan": "Jl. Slamet Riyadi", "Armada": 1.0, "Armada_1": "1", "panjang": 0.39386553811199998, "kelurahan": "Besusu Timur" }, "geometry": { "type": "LineString", "coordinates": [ [ 119.880575115784794, -0.891921939153852 ], [ 119.880554617445028, -0.893047986252029 ], [ 119.880554148949017, -0.894731355047943 ], [ 119.880546399276426, -0.895452164417578 ], [ 119.880546507155898, -0.895480592263591 ] ] } },
{ "type": "Feature", "properties": { "Id": 0, "Nama_Jalan": "Jl. Anutapura II", "Armada": 1.0, "Armada_1": "1", "panjang": 0.32420393416100002, "kelurahan": "Besusu Timur" }, "geometry": { "type": "LineString", "coordinates": [ [ 119.880235120661268, -0.889001488911795 ], [ 119.88006074284435, -0.890005730401444 ], [ 119.880092300811825, -0.890120460370016 ], [ 119.880004365562613, -0.890807862999328 ], [ 119.879961955401086, -0.89124539908684 ], [ 119.879983585156424, -0.891572911384059 ], [ 119.879990966804087, -0.891902825624783 ] ] } },
{ "type": "Feature", "properties": { "Id": 0, "Nama_Jalan": "Lrg. Anutapura I", "Armada": 1.0, "Armada_1": "1", "panjang": 0.094152790520699997, "kelurahan": "Besusu Timur" }, "geometry": { "type": "LineString", "coordinates": [ [ 119.879054021846699, -0.89113614070592 ], [ 119.87899498099452, -0.891566518080279 ], [ 119.879033035096654, -0.891635819189578 ], [ 119.879035672236441, -0.891972909629043 ] ] } },
{ "type": "Feature", "properties": { "Id": 0, "Nama_Jalan": "Lrg. Nagaya", "Armada": 1.0, "Armada_1": "1", "panjang": 0.14544832570899999, "kelurahan": "Besusu Timur" }, "geometry": { "type": "LineString", "coordinates": [ [ 119.882231980319716, -0.891538864253258 ], [ 119.882427237042975, -0.891578874367485 ], [ 119.882549790667213, -0.891583081006883 ], [ 119.882846257161418, -0.891667478624079 ], [ 119.883201177738101, -0.891789125256144 ], [ 119.883287877269893, -0.891499301811521 ] ] } },
{ "type": "Feature", "properties": { "Id": 0, "Nama_Jalan": "Lrg. Virgo", "Armada": 1.0, "Armada_1": "1", "panjang": 0.15082057918200001, "kelurahan": "Besusu Timur" }, "geometry": { "type": "LineString", "coordinates": [ [ 119.885070896318808, -0.89224248284784 ], [ 119.885061423344027, -0.892277155689013 ], [ 119.885170701316, -0.892312930068578 ], [ 119.885360708769312, -0.892322342799641 ], [ 119.885679734026283, -0.892402657743613 ], [ 119.886010914041293, -0.892537232176104 ], [ 119.886268996670935, -0.892739282369164 ] ] } },
{ "type": "Feature", "properties": { "Id": 0, "Nama_Jalan": "Lrg. Cancer", "Armada": 1.0, "Armada_1": "1", "panjang": 0.110966526138, "kelurahan": "Besusu Timur" }, "geometry": { "type": "LineString", "coordinates": [ [ 119.88481726490086, -0.891809505912265 ], [ 119.884728933208422, -0.89183310395401 ], [ 119.884682294289746, -0.891998957111152 ], [ 119.884674752417766, -0.892073553379266 ], [ 119.884673867261796, -0.892156750965548 ], [ 119.884602593378787, -0.892455745964275 ], [ 119.884520145780812, -0.892715442800233 ] ] } },
{ "type": "Feature", "properties": { "Id": 0, "Nama_Jalan": "Lrg. Pusalemba", "Armada": 1.0, "Armada_1": "1", "panjang": 0.13031520845399999, "kelurahan": "Besusu Timur" }, "geometry": { "type": "LineString", "coordinates": [ [ 119.884471468402296, -0.891270379820717 ], [ 119.884460202393555, -0.891391637835815 ], [ 119.884426099202329, -0.891588660312745 ], [ 119.884367056868612, -0.891817780772119 ], [ 119.884171667964623, -0.892404718611698 ] ] } },
{ "type": "Feature", "properties": { "Id": 0, "Nama_Jalan": "Lrg. Bhakti Baru", "Armada": 1.0, "Armada_1": "1", "panjang": 0.17539205185199999, "kelurahan": "Besusu Timur" }, "geometry": { "type": "LineString", "coordinates": [ [ 119.882036040440198, -0.889919871717033 ], [ 119.881814014809009, -0.89027387320515 ], [ 119.881755285583068, -0.890493865807987 ], [ 119.881684953688122, -0.890695291211757 ], [ 119.881641338951667, -0.89111059390358 ], [ 119.881586473842304, -0.891412824360163 ] ] } },
{ "type": "Feature", "properties": { "Id": 0, "Nama_Jalan": "Jl. Mangunsarkoro", "Armada": 2.0, "Armada_1": "2", "panjang": 0.32692667233599998, "kelurahan": "Besusu Timur" }, "geometry": { "type": "LineString", "coordinates": [ [ 119.883552414949946, -0.895736682175663 ], [ 119.883561019047988, -0.895173140981058 ], [ 119.88365818477466, -0.894145055581384 ], [ 119.883677831576179, -0.893452329714708 ], [ 119.883667813147198, -0.89278771823521 ] ] } },
{ "type": "Feature", "properties": { "Id": 0, "Nama_Jalan": "Jl. Moh Thamrin Lrg. II", "Armada": 2.0, "Armada_1": "2", "panjang": 0.25760730132600002, "kelurahan": "Besusu Timur" }, "geometry": { "type": "LineString", "coordinates": [ [ 119.88601703270173, -0.894783480841767 ], [ 119.885813226277079, -0.894743478376491 ], [ 119.885442680175245, -0.894684960424809 ], [ 119.885310139405235, -0.894664983431013 ], [ 119.885258056827041, -0.895182853317757 ], [ 119.885070441953175, -0.895196150951019 ], [ 119.884854337299814, -0.8952226200896 ], [ 119.884833152100001, -0.89546529443038 ], [ 119.884758337636072, -0.895462963024964 ], [ 119.884736187886659, -0.895820526542901 ] ] } },
{ "type": "Feature", "properties": { "Id": 0, "Nama_Jalan": "Lrg. Mangunsarkoro I", "Armada": 2.0, "Armada_1": "2", "panjang": 0.088983071944500003, "kelurahan": "Besusu Timur" }, "geometry": { "type": "LineString", "coordinates": [ [ 119.884359410229507, -0.895192114944173 ], [ 119.883560672829702, -0.895195816835906 ] ] } },
{ "type": "Feature", "properties": { "Id": 0, "Nama_Jalan": "Lrg. Ina Tua", "Armada": 2.0, "Armada_1": "2", "panjang": 0.078219796786200002, "kelurahan": "Besusu Timur" }, "geometry": { "type": "LineString", "coordinates": [ [ 119.881162618812624, -0.893084173921025 ], [ 119.881201169169088, -0.893789884755747 ] ] } },
{ "type": "Feature", "properties": { "Id": 0, "Nama_Jalan": "Lrg. Otista I", "Armada": 2.0, "Armada_1": "2", "panjang": 0.17724314001700001, "kelurahan": "Besusu Timur" }, "geometry": { "type": "LineString", "coordinates": [ [ 119.879464940030132, -0.891990561518569 ], [ 119.879364272651372, -0.892338491552325 ], [ 119.879368024758577, -0.892887160293675 ], [ 119.879390977916273, -0.89308365988652 ], [ 119.879392905436418, -0.893576267519783 ] ] } },
{ "type": "Feature", "properties": { "Id": 0, "Nama_Jalan": "Jl. Slamet Riyadi Lrg. II", "Armada": 2.0, "Armada_1": "2", "panjang": 0.13001680915200001, "kelurahan": "Besusu Timur" }, "geometry": { "type": "LineString", "coordinates": [ [ 119.88055447893332, -0.893544753708397 ], [ 119.879960971162717, -0.893528004429521 ], [ 119.879869794551993, -0.893558677715389 ], [ 119.879392905436418, -0.893576267519783 ] ] } },
{ "type": "Feature", "properties": { "Id": 0, "Nama_Jalan": "Lrg. Slamet Riyadi V", "Armada": 2.0, "Armada_1": "2", "panjang": 0.19334673130400001, "kelurahan": "Besusu Timur" }, "geometry": { "type": "LineString", "coordinates": [ [ 119.882283590439386, -0.893194427178671 ], [ 119.881766990002816, -0.893148216219967 ], [ 119.881162618812624, -0.893084173921025 ], [ 119.880613843937596, -0.89304752111806 ], [ 119.880554617445028, -0.893047986252029 ] ] } },
{ "type": "Feature", "properties": { "Id": 0, "Nama_Jalan": "Jl. Urip Sumoharjo", "Armada": 2.0, "Armada_1": "2", "panjang": 0.34679962285799998, "kelurahan": "Besusu Timur" }, "geometry": { "type": "LineString", "coordinates": [ [ 119.883665487747081, -0.893887558644659 ], [ 119.882351556405254, -0.893830249230777 ], [ 119.881201169169088, -0.893789884755747 ], [ 119.880554410480045, -0.893790544447772 ] ] } },
{ "type": "Feature", "properties": { "Id": 0, "Nama_Jalan": "Lrg. Nauli", "Armada": 2.0, "Armada_1": "2", "panjang": 0.051075683792600003, "kelurahan": "Besusu Timur" }, "geometry": { "type": "LineString", "coordinates": [ [ 119.881585959478244, -0.891985336863841 ], [ 119.881553580230246, -0.892445693016251 ] ] } },
{ "type": "Feature", "properties": { "Id": 0, "Nama_Jalan": "Jl. Juanda", "Armada": 1.0, "Armada_1": "1", "panjang": 0.89785116602500004, "kelurahan": "Besusu Timur" }, "geometry": { "type": "LineString", "coordinates": [ [ 119.879259075330495, -0.897030076092537 ], [ 119.884820249708582, -0.897139222933389 ], [ 119.887236127124766, -0.897775622819992 ] ] } },
{ "type": "Feature", "properties": { "Id": 0, "Nama_Jalan": "Jl. Anutapura III", "Armada": 1.0, "Armada_1": "1", "panjang": 0.14123927273299999, "kelurahan": "Besusu Timur" }, "geometry": { "type": "LineString", "coordinates": [ [ 119.880097209647175, -0.889795717773184 ], [ 119.881339875387809, -0.890048671882704 ] ] } },
{ "type": "Feature", "properties": { "Id": 0, "Nama_Jalan": "Lrg. Matahari", "Armada": 1.0, "Armada_1": "1", "panjang": 0.061584287491599998, "kelurahan": "Besusu Timur" }, "geometry": { "type": "LineString", "coordinates": [ [ 119.880022395831389, -0.890666917520713 ], [ 119.880564047686676, -0.890778132595336 ] ] } },
{ "type": "Feature", "properties": { "Id": 0, "Nama_Jalan": "Lrg. Argarama", "Armada": 1.0, "Armada_1": "1", "panjang": 0.074007338328200001, "kelurahan": "Besusu Timur" }, "geometry": { "type": "LineString", "coordinates": [ [ 119.881281139434165, -0.890588971927138 ], [ 119.880830300093066, -0.890546343336249 ], [ 119.880789884458096, -0.890641922593627 ], [ 119.880681584074821, -0.89064200786659 ] ] } },
{ "type": "Feature", "properties": { "Id": 0, "Nama_Jalan": "Lrg. Astoria", "Armada": 1.0, "Armada_1": "1", "panjang": 0.026470781644300001, "kelurahan": "Besusu Timur" }, "geometry": { "type": "LineString", "coordinates": [ [ 119.88006074284435, -0.890005730401428 ], [ 119.879827239198505, -0.889961443237019 ] ] } },
{ "type": "Feature", "properties": { "Id": 0, "Nama_Jalan": "Lrg. Siswa", "Armada": 1.0, "Armada_1": "1", "panjang": 0.17874309571300001, "kelurahan": "Besusu Timur" }, "geometry": { "type": "LineString", "coordinates": [ [ 119.878495196204966, -0.890153653308526 ], [ 119.878846023530173, -0.890212899316652 ], [ 119.878979841721915, -0.89019510268777 ], [ 119.879249097393469, -0.89024629875473 ], [ 119.879653618683207, -0.890329887780061 ], [ 119.879704889206366, -0.890291595829172 ], [ 119.880066671615751, -0.890320807210949 ] ] } },
{ "type": "Feature", "properties": { "Id": 0, "Nama_Jalan": "Lrg. IV Jl. Slamet Riyadi", "Armada": 1.0, "Armada_1": "1", "panjang": 0.076288556659699996, "kelurahan": "Besusu Timur" }, "geometry": { "type": "LineString", "coordinates": [ [ 119.880566014103238, -0.892421919648813 ], [ 119.880853209209363, -0.892421790086755 ], [ 119.880853187988379, -0.892394535858708 ], [ 119.881223692726664, -0.892398546828562 ] ] } },
{ "type": "Feature", "properties": { "Id": 0, "Nama_Jalan": "Lrg. Lestari", "Armada": 1.0, "Armada_1": "1", "panjang": 0.19746721263299999, "kelurahan": "Besusu Timur" }, "geometry": { "type": "LineString", "coordinates": [ [ 119.881684953688122, -0.890695291211757 ], [ 119.881998787959986, -0.890773718294434 ], [ 119.882267417278115, -0.890848245047797 ], [ 119.882305976265101, -0.890862611264165 ], [ 119.882231980319716, -0.891538864253258 ], [ 119.882170054012491, -0.891991138421756 ] ] } },
{ "type": "Feature", "properties": { "Id": 0, "Nama_Jalan": "Lrg. Perjuangan", "Armada": 1.0, "Armada_1": "1", "panjang": 0.53158464457900001, "kelurahan": "Besusu Timur" }, "geometry": { "type": "LineString", "coordinates": [ [ 119.878959362609621, -0.886957435807189 ], [ 119.879176714814704, -0.887007470739423 ], [ 119.879258669277547, -0.887028923047566 ], [ 119.879605438137531, -0.887051363137327 ], [ 119.879657674451494, -0.887033391745709 ], [ 119.879853621872769, -0.887045191765986 ], [ 119.879959339318333, -0.887083360489323 ], [ 119.880101924875703, -0.887193222040707 ], [ 119.88012807031015, -0.887219499511477 ], [ 119.880135225861665, -0.887258940859301 ], [ 119.880125906257689, -0.887492043837 ], [ 119.88013543590138, -0.887530287958339 ], [ 119.880148526206995, -0.887566138560869 ], [ 119.880180606394447, -0.887588825278559 ], [ 119.88033740779376, -0.887654447180583 ], [ 119.880509630063131, -0.887698540440475 ], [ 119.88054526720218, -0.887714052180952 ], [ 119.880559535759033, -0.887737948222812 ], [ 119.88056194224319, -0.887778588640357 ], [ 119.880581042295333, -0.887907672738316 ], [ 119.880594123353234, -0.88793156970892 ], [ 119.880626201689111, -0.887951865681054 ], [ 119.880862559306749, -0.888009057498453 ], [ 119.880899413585198, -0.888062819835946 ], [ 119.881540352463986, -0.88827174378433 ], [ 119.881614009130445, -0.888312328194508 ], [ 119.881864002748728, -0.888496695473199 ], [ 119.881988073661489, -0.888619959174451 ], [ 119.882003778731701, -0.888658676508781 ], [ 119.882005234889164, -0.888698839474209 ], [ 119.881996721592742, -0.888746182438374 ], [ 119.881945576180513, -0.888945608767966 ], [ 119.881847592099433, -0.889226210627888 ], [ 119.881759604405929, -0.889214936067204 ], [ 119.881718288218124, -0.889226444020635 ], [ 119.881615913509805, -0.889272306845374 ], [ 119.881591738206893, -0.889345218534602 ] ] } },
{ "type": "Feature", "properties": { "Id": 0, "Nama_Jalan": "Lrg. I  Jl. Moh. Thamrin", "Armada": 2.0, "Armada_1": "2", "panjang": 0.154375831021, "kelurahan": "Besusu Timur" }, "geometry": { "type": "LineString", "coordinates": [ [ 119.885291386619841, -0.894851446735216 ], [ 119.88479369596881, -0.894757138830117 ], [ 119.884376152509915, -0.894734518682613 ], [ 119.884357645422298, -0.894757484211702 ], [ 119.884359410229507, -0.895192114944173 ] ] } },
{ "type": "Feature", "properties": { "Id": 0, "Nama_Jalan": "Lrg. Kumbara", "Armada": 2.0, "Armada_1": "2", "panjang": 0.077639410018799995, "kelurahan": "Besusu Timur" }, "geometry": { "type": "LineString", "coordinates": [ [ 119.879688836847961, -0.891972510858818 ], [ 119.879690082010853, -0.892046622373599 ], [ 119.87965834399489, -0.892463829037052 ], [ 119.879638318304529, -0.892671837974858 ] ] } },
{ "type": "Feature", "properties": { "Id": 0, "Nama_Jalan": "Lrg. Ki Hajar Dewantoro I", "Armada": 2.0, "Armada_1": "2", "panjang": 0.11393557020800001, "kelurahan": "Besusu Timur" }, "geometry": { "type": "LineString", "coordinates": [ [ 119.885590454124426, -0.893447287166281 ], [ 119.885533558665088, -0.893581212126612 ], [ 119.885399018671947, -0.894042248166292 ], [ 119.885002112644358, -0.89398709778488 ] ] } },
{ "type": "Feature", "properties": { "Id": 0, "Nama_Jalan": "Lrg. Tata Ballu", "Armada": 2.0, "Armada_1": "2", "panjang": 0.206603812119, "kelurahan": "Besusu Timur" }, "geometry": { "type": "LineString", "coordinates": [ [ 119.882621807056594, -0.893842036730024 ], [ 119.882621420253187, -0.893471310876951 ], [ 119.882656944650563, -0.893342183950754 ], [ 119.883286337877209, -0.893363202956931 ], [ 119.883366867989324, -0.893081034585884 ], [ 119.883366767312609, -0.892951935898514 ], [ 119.883670284000033, -0.89295163427506 ] ] } },
{ "type": "Feature", "properties": { "Id": 0, "Nama_Jalan": "Lrg. Otista V", "Armada": 2.0, "Armada_1": "2", "panjang": 0.215885439007, "kelurahan": "Besusu Timur" }, "geometry": { "type": "LineString", "coordinates": [ [ 119.883952709097386, -0.89286602866274 ], [ 119.883937069875145, -0.892911942781875 ], [ 119.883905968230835, -0.893230410833277 ], [ 119.883934729074639, -0.893564610291665 ], [ 119.884067324803027, -0.893654874508371 ], [ 119.884226941812614, -0.893676264700137 ], [ 119.884423172119668, -0.893695952413794 ], [ 119.884535266264578, -0.893688213446537 ], [ 119.884641690258945, -0.893718730406417 ], [ 119.884723432146615, -0.893772217750714 ], [ 119.884812793456376, -0.893850562490458 ], [ 119.884865149182389, -0.89398583551303 ], [ 119.885002112644358, -0.89398709778488 ] ] } },
{ "type": "Feature", "properties": { "Id": 0, "Nama_Jalan": "Lrg. I Slamet Riyadi", "Armada": 2.0, "Armada_1": "2", "panjang": 0.16999224992600001, "kelurahan": "Besusu Timur" }, "geometry": { "type": "LineString", "coordinates": [ [ 119.880554148949017, -0.894731355047943 ], [ 119.880079331504845, -0.894724528995191 ], [ 119.879233952052573, -0.894733564968063 ], [ 119.879029682163008, -0.894709819182955 ] ] } },
{ "type": "Feature", "properties": { "Id": 0, "Nama_Jalan": "Lrg. III Slamet Riyadi", "Armada": 2.0, "Armada_1": "2", "panjang": 0.077241371360499994, "kelurahan": "Besusu Timur" }, "geometry": { "type": "LineString", "coordinates": [ [ 119.880554617445028, -0.893047986252029 ], [ 119.879861557569612, -0.893068167640074 ] ] } },
{ "type": "Feature", "properties": { "Id": 0, "Nama_Jalan": "Lrg. II Mangunsarkoro", "Armada": 2.0, "Armada_1": "2", "panjang": 0.32943060515099998, "kelurahan": "Besusu Timur" }, "geometry": { "type": "LineString", "coordinates": [ [ 119.883656760757844, -0.894160122667886 ], [ 119.884715205892107, -0.894186734403082 ], [ 119.884720989575754, -0.894293833858081 ], [ 119.885819705128881, -0.894344125094016 ], [ 119.886061947636946, -0.894334370370439 ], [ 119.886066731276813, -0.894377399400561 ], [ 119.88601703270173, -0.894783480841767 ] ] } },
{ "type": "Feature", "properties": { "Id": 0, "Nama_Jalan": "Lrg. Nokilalaki", "Armada": 2.0, "Armada_1": "2", "panjang": 0.100321994961, "kelurahan": "Besusu Timur" }, "geometry": { "type": "LineString", "coordinates": [ [ 119.879320359801426, -0.895996836194124 ], [ 119.879063843229957, -0.895977913457906 ], [ 119.87887576291736, -0.896004838489531 ], [ 119.878423534431164, -0.895972682541102 ] ] } },
{ "type": "Feature", "properties": { "Id": 0, "Nama_Jalan": "Lrg. Otista VI", "Armada": 2.0, "Armada_1": "2", "panjang": 0.116501390123, "kelurahan": "Besusu Timur" }, "geometry": { "type": "LineString", "coordinates": [ [ 119.88472203095256, -0.893194223654359 ], [ 119.884704256686177, -0.89324324736793 ], [ 119.884675823833575, -0.893329335596309 ], [ 119.884690111163408, -0.893377138599503 ], [ 119.884726960079732, -0.893423728399336 ], [ 119.884799435889661, -0.893472680730242 ], [ 119.884956261581493, -0.893569380617783 ], [ 119.885091679588228, -0.893624259911052 ], [ 119.885103582596187, -0.89366011120668 ], [ 119.885002112644358, -0.89398709778488 ] ] } },
{ "type": "Feature", "properties": { "Id": 0, "Nama_Jalan": "Lrg. Pancasila", "Armada": 2.0, "Armada_1": "2", "panjang": 0.16622534792800001, "kelurahan": "Besusu Timur" }, "geometry": { "type": "LineString", "coordinates": [ [ 119.885822225518922, -0.895896343674216 ], [ 119.885795446853905, -0.89622392189478 ], [ 119.88579937720516, -0.896390312381119 ], [ 119.885824110185993, -0.896432369289773 ], [ 119.885849058995717, -0.896749836118923 ], [ 119.885715621030101, -0.897375085535503 ] ] } },
{ "type": "Feature", "properties": { "Id": 0, "Nama_Jalan": "Jl. Slamet Riyadi Lrg. I", "Armada": 3.0, "Armada_1": "R3", "panjang": 0.084397612272999994, "kelurahan": "Besusu Timur" }, "geometry": { "type": "LineString", "coordinates": [ [ 119.879029682163008, -0.894709819182955 ], [ 119.879053045254707, -0.894357457176561 ], [ 119.878647049308611, -0.894382591916834 ] ] } },
{ "type": "Feature", "properties": { "Id": 0, "Nama_Jalan": "Jl. Slamet Riyadi Lrg. IV", "Armada": 3.0, "Armada_1": "R3", "panjang": 0.078142433856900007, "kelurahan": "Besusu Timur" }, "geometry": { "type": "LineString", "coordinates": [ [ 119.880566251569078, -0.892408874844457 ], [ 119.880853198932058, -0.892408590972366 ], [ 119.880851804860058, -0.892381098755078 ], [ 119.881238934098263, -0.892384379395144 ] ] } },
{ "type": "Feature", "properties": { "Id": 0, "Nama_Jalan": "Jl. Thamrin Lrg. Islam II", "Armada": 3.0, "Armada_1": "R3", "panjang": 0.084295547783200003, "kelurahan": "Besusu Timur" }, "geometry": { "type": "LineString", "coordinates": [ [ 119.882347915119695, -0.895639105426046 ], [ 119.882389901016893, -0.896399607249461 ] ] } },
{ "type": "Feature", "properties": { "Id": 0, "Nama_Jalan": "Jl. Thamrin Lrg samping MAN 2", "Armada": 3.0, "Armada_1": "R3", "panjang": 0.037596436676600002, "kelurahan": "Besusu Timur" }, "geometry": { "type": "LineString", "coordinates": [ [ 119.881091105721069, -0.895529922231722 ], [ 119.881092674435138, -0.895190212717176 ] ] } },
{ "type": "Feature", "properties": { "Id": 0, "Nama_Jalan": "Telkom Juanda", "Armada": 3.0, "Armada_1": "R3", "panjang": 0.097072810557399997, "kelurahan": "Besusu Timur" }, "geometry": { "type": "LineString", "coordinates": [ [ 119.880012794766159, -0.897044869559736 ], [ 119.880016997726472, -0.896167750233714 ] ] } },
{ "type": "Feature", "properties": { "Id": 0, "Nama_Jalan": "Jl. Otista Lrg. II", "Armada": 3.0, "Armada_1": "R3", "panjang": 0.094015479140600003, "kelurahan": "Besusu Timur" }, "geometry": { "type": "LineString", "coordinates": [ [ 119.882156289688581, -0.892025575228847 ], [ 119.882136566405649, -0.892316780549035 ], [ 119.882115459542817, -0.89266106096757 ], [ 119.881904315178488, -0.89265321875266 ] ] } },
{ "type": "Feature", "properties": { "Id": 0, "Nama_Jalan": "Jl. Otista Lrg, III", "Armada": 3.0, "Armada_1": "R3", "panjang": 0.126329912652, "kelurahan": "Besusu Timur" }, "geometry": { "type": "LineString", "coordinates": [ [ 119.882170054012491, -0.891991138421756 ], [ 119.882231980319716, -0.891538864253258 ], [ 119.882321276817706, -0.890859849451863 ] ] } },
{ "type": "Feature", "properties": { "Id": 0, "Nama_Jalan": "Lrg. Otista IV (Lrg. Nauli)", "Armada": 3.0, "Armada_1": "R3", "panjang": 0.126277397653, "kelurahan": "Besusu Timur" }, "geometry": { "type": "LineString", "coordinates": [ [ 119.881601692544578, -0.891983577447511 ], [ 119.881557086303587, -0.892416592059454 ], [ 119.88151962161588, -0.892727555122963 ], [ 119.881489735167591, -0.893118836879827 ] ] } },
{ "type": "Feature", "properties": { "Id": 0, "Nama_Jalan": "Jl. Otista IV Lrg. Algaratma", "Armada": 3.0, "Armada_1": "R3", "panjang": 0.061342480962900001, "kelurahan": "Besusu Timur" }, "geometry": { "type": "LineString", "coordinates": [ [ 119.881200381075288, -0.891283594155509 ], [ 119.880655512114004, -0.891203595383258 ] ] } },
{ "type": "Feature", "properties": { "Id": 0, "Nama_Jalan": "Jl. Ki Hajar Lrg. II", "Armada": 3.0, "Armada_1": "R3", "panjang": 0.069014648590800004, "kelurahan": "Besusu Timur" }, "geometry": { "type": "LineString", "coordinates": [ [ 119.882355770543484, -0.890246805730965 ], [ 119.882472498152396, -0.890088926301316 ], [ 119.882567862240506, -0.889945886180536 ], [ 119.882588641180007, -0.889789994905267 ], [ 119.882586699578056, -0.889736444314781 ], [ 119.882565769831515, -0.889698209274 ] ] } },
{ "type": "Feature", "properties": { "Id": 0, "Nama_Jalan": "Lrg. Pusalemba", "Armada": 3.0, "Armada_1": "R3", "panjang": 0.13134585906, "kelurahan": "Besusu Timur" }, "geometry": { "type": "LineString", "coordinates": [ [ 119.884171667964623, -0.892404718611698 ], [ 119.884342086379633, -0.891900833975994 ], [ 119.884379040667952, -0.891777922010347 ], [ 119.884432074586059, -0.891564628308758 ], [ 119.884460202393555, -0.891391637835832 ], [ 119.884463662974682, -0.89126074342596 ] ] } },
{ "type": "Feature", "properties": { "Id": 0, "Nama_Jalan": "Lrg. Bomas", "Armada": 3.0, "Armada_1": "R3", "panjang": 0.042944776541500002, "kelurahan": "Besusu Timur" }, "geometry": { "type": "LineString", "coordinates": [ [ 119.884882131661286, -0.892913626207967 ], [ 119.884908166219006, -0.892797655966603 ], [ 119.884991091727798, -0.892541783970597 ] ] } },
{ "type": "Feature", "properties": { "Id": 0, "Nama_Jalan": "Lrg. Senia", "Armada": 3.0, "Armada_1": "R3", "panjang": 0.117891020161, "kelurahan": "Besusu Timur" }, "geometry": { "type": "LineString", "coordinates": [ [ 119.883891504348739, -0.89218484430661 ], [ 119.884008508212631, -0.891772401125924 ], [ 119.884122694723047, -0.8914017499702 ], [ 119.884181439902946, -0.891202796033445 ], [ 119.8842013623713, -0.891167397719135 ] ] } },
{ "type": "Feature", "properties": { "Id": 0, "Nama_Jalan": "Jl. Setia Budi Lrg. Obsesi", "Armada": 3.0, "Armada_1": "R3", "panjang": 0.087472680005699993, "kelurahan": "Besusu Timur" }, "geometry": { "type": "LineString", "coordinates": [ [ 119.87842685512814, -0.890671170125583 ], [ 119.878955592002455, -0.890746779220618 ], [ 119.879196473925802, -0.89081831144576 ] ] } },
{ "type": "Feature", "properties": { "Id": 0, "Nama_Jalan": "Lrg. Siswa", "Armada": 3.0, "Armada_1": "R3", "panjang": 0.17874547692600001, "kelurahan": "Besusu Timur" }, "geometry": { "type": "LineString", "coordinates": [ [ 119.878492583083798, -0.890163450125589 ], [ 119.878846023530173, -0.890212899316652 ], [ 119.878971413027898, -0.890198456335059 ], [ 119.879461692575688, -0.890297524906878 ], [ 119.879653618683207, -0.890329887780061 ], [ 119.879704889206366, -0.890291595829172 ], [ 119.880066671615751, -0.890320807210949 ] ] } },
{ "type": "Feature", "properties": { "Id": 0, "Nama_Jalan": "Lrg. Anutapura II", "Armada": 3.0, "Armada_1": "R3", "panjang": 0.32421093753000002, "kelurahan": "Besusu Timur" }, "geometry": { "type": "LineString", "coordinates": [ [ 119.880235120661268, -0.889001488911795 ], [ 119.880111919109694, -0.889798712001055 ], [ 119.880078275470922, -0.890030115342679 ], [ 119.88011349837052, -0.890123804046861 ], [ 119.880031148134563, -0.890668714595073 ], [ 119.879976581364843, -0.891196869185768 ], [ 119.879977602735195, -0.891288672224562 ], [ 119.879995862496187, -0.891558331625861 ], [ 119.880004680306286, -0.891902589081189 ] ] } },
{ "type": "Feature", "properties": { "Id": 0, "Nama_Jalan": "Bantaran Sungai Pondoh", "Armada": 3.0, "Armada_1": "R3", "panjang": 0.32081818161800002, "kelurahan": "Besusu Timur" }, "geometry": { "type": "LineString", "coordinates": [ [ 119.884463662974682, -0.89126074342596 ], [ 119.8842013623713, -0.891167397719135 ], [ 119.883777771566358, -0.891009190103564 ], [ 119.883234885348926, -0.890755006657656 ], [ 119.883157667059905, -0.890715620664007 ], [ 119.883123209986948, -0.890690545275887 ], [ 119.883050715673278, -0.890617685488625 ], [ 119.883003157970791, -0.890543610683497 ], [ 119.882923478245104, -0.890393058174247 ], [ 119.882838871092432, -0.890014195853383 ], [ 119.882800298879758, -0.889659901726234 ], [ 119.882724053691732, -0.889344386788293 ] ] } }
]
}
