{
"type": "FeatureCollection",
"name": "Besusu Tengah",
"crs": { "type": "name", "properties": { "name": "urn:ogc:def:crs:OGC:1.3:CRS84" } },
"features": [
{ "type": "Feature", "properties": { "Id": 0, "Nama_Jalan": "Jl. Jend Ahmad Yani", "Armada": 2.0, "panjang": 0.90773233249100005, "kelurahan": "Besusu Tengah" }, "geometry": { "type": "LineString", "coordinates": [ [ 119.871694513531963, -0.892498601762828 ], [ 119.872268191624059, -0.889163516568173 ], [ 119.872845039405092, -0.885720398569812 ], [ 119.873071462346303, -0.884414453128175 ] ] } },
{ "type": "Feature", "properties": { "Id": 0, "Nama_Jalan": "Jl. Tinombala", "Armada": 21.0, "panjang": 0.15626820786500001, "kelurahan": "Besusu Tengah" }, "geometry": { "type": "LineString", "coordinates": [ [ 119.873071462346303, -0.884414453128175 ], [ 119.871680665353367, -0.884230642016399 ] ] } },
{ "type": "Feature", "properties": { "Id": 0, "Nama_Jalan": "Jl. Jend Ahmad Yani Lrg II", "Armada": 2.0, "panjang": 0.15188438703099999, "kelurahan": "Besusu Tengah" }, "geometry": { "type": "LineString", "coordinates": [ [ 119.872825407672579, -0.885837576507068 ], [ 119.873122415441202, -0.885839898248465 ], [ 119.873526178206887, -0.885851536558195 ], [ 119.87390619293916, -0.885866181791756 ], [ 119.874185289980588, -0.885907801628192 ] ] } },
{ "type": "Feature", "properties": { "Id": 0, "Nama_Jalan": "Jl. Mayjend DI Panjaitan", "Armada": 2.0, "panjang": 0.336314797612, "kelurahan": "Besusu Tengah" }, "geometry": { "type": "LineString", "coordinates": [ [ 119.873221406683314, -0.887471739634034 ], [ 119.873092537761536, -0.888209383655397 ], [ 119.872915522371812, -0.88933950554417 ], [ 119.872877099373838, -0.889560679128661 ], [ 119.872643255279684, -0.890451413380947 ] ] } },
{ "type": "Feature", "properties": { "Id": 0, "Nama_Jalan": "Jl. Mayjend Sutoyo", "Armada": 2.0, "panjang": 0.44062430812499997, "kelurahan": "Besusu Tengah" }, "geometry": { "type": "LineString", "coordinates": [ [ 119.873829052186082, -0.887532415502575 ], [ 119.873576801266807, -0.889048930623191 ], [ 119.873420788204442, -0.890002957771855 ], [ 119.873136908292963, -0.891451968703899 ] ] } },
{ "type": "Feature", "properties": { "Id": 0, "Nama_Jalan": "Jl. Chairil Anwar", "Armada": 2.0, "panjang": 0.43516490766100002, "kelurahan": "Besusu Tengah" }, "geometry": { "type": "LineString", "coordinates": [ [ 119.872661768493984, -0.896517179143733 ], [ 119.8730567945735, -0.894493148164375 ], [ 119.873378366699299, -0.892652025516472 ] ] } },
{ "type": "Feature", "properties": { "Id": 0, "Nama_Jalan": "Jl. Yojokodi", "Armada": 21.0, "panjang": 0.54500605461700002, "kelurahan": "Besusu Tengah" }, "geometry": { "type": "LineString", "coordinates": [ [ 119.877630533755436, -0.88842744366791 ], [ 119.877382104724731, -0.889650497265208 ], [ 119.877229402949567, -0.890278184083314 ], [ 119.877204537623157, -0.890371442136771 ], [ 119.877158266552811, -0.890425269961921 ], [ 119.877094155037213, -0.890443250849914 ], [ 119.876834076853171, -0.890425524826737 ], [ 119.876792610347437, -0.890439474675738 ], [ 119.876752612629701, -0.890487359470553 ], [ 119.876745743152938, -0.890558291066812 ], [ 119.876649774857626, -0.891648529181106 ], [ 119.876558126336391, -0.892905648361471 ] ] } },
{ "type": "Feature", "properties": { "Id": 0, "Nama_Jalan": "Jl. KS Tubun", "Armada": 2.0, "panjang": 0.26408942419499998, "kelurahan": "Besusu Tengah" }, "geometry": { "type": "LineString", "coordinates": [ [ 119.875672115519563, -0.885170779485325 ], [ 119.874964251962126, -0.885030278965125 ], [ 119.874810528312025, -0.885876719557109 ], [ 119.875600158156345, -0.885963055567995 ] ] } },
{ "type": "Feature", "properties": { "Id": 0, "Nama_Jalan": "Jl. Jend Ahmad Yani Lrg. IV", "Armada": 2.0, "panjang": 0.26626020032999997, "kelurahan": "Besusu Tengah" }, "geometry": { "type": "LineString", "coordinates": [ [ 119.873061169708109, -0.884473818072161 ], [ 119.873277591091508, -0.884515195913922 ], [ 119.874210958895645, -0.884495341933809 ], [ 119.874196938915745, -0.884794195040391 ], [ 119.874922786297844, -0.884848137273963 ], [ 119.874966501343778, -0.884867229032356 ], [ 119.874976039725624, -0.88491694888836 ], [ 119.874964251962126, -0.885030278965125 ] ] } },
{ "type": "Feature", "properties": { "Id": 0, "Nama_Jalan": "Jl. KH Ahmad Dahlan", "Armada": 1.0, "panjang": 0.42330817309500002, "kelurahan": "Besusu Tengah" }, "geometry": { "type": "LineString", "coordinates": [ [ 119.871694513531963, -0.892498601762828 ], [ 119.87154325250161, -0.893452627132808 ], [ 119.871279470676598, -0.894782685826174 ], [ 119.871226258532843, -0.895073203116205 ], [ 119.870997847816611, -0.896258240020381 ] ] } },
{ "type": "Feature", "properties": { "Id": 0, "Nama_Jalan": "Jl. Katamso", "Armada": 1.0, "panjang": 0.30832695849199998, "kelurahan": "Besusu Tengah" }, "geometry": { "type": "LineString", "coordinates": [ [ 119.872030323457437, -0.890546360025818 ], [ 119.872348551809409, -0.890560323808625 ], [ 119.872559377042279, -0.890460703488509 ], [ 119.872643255279684, -0.890451413380931 ], [ 119.872722806934277, -0.890496914450339 ], [ 119.872800775923977, -0.890584832480395 ], [ 119.872874910789534, -0.890628763889961 ], [ 119.873286298702666, -0.890689432752714 ], [ 119.874698737428886, -0.890850626111718 ] ] } },
{ "type": "Feature", "properties": { "Id": 0, "Nama_Jalan": "Jl. Kolonel Sugiono", "Armada": 1.0, "panjang": 0.29819778560900001, "kelurahan": "Besusu Tengah" }, "geometry": { "type": "LineString", "coordinates": [ [ 119.874830853558677, -0.890015278826495 ], [ 119.874153879941829, -0.8898962734577 ], [ 119.874032111461872, -0.889833612170363 ], [ 119.872865110577152, -0.889606345530701 ], [ 119.872217568537238, -0.889457812471758 ] ] } },
{ "type": "Feature", "properties": { "Id": 0, "Nama_Jalan": "Jl. Kapten Pierre Tendean", "Armada": 1.0, "panjang": 0.34186438591200002, "kelurahan": "Besusu Tengah" }, "geometry": { "type": "LineString", "coordinates": [ [ 119.874099723551453, -0.890782264259635 ], [ 119.874093302245996, -0.890643625706501 ], [ 119.874136090955972, -0.889887119359337 ], [ 119.874124945990701, -0.889796323497258 ], [ 119.874208662978432, -0.88933293290939 ], [ 119.874489336340488, -0.887727572112183 ] ] } },
{ "type": "Feature", "properties": { "Id": 0, "Nama_Jalan": "Jl. Ahmad Yani Lrg. I", "Armada": 1.0, "panjang": 0.13564760720800001, "kelurahan": "Besusu Tengah" }, "geometry": { "type": "LineString", "coordinates": [ [ 119.8727235550827, -0.886445515573181 ], [ 119.873930389523139, -0.886608391364363 ] ] } },
{ "type": "Feature", "properties": { "Id": 0, "Nama_Jalan": "Lrg Ikan Mas", "Armada": 1.0, "panjang": 0.18747571014200001, "kelurahan": "Besusu Tengah" }, "geometry": { "type": "LineString", "coordinates": [ [ 119.871889103630679, -0.887115014576435 ], [ 119.872153111591885, -0.885441987069989 ] ] } },
{ "type": "Feature", "properties": { "Id": 0, "Nama_Jalan": "Jl. Ketapang", "Armada": 1.0, "panjang": 0.24450843953599999, "kelurahan": "Besusu Tengah" }, "geometry": { "type": "LineString", "coordinates": [ [ 119.875901982282357, -0.895124418903508 ], [ 119.875943235339079, -0.894726926857634 ], [ 119.875923388074426, -0.894401802759056 ], [ 119.875918321486893, -0.893995382042007 ], [ 119.875944087512693, -0.89353395013194 ], [ 119.876554493624084, -0.893566938958054 ] ] } },
{ "type": "Feature", "properties": { "Id": 0, "Nama_Jalan": "Lrg. Kadata", "Armada": 1.0, "panjang": 0.117203538, "kelurahan": "Besusu Tengah" }, "geometry": { "type": "LineString", "coordinates": [ [ 119.876634235084055, -0.895167351670223 ], [ 119.876644652370402, -0.89482068728543 ], [ 119.875939315728118, -0.894764694045773 ] ] } },
{ "type": "Feature", "properties": { "Id": 0, "Nama_Jalan": "Lrg. Nangka", "Armada": 1.0, "panjang": 0.44205633626899998, "kelurahan": "Besusu Tengah" }, "geometry": { "type": "LineString", "coordinates": [ [ 119.875585816831375, -0.88604969055366 ], [ 119.875705903708393, -0.886065365038785 ], [ 119.87582752500316, -0.886091807080131 ], [ 119.876601338107406, -0.886134235045096 ], [ 119.876634140988969, -0.886170070367348 ], [ 119.876637313353854, -0.886587489725232 ], [ 119.876664412894229, -0.886619026179099 ], [ 119.877318529348315, -0.88666728504499 ], [ 119.877632038785364, -0.886677080641925 ], [ 119.877663374538201, -0.886658408410968 ], [ 119.877684714178415, -0.886612489686127 ], [ 119.877727451096746, -0.886595242968471 ], [ 119.878254773514399, -0.886685199596201 ], [ 119.878348830602121, -0.886693732552201 ], [ 119.87840439698536, -0.886682213533708 ], [ 119.878478491774928, -0.886674983314095 ], [ 119.878561153229597, -0.886689262937031 ], [ 119.878772097387341, -0.886745040728466 ], [ 119.878824835917413, -0.88676221265146 ], [ 119.878861909362485, -0.886792306773354 ], [ 119.8788918710882, -0.886839619702322 ], [ 119.878946938798535, -0.886946392038038 ] ] } },
{ "type": "Feature", "properties": { "Id": 0, "Nama_Jalan": "Lrg. Tanigau", "Armada": 1.0, "panjang": 0.173438508534, "kelurahan": "Besusu Tengah" }, "geometry": { "type": "LineString", "coordinates": [ [ 119.874819618426358, -0.890916622240758 ], [ 119.875976834932672, -0.891053418740772 ], [ 119.875997536212026, -0.890797115830219 ], [ 119.876016431002782, -0.890661307314641 ] ] } },
{ "type": "Feature", "properties": { "Id": 0, "Nama_Jalan": "Lrg S. Parman II", "Armada": 1.0, "panjang": 0.096354507704100006, "kelurahan": "Besusu Tengah" }, "geometry": { "type": "LineString", "coordinates": [ [ 119.871889103630679, -0.887115014576435 ], [ 119.871779867729629, -0.88790404497728 ], [ 119.871833345035625, -0.887954806404181 ] ] } },
{ "type": "Feature", "properties": { "Id": 0, "Nama_Jalan": "Lrg. Berdikari", "Armada": 2.0, "panjang": 0.20799206232100001, "kelurahan": "Besusu Tengah" }, "geometry": { "type": "LineString", "coordinates": [ [ 119.876792610347437, -0.890439474675738 ], [ 119.876738493088396, -0.890397161434678 ], [ 119.876192195555646, -0.890341408591302 ], [ 119.875443999842034, -0.890258320782672 ], [ 119.87495467905616, -0.890172638669043 ] ] } },
{ "type": "Feature", "properties": { "Id": 0, "Nama_Jalan": "Lrg. Canggih", "Armada": 2.0, "panjang": 0.15201660366600001, "kelurahan": "Besusu Tengah" }, "geometry": { "type": "LineString", "coordinates": [ [ 119.876036692107959, -0.890324139810715 ], [ 119.876102750250624, -0.889863929910028 ], [ 119.876121708882494, -0.889810362594913 ], [ 119.876157788394892, -0.889783558047278 ], [ 119.876231890419746, -0.889785412435902 ], [ 119.876399122759523, -0.889825445398825 ], [ 119.876952066616823, -0.889876650838273 ] ] } },
{ "type": "Feature", "properties": { "Id": 0, "Nama_Jalan": "Lrg. Sutoyo Buntuh", "Armada": 2.0, "panjang": 0.170301508676, "kelurahan": "Besusu Tengah" }, "geometry": { "type": "LineString", "coordinates": [ [ 119.874999937709987, -0.887291049485158 ], [ 119.874030775854791, -0.88709242054229 ], [ 119.873970926451705, -0.887093901811223 ], [ 119.873921067637525, -0.887115457461303 ], [ 119.873903483184847, -0.887180319985967 ], [ 119.873846724201528, -0.887493072935103 ], [ 119.873829052186082, -0.887532415502575 ] ] } }
]
}
