{
"type": "FeatureCollection",
"name": "Birobuli Selatan",
"crs": { "type": "name", "properties": { "name": "urn:ogc:def:crs:OGC:1.3:CRS84" } },
"features": [
{ "type": "Feature", "properties": { "Id": 0, "Nama_Jalan": "Lrg Belakang Masjid Mizabur Rahman", "Armada": 2.0, "panjang": 197.09053390899999, "kelurahan": "Birobuli Selatan" }, "geometry": { "type": "LineString", "coordinates": [ [ 119.892468516338795, -0.930734626860649 ], [ 119.892958068236595, -0.930659228700592 ], [ 119.893337999406654, -0.930572849696268 ], [ 119.894172240971912, -0.930277269391202 ] ] } },
{ "type": "Feature", "properties": { "Id": 0, "Nama_Jalan": "Jl. Kijang Selatan VII", "Armada": 2.0, "panjang": 160.521844187, "kelurahan": "Birobuli Selatan" }, "geometry": { "type": "LineString", "coordinates": [ [ 119.893593467152442, -0.92886747476776 ], [ 119.893598725138588, -0.928324304327473 ], [ 119.893607665238747, -0.927417121193708 ] ] } },
{ "type": "Feature", "properties": { "Id": 0, "Nama_Jalan": "Lrg Salon Reysta", "Armada": 2.0, "panjang": 57.007540346699997, "kelurahan": "Birobuli Selatan" }, "geometry": { "type": "LineString", "coordinates": [ [ 119.89308461724336, -0.929639970028076 ], [ 119.892795848955998, -0.929680372075467 ], [ 119.892750279947336, -0.929718660846892 ], [ 119.892731331288715, -0.929781790905424 ], [ 119.892739009219014, -0.929877412475684 ] ] } },
{ "type": "Feature", "properties": { "Id": 0, "Nama_Jalan": "Lrg Lapangan Futsal", "Armada": 2.0, "panjang": 121.675606294, "kelurahan": "Birobuli Selatan" }, "geometry": { "type": "LineString", "coordinates": [ [ 119.892402826832267, -0.929732096438655 ], [ 119.891310942482917, -0.929705280992527 ] ] } },
{ "type": "Feature", "properties": { "Id": 0, "Nama_Jalan": "Jl. Kijang Selatan I", "Armada": 2.0, "panjang": 183.81992463, "kelurahan": "Birobuli Selatan" }, "geometry": { "type": "LineString", "coordinates": [ [ 119.892672854966733, -0.929038491524398 ], [ 119.892698114641263, -0.92797461017597 ], [ 119.892718927881262, -0.92737822387881 ] ] } },
{ "type": "Feature", "properties": { "Id": 0, "Nama_Jalan": "Jl. Pelanduk", "Armada": 2.0, "panjang": 399.17136575000001, "kelurahan": "Birobuli Selatan" }, "geometry": { "type": "LineString", "coordinates": [ [ 119.893601990440132, -0.927992954363609 ], [ 119.892698654958579, -0.927959971928155 ], [ 119.891374716095484, -0.927922148422084 ], [ 119.890020917616184, -0.927871862694179 ] ] } },
{ "type": "Feature", "properties": { "Id": 0, "Nama_Jalan": "Jl. Keledai", "Armada": 2.0, "panjang": 540.251088751, "kelurahan": "Birobuli Selatan" }, "geometry": { "type": "LineString", "coordinates": [ [ 119.890020917616184, -0.927871862694179 ], [ 119.889513848300325, -0.927867498528434 ], [ 119.888521218924751, -0.927829745032914 ], [ 119.886895245884517, -0.927787092888443 ], [ 119.885173105926356, -0.927748054186041 ] ] } },
{ "type": "Feature", "properties": { "Id": 0, "Nama_Jalan": "Jl. Mawas", "Armada": 2.0, "panjang": 927.95565471999998, "kelurahan": "Birobuli Selatan" }, "geometry": { "type": "LineString", "coordinates": [ [ 119.885270220065863, -0.928332996410687 ], [ 119.885594764751218, -0.928326550121684 ], [ 119.886952584859685, -0.928350536097837 ], [ 119.888534387836003, -0.928399439589599 ], [ 119.889990307095189, -0.928441273776053 ], [ 119.891315598919363, -0.928483214866038 ], [ 119.892684933740838, -0.92852975527332 ], [ 119.893596463895491, -0.928557896290308 ] ] } },
{ "type": "Feature", "properties": { "Id": 0, "Nama_Jalan": "Jl. Kijang Selatan II", "Armada": 2.0, "panjang": 267.552133771, "kelurahan": "Birobuli Selatan" }, "geometry": { "type": "LineString", "coordinates": [ [ 119.89002836048158, -0.927283144119333 ], [ 119.889990307095189, -0.928441273776036 ], [ 119.889959267686592, -0.929699646169857 ] ] } },
{ "type": "Feature", "properties": { "Id": 0, "Nama_Jalan": "Jl. Tangkasi", "Armada": 2.0, "panjang": 606.19540746400003, "kelurahan": "Birobuli Selatan" }, "geometry": { "type": "LineString", "coordinates": [ [ 119.889977416474437, -0.928963867264999 ], [ 119.888916737245466, -0.928948987242485 ], [ 119.888576606889771, -0.928914841171347 ], [ 119.887535363246769, -0.928871709374963 ], [ 119.887225624983699, -0.928827975254652 ], [ 119.886243339689699, -0.928857472050405 ], [ 119.885373193461874, -0.928934690655053 ], [ 119.885196603737555, -0.928943021756095 ], [ 119.884718658081653, -0.929012451776785 ], [ 119.884633087825492, -0.929031780774716 ], [ 119.884564848033236, -0.929074495072199 ] ] } },
{ "type": "Feature", "properties": { "Id": 0, "Nama_Jalan": "Lrg. Perpustakaan", "Armada": 2.0, "panjang": 266.57651408700002, "kelurahan": "Birobuli Selatan" }, "geometry": { "type": "LineString", "coordinates": [ [ 119.88641637100018, -0.933566063999901 ], [ 119.886515124668421, -0.933189694670323 ], [ 119.886579602065552, -0.933038548453703 ], [ 119.886630710709554, -0.932803260287752 ], [ 119.8866676324091, -0.932645442883444 ], [ 119.886687391981184, -0.932411615072472 ], [ 119.88667719123697, -0.932134779220982 ], [ 119.88664608070242, -0.931195033302188 ] ] } },
{ "type": "Feature", "properties": { "Id": 0, "Nama_Jalan": "Jl. Banteng IV Lrg I", "Armada": 2.0, "panjang": 108.76656367299999, "kelurahan": "Birobuli Selatan" }, "geometry": { "type": "LineString", "coordinates": [ [ 119.887724764300557, -0.931927954515146 ], [ 119.88866645524952, -0.93192179759149 ], [ 119.888700452290877, -0.93191518738986 ] ] } },
{ "type": "Feature", "properties": { "Id": 0, "Nama_Jalan": "Jl. Banteng IV Lrg II", "Armada": 2.0, "panjang": 144.53279461700001, "kelurahan": "Birobuli Selatan" }, "geometry": { "type": "LineString", "coordinates": [ [ 119.888719037102462, -0.932328174203835 ], [ 119.890015829857106, -0.932367744119386 ] ] } },
{ "type": "Feature", "properties": { "Id": 0, "Nama_Jalan": "Jl. Banteng IV Lrg III", "Armada": 2.0, "panjang": 137.46576733800001, "kelurahan": "Birobuli Selatan" }, "geometry": { "type": "LineString", "coordinates": [ [ 119.88871460889537, -0.932722644385768 ], [ 119.889947290029127, -0.932779001810924 ] ] } },
{ "type": "Feature", "properties": { "Id": 0, "Nama_Jalan": "Jl. Banteng III Lrg I", "Armada": 2.0, "panjang": 150.149556198, "kelurahan": "Birobuli Selatan" }, "geometry": { "type": "LineString", "coordinates": [ [ 119.888700452290877, -0.93191518738986 ], [ 119.890047559017702, -0.931958907605284 ] ] } },
{ "type": "Feature", "properties": { "Id": 0, "Nama_Jalan": "Jl. Banteng II", "Armada": 2.0, "panjang": 209.57227977299999, "kelurahan": "Birobuli Selatan" }, "geometry": { "type": "LineString", "coordinates": [ [ 119.890514878667517, -0.931371080701032 ], [ 119.890528382120692, -0.931814470328105 ], [ 119.890476769774281, -0.932596272694003 ], [ 119.890427437241669, -0.93326092881539 ] ] } },
{ "type": "Feature", "properties": { "Id": 0, "Nama_Jalan": "Jl. Banteng I", "Armada": 2.0, "panjang": 129.022713248, "kelurahan": "Birobuli Selatan" }, "geometry": { "type": "LineString", "coordinates": [ [ 119.896197261501484, -0.929058095452439 ], [ 119.89638520540305, -0.930208447804281 ] ] } },
{ "type": "Feature", "properties": { "Id": 0, "Nama_Jalan": "Jl. Kijang Selatan VI", "Armada": 2.0, "panjang": 336.230494093, "kelurahan": "Birobuli Selatan" }, "geometry": { "type": "LineString", "coordinates": [ [ 119.89136171390625, -0.927330262691838 ], [ 119.89134034380038, -0.928484055890468 ], [ 119.891313863191215, -0.92960959493972 ], [ 119.891290730246794, -0.93036746616137 ] ] } },
{ "type": "Feature", "properties": { "Id": 0, "Nama_Jalan": "Jl. Malaya, Lrg. Maroso", "Armada": 1.0, "panjang": 147.160410606, "kelurahan": "Birobuli Selatan" }, "geometry": { "type": "LineString", "coordinates": [ [ 119.882346485604231, -0.932280616632767 ], [ 119.882398852235042, -0.932765713930275 ], [ 119.882406091225121, -0.932905565050732 ], [ 119.882400186743723, -0.932946212155534 ], [ 119.882385956992664, -0.932971326454064 ], [ 119.882346782582772, -0.932988093820425 ], [ 119.881897991833881, -0.933099632669038 ], [ 119.881867147547922, -0.933137909653413 ], [ 119.881871957979754, -0.93321201802423 ] ] } },
{ "type": "Feature", "properties": { "Id": 0, "Nama_Jalan": "Jl. Malaya, Lrg. Torabelo", "Armada": 1.0, "panjang": 85.718638279199993, "kelurahan": "Birobuli Selatan" }, "geometry": { "type": "LineString", "coordinates": [ [ 119.883447180181875, -0.932168125771634 ], [ 119.883501010131596, -0.932940761178148 ] ] } },
{ "type": "Feature", "properties": { "Id": 0, "Nama_Jalan": "Jl. Kijang Raya", "Armada": 2.0, "panjang": 1222.17247993, "kelurahan": "Birobuli Selatan" }, "geometry": { "type": "LineString", "coordinates": [ [ 119.885092456310474, -0.927168478637145 ], [ 119.888667562015158, -0.927235055101694 ], [ 119.89294330934986, -0.927386153008181 ], [ 119.894007347809747, -0.927429504653208 ], [ 119.895528208930173, -0.927521083243565 ], [ 119.896036746491276, -0.927377628009456 ] ] } },
{ "type": "Feature", "properties": { "Id": 0, "Nama_Jalan": "Jl. Karanja Lembah", "Armada": 2.0, "panjang": 2156.5796667999998, "kelurahan": "Birobuli Selatan" }, "geometry": { "type": "LineString", "coordinates": [ [ 119.884693234162256, -0.932632444182765 ], [ 119.885769493249001, -0.933233536827399 ], [ 119.888561440227477, -0.934816266694894 ], [ 119.891810763261915, -0.936627515910981 ], [ 119.897522384170415, -0.939892626467387 ], [ 119.901502367609154, -0.94213414545472 ], [ 119.901572462229453, -0.942172935182437 ] ] } },
{ "type": "Feature", "properties": { "Id": 0, "Nama_Jalan": "Jl. Malaya", "Armada": 2.0, "panjang": 536.60558813, "kelurahan": "Birobuli Selatan" }, "geometry": { "type": "LineString", "coordinates": [ [ 119.8847113000852, -0.932503195645751 ], [ 119.884399082615786, -0.932481593818311 ], [ 119.884334918491106, -0.932434549684105 ], [ 119.883851378216633, -0.932162407055981 ], [ 119.883772975005968, -0.932129001701461 ], [ 119.883717146248259, -0.932109922020428 ], [ 119.883571087775138, -0.932117214648756 ], [ 119.882656714542165, -0.932257469671321 ], [ 119.881169558029654, -0.932368429964102 ], [ 119.880006643407484, -0.932419232580794 ] ] } },
{ "type": "Feature", "properties": { "Id": 0, "Nama_Jalan": "Jl. Towua", "Armada": 2.0, "panjang": 880.65584263799997, "kelurahan": "Birobuli Selatan" }, "geometry": { "type": "LineString", "coordinates": [ [ 119.884693234162256, -0.932632444182765 ], [ 119.884759488027115, -0.932183532821455 ], [ 119.885051129663452, -0.930709895120709 ], [ 119.885073588396367, -0.930581973419399 ], [ 119.885090129015666, -0.930477963737206 ], [ 119.885085314823542, -0.930399074144572 ], [ 119.885030504624908, -0.930172001462645 ], [ 119.88456717467102, -0.929195178243894 ], [ 119.884144906891805, -0.928331879429749 ], [ 119.88407655462467, -0.928245272134139 ], [ 119.883996336924014, -0.928170628154785 ], [ 119.883859697817613, -0.928078100132177 ], [ 119.883636947040415, -0.927964724024527 ], [ 119.881718363844868, -0.927042883009304 ], [ 119.881316593598712, -0.926854584408941 ], [ 119.881250058702378, -0.926812562228513 ], [ 119.881173998933917, -0.926739946602535 ] ] } },
{ "type": "Feature", "properties": { "Id": 0, "Nama_Jalan": "Jl. Pelita Air Permai I", "Armada": 1.0, "panjang": 262.68118614999997, "kelurahan": "Birobuli Selatan" }, "geometry": { "type": "LineString", "coordinates": [ [ 119.897701531655741, -0.924529438017902 ], [ 119.898062213037264, -0.924788854805906 ], [ 119.898138223716217, -0.924802180131169 ], [ 119.89824463120685, -0.924811655352384 ], [ 119.898501144484484, -0.92482865728379 ], [ 119.899442090025858, -0.924795369805277 ], [ 119.899973352146858, -0.924766244414127 ] ] } },
{ "type": "Feature", "properties": { "Id": 0, "Nama_Jalan": "Jl. Pelita Air Permai II", "Armada": 1.0, "panjang": 321.30518621900001, "kelurahan": "Birobuli Selatan" }, "geometry": { "type": "LineString", "coordinates": [ [ 119.898086244292841, -0.924006737858256 ], [ 119.898169827317645, -0.924002689386159 ], [ 119.898279133959122, -0.924014094129385 ], [ 119.898628748420592, -0.924032932263247 ], [ 119.898832044656046, -0.924028940058987 ], [ 119.899020128494456, -0.924009659969924 ], [ 119.899327882368311, -0.923953943102234 ], [ 119.899859715722485, -0.923750775958247 ], [ 119.90021876289812, -0.92368736677866 ], [ 119.900651861469399, -0.923564607832965 ], [ 119.900734017232196, -0.92354135068629 ], [ 119.900802868596827, -0.923512605913595 ], [ 119.900824224087529, -0.92348868155102 ], [ 119.900859737871642, -0.923439726006594 ] ] } },
{ "type": "Feature", "properties": { "Id": 0, "Nama_Jalan": "Jl. Pelita Air Permai", "Armada": 1.0, "panjang": 513.85073589599995, "kelurahan": "Birobuli Selatan" }, "geometry": { "type": "LineString", "coordinates": [ [ 119.899941519816537, -0.922618590622783 ], [ 119.899765572605389, -0.922756807427966 ], [ 119.898392344745844, -0.923626949063278 ], [ 119.898098140266157, -0.923990575079452 ], [ 119.89767822882898, -0.924561099039364 ], [ 119.897048100577891, -0.9253878390296 ], [ 119.89684311205238, -0.92564811463742 ], [ 119.896700722485789, -0.925784022959519 ], [ 119.89667779261508, -0.925809311416585 ] ] } },
{ "type": "Feature", "properties": { "Id": 0, "Nama_Jalan": "Lrg. Erlangga", "Armada": 1.0, "panjang": 109.919213977, "kelurahan": "Birobuli Selatan" }, "geometry": { "type": "LineString", "coordinates": [ [ 119.903377230954092, -0.927393939521853 ], [ 119.903210378122395, -0.926415057472477 ] ] } },
{ "type": "Feature", "properties": { "Id": 0, "Nama_Jalan": "Lrg. Pujangga", "Armada": 1.0, "panjang": 192.73039944199999, "kelurahan": "Birobuli Selatan" }, "geometry": { "type": "LineString", "coordinates": [ [ 119.902245622679118, -0.927880925529326 ], [ 119.902153835470401, -0.92710755243575 ], [ 119.902137446362119, -0.926813990741001 ], [ 119.902030034635288, -0.926154252278738 ] ] } },
{ "type": "Feature", "properties": { "Id": 0, "Nama_Jalan": "Jl. Ramba I", "Armada": 1.0, "panjang": 323.05801285199999, "kelurahan": "Birobuli Selatan" }, "geometry": { "type": "LineString", "coordinates": [ [ 119.89815851385967, -0.927083586953477 ], [ 119.898221981931357, -0.92704254270271 ], [ 119.899523185967638, -0.926681910814804 ], [ 119.899465969843959, -0.926416113995542 ], [ 119.899415846878455, -0.926111104092613 ], [ 119.899404315108328, -0.925949025249146 ], [ 119.899417813686298, -0.925901200456894 ], [ 119.899448658454062, -0.925864119451307 ], [ 119.89947121213072, -0.925853342795464 ], [ 119.899385690193498, -0.925241637312466 ] ] } },
{ "type": "Feature", "properties": { "Id": 0, "Nama_Jalan": "Jl. Sapta Marga", "Armada": 1.0, "panjang": 198.56324751599999, "kelurahan": "Birobuli Selatan" }, "geometry": { "type": "LineString", "coordinates": [ [ 119.896036746491276, -0.927377628009456 ], [ 119.897308226727205, -0.926927586699642 ], [ 119.897619483227402, -0.926622302359479 ] ] } },
{ "type": "Feature", "properties": { "Id": 0, "Nama_Jalan": "Jl. Sapta Marga I", "Armada": 1.0, "panjang": 207.068219124, "kelurahan": "Birobuli Selatan" }, "geometry": { "type": "LineString", "coordinates": [ [ 119.896867814915666, -0.927083470765736 ], [ 119.896984425512301, -0.927402285723204 ], [ 119.897155823900292, -0.927891757372801 ], [ 119.897218162924361, -0.92803180027234 ], [ 119.897282371980253, -0.928135025015785 ], [ 119.897359414213469, -0.928248280043604 ], [ 119.897538005414887, -0.928820463228858 ] ] } },
{ "type": "Feature", "properties": { "Id": 0, "Nama_Jalan": "Jl. Sapta Marga II", "Armada": 1.0, "panjang": 207.72561087899999, "kelurahan": "Birobuli Selatan" }, "geometry": { "type": "LineString", "coordinates": [ [ 119.897308226727205, -0.926927586699642 ], [ 119.897341028620843, -0.926960670693396 ], [ 119.897451714946811, -0.92726658749057 ], [ 119.897697089746146, -0.92789609217321 ], [ 119.897981535390514, -0.928673428263041 ] ] } },
{ "type": "Feature", "properties": { "Id": 0, "Nama_Jalan": "Jl. BTN Graha Persada Indah", "Armada": 1.0, "panjang": 119.395603257, "kelurahan": "Birobuli Selatan" }, "geometry": { "type": "LineString", "coordinates": [ [ 119.899685917637981, -0.928967839189428 ], [ 119.899957053059495, -0.929250221709667 ], [ 119.900581927852201, -0.92897621098138 ] ] } },
{ "type": "Feature", "properties": { "Id": 0, "Nama_Jalan": "Jl. Sekunder I", "Armada": 1.0, "panjang": 114.19261592, "kelurahan": "Birobuli Selatan" }, "geometry": { "type": "LineString", "coordinates": [ [ 119.900453016035087, -0.9286421103207 ], [ 119.900501290069428, -0.92874607210395 ], [ 119.900581927852201, -0.92897621098138 ], [ 119.900581244804812, -0.929303256711937 ], [ 119.900924937781554, -0.929303700753724 ] ] } },
{ "type": "Feature", "properties": { "Id": 0, "Nama_Jalan": "Jl. Sekunder II", "Armada": 1.0, "panjang": 410.52866894, "kelurahan": "Birobuli Selatan" }, "geometry": { "type": "LineString", "coordinates": [ [ 119.900803680780086, -0.928493209446278 ], [ 119.900892634722723, -0.928756011443267 ], [ 119.90092124386554, -0.928889865886459 ], [ 119.900925426361027, -0.929358435767339 ], [ 119.90093029214782, -0.930662786904848 ], [ 119.900948573794054, -0.931236415480726 ], [ 119.900958968478633, -0.932184311565016 ] ] } },
{ "type": "Feature", "properties": { "Id": 0, "Nama_Jalan": "Jl. Sekunder III", "Armada": 1.0, "panjang": 163.40150410199999, "kelurahan": "Birobuli Selatan" }, "geometry": { "type": "LineString", "coordinates": [ [ 119.900915725090798, -0.928864045038463 ], [ 119.90238245415145, -0.928857243750643 ] ] } },
{ "type": "Feature", "properties": { "Id": 0, "Nama_Jalan": "Jl. Sekunder IV", "Armada": 1.0, "panjang": 142.19473744199999, "kelurahan": "Birobuli Selatan" }, "geometry": { "type": "LineString", "coordinates": [ [ 119.900948780802011, -0.931255293340194 ], [ 119.899674608626015, -0.931330971021986 ] ] } },
{ "type": "Feature", "properties": { "Id": 0, "Nama_Jalan": "Jl. Sekunder V", "Armada": 1.0, "panjang": 303.72875199600003, "kelurahan": "Birobuli Selatan" }, "geometry": { "type": "LineString", "coordinates": [ [ 119.900924799292227, -0.929288185899121 ], [ 119.903651092554199, -0.929308241312351 ] ] } },
{ "type": "Feature", "properties": { "Id": 0, "Nama_Jalan": "Jl. Sekunder VI", "Armada": 1.0, "panjang": 88.900484436200003, "kelurahan": "Birobuli Selatan" }, "geometry": { "type": "LineString", "coordinates": [ [ 119.900953380622781, -0.931674761422508 ], [ 119.900157297197168, -0.931730412508026 ] ] } },
{ "type": "Feature", "properties": { "Id": 0, "Nama_Jalan": "Jl. Sekunder VII", "Armada": 1.0, "panjang": 51.769963015499997, "kelurahan": "Birobuli Selatan" }, "geometry": { "type": "LineString", "coordinates": [ [ 119.900945769363901, -0.931148420654842 ], [ 119.901410446721954, -0.931153465770871 ] ] } },
{ "type": "Feature", "properties": { "Id": 0, "Nama_Jalan": "Jl. Sekunder VIII", "Armada": 1.0, "panjang": 197.607216365, "kelurahan": "Birobuli Selatan" }, "geometry": { "type": "LineString", "coordinates": [ [ 119.903022962478829, -0.927661256323608 ], [ 119.903167684585796, -0.928057032585776 ], [ 119.903249740014289, -0.928493023924783 ], [ 119.90315283747131, -0.92848927900528 ], [ 119.903254254073914, -0.929305322187124 ] ] } },
{ "type": "Feature", "properties": { "Id": 0, "Nama_Jalan": "Jl. Adam Malik I", "Armada": 1.0, "panjang": 314.67550165, "kelurahan": "Birobuli Selatan" }, "geometry": { "type": "LineString", "coordinates": [ [ 119.903651092554199, -0.929308241312351 ], [ 119.903677645219133, -0.929863721707748 ], [ 119.903677320993594, -0.932150880201044 ] ] } },
{ "type": "Feature", "properties": { "Id": 0, "Nama_Jalan": "Jl. Poopa", "Armada": 2.0, "panjang": 306.42794368199998, "kelurahan": "Birobuli Selatan" }, "geometry": { "type": "LineString", "coordinates": [ [ 119.900927487757116, -0.929911074635168 ], [ 119.901484066154381, -0.929889086798801 ], [ 119.902450445991107, -0.929884222361701 ], [ 119.903677642163643, -0.929885125449807 ] ] } },
{ "type": "Feature", "properties": { "Id": 0, "Nama_Jalan": "Jl. Adam Malik II", "Armada": 1.0, "panjang": 249.77642874899999, "kelurahan": "Birobuli Selatan" }, "geometry": { "type": "LineString", "coordinates": [ [ 119.901401495613058, -0.929892348783628 ], [ 119.901410269191302, -0.931130747174006 ], [ 119.901418227932211, -0.932149169927577 ] ] } },
{ "type": "Feature", "properties": { "Id": 0, "Nama_Jalan": "Jl. Pintu Air", "Armada": 1.0, "panjang": 284.99134198500002, "kelurahan": "Birobuli Selatan" }, "geometry": { "type": "LineString", "coordinates": [ [ 119.898868638506357, -0.929286182439205 ], [ 119.898904973651028, -0.929376626454529 ], [ 119.899007082268213, -0.930084065071561 ], [ 119.899086362826893, -0.930465911271092 ], [ 119.899291484119118, -0.931531986419107 ], [ 119.89933209121304, -0.931815726914028 ] ] } },
{ "type": "Feature", "properties": { "Id": 0, "Nama_Jalan": "Jl. Purna Bakti", "Armada": 1.0, "panjang": 227.517830366, "kelurahan": "Birobuli Selatan" }, "geometry": { "type": "LineString", "coordinates": [ [ 119.89838978246091, -0.929472218359931 ], [ 119.898457617395792, -0.929781978430654 ], [ 119.898624214533299, -0.930788797246355 ], [ 119.898744532488351, -0.931496390167175 ] ] } },
{ "type": "Feature", "properties": { "Id": 0, "Nama_Jalan": "Jl. Lorong Dinas Pariwisata", "Armada": 1.0, "panjang": 157.58456367299999, "kelurahan": "Birobuli Selatan" }, "geometry": { "type": "LineString", "coordinates": [ [ 119.897972110731743, -0.9321747525405 ], [ 119.898722257741369, -0.931896559481589 ], [ 119.89933209121304, -0.931815726914028 ] ] } },
{ "type": "Feature", "properties": { "Id": 0, "Nama_Jalan": "Jl. Lorong SMP Negri 6 Palu", "Armada": 1.0, "panjang": 117.991450575, "kelurahan": "Birobuli Selatan" }, "geometry": { "type": "LineString", "coordinates": [ [ 119.897691969867765, -0.931529819674535 ], [ 119.897798997708009, -0.931491530602472 ], [ 119.898744532488351, -0.931496390167175 ] ] } },
{ "type": "Feature", "properties": { "Id": 0, "Nama_Jalan": "Jl. Adam Malik IA", "Armada": 1.0, "panjang": 252.13785748800001, "kelurahan": "Birobuli Selatan" }, "geometry": { "type": "LineString", "coordinates": [ [ 119.903677396311878, -0.931616664212682 ], [ 119.901414151355638, -0.931627534424325 ] ] } },
{ "type": "Feature", "properties": { "Id": 0, "Nama_Jalan": "Jl. Adam Malik IB", "Armada": 1.0, "panjang": 252.562782376, "kelurahan": "Birobuli Selatan" }, "geometry": { "type": "LineString", "coordinates": [ [ 119.901410446721954, -0.931153465770871 ], [ 119.903677464307378, -0.931135908878241 ] ] } },
{ "type": "Feature", "properties": { "Id": 0, "Nama_Jalan": "Jl. Adam Malik IC", "Armada": 1.0, "panjang": 253.05376799199999, "kelurahan": "Birobuli Selatan" }, "geometry": { "type": "LineString", "coordinates": [ [ 119.901406178029745, -0.930553299851599 ], [ 119.903677550311841, -0.9305298699386 ] ] } },
{ "type": "Feature", "properties": { "Id": 0, "Nama_Jalan": "Jl. Banteng (Pondok Permata)", "Armada": 1.0, "panjang": 197.66694083499999, "kelurahan": "Birobuli Selatan" }, "geometry": { "type": "MultiLineString", "coordinates": [ [ [ 119.895956492689407, -0.931310859154949 ], [ 119.895494790842903, -0.931309806847616 ], [ 119.895427055334125, -0.93100601751383 ] ], [ [ 119.895427055334125, -0.93100601751383 ], [ 119.896132425413896, -0.930998261853468 ] ], [ [ 119.895304638129517, -0.930732623589925 ], [ 119.895427055334125, -0.93100601751383 ] ] ] } },
{ "type": "Feature", "properties": { "Id": 0, "Nama_Jalan": "Jl. Banteng Taman BTN Bumi Anggur", "Armada": 1.0, "panjang": 111.34422552700001, "kelurahan": "Birobuli Selatan" }, "geometry": { "type": "LineString", "coordinates": [ [ 119.895304638129517, -0.930732623589925 ], [ 119.894458884517675, -0.931043981050158 ], [ 119.894422823903639, -0.930951252096842 ] ] } },
{ "type": "Feature", "properties": { "Id": 0, "Nama_Jalan": "Jl. Rumah Sakit Islam", "Armada": 1.0, "panjang": 221.2143106, "kelurahan": "Birobuli Selatan" }, "geometry": { "type": "LineString", "coordinates": [ [ 119.89803600311464, -0.932321843713036 ], [ 119.897555124342645, -0.932393963032037 ], [ 119.896055928821966, -0.932425089316888 ] ] } },
{ "type": "Feature", "properties": { "Id": 0, "Nama_Jalan": "Jl. Mandiri", "Armada": 1.0, "panjang": 88.469979670699999, "kelurahan": "Birobuli Selatan" }, "geometry": { "type": "LineString", "coordinates": [ [ 119.898826179128491, -0.934205199736619 ], [ 119.898461935381917, -0.934321597774892 ], [ 119.898063020060675, -0.934425206927467 ] ] } },
{ "type": "Feature", "properties": { "Id": 0, "Nama_Jalan": "Jl. Banteng Utara I", "Armada": 1.0, "panjang": 244.49825753, "kelurahan": "Birobuli Selatan" }, "geometry": { "type": "LineString", "coordinates": [ [ 119.892360044685688, -0.929058241451669 ], [ 119.892402826832267, -0.929732096438655 ], [ 119.892503121374418, -0.931262751231893 ] ] } },
{ "type": "Feature", "properties": { "Id": 0, "Nama_Jalan": "Jl. Ramba", "Armada": 2.0, "panjang": 487.19453910499999, "kelurahan": "Birobuli Selatan" }, "geometry": { "type": "LineString", "coordinates": [ [ 119.89667779261508, -0.925809311416585 ], [ 119.897619483227402, -0.926622302359479 ], [ 119.898592959946214, -0.927455371125607 ], [ 119.898805955712035, -0.927696176428315 ], [ 119.89966294871364, -0.928977592360817 ] ] } },
{ "type": "Feature", "properties": { "Id": 0, "Nama_Jalan": "Jl. Dewi Sartika", "Armada": 1.0, "panjang": 1758.34565739, "kelurahan": "Birobuli Selatan" }, "geometry": { "type": "LineString", "coordinates": [ [ 119.896036746491291, -0.927377628009439 ], [ 119.897035357431577, -0.930018179001921 ], [ 119.898172372119092, -0.932631815488646 ] ] } },
{ "type": "Feature", "properties": { "Id": 0, "Nama_Jalan": "Jl. Sekunder", "Armada": 1.0, "panjang": 895.64325550399997, "kelurahan": "Birobuli Selatan" }, "geometry": { "type": "LineString", "coordinates": [ [ 119.897018957711381, -0.929974814652408 ], [ 119.89838201431661, -0.929475236289692 ], [ 119.89966294871364, -0.928977592360817 ], [ 119.90229159971463, -0.927861402553687 ], [ 119.903691281908294, -0.927258712024013 ], [ 119.903781848258475, -0.927210465103874 ], [ 119.903857329459441, -0.927157329771242 ], [ 119.904302967667164, -0.92668647706798 ] ] } },
{ "type": "Feature", "properties": { "Id": 0, "Nama_Jalan": "Jl. Adam Malik", "Armada": 1.0, "panjang": 729.174269794, "kelurahan": "Birobuli Selatan" }, "geometry": { "type": "LineString", "coordinates": [ [ 119.898172372119092, -0.932631815488663 ], [ 119.898987009413915, -0.93239792948906 ], [ 119.899547905733215, -0.932302314984938 ], [ 119.90142168009821, -0.932183616749647 ], [ 119.902305155234274, -0.93215658589014 ], [ 119.903677320993594, -0.932150880201027 ], [ 119.904673023780575, -0.93216179119773 ] ] } },
{ "type": "Feature", "properties": { "Id": 0, "Nama_Jalan": "Jl. Banteng", "Armada": 12.0, "panjang": 1405.08962754, "kelurahan": "Birobuli Selatan" }, "geometry": { "type": "LineString", "coordinates": [ [ 119.897018957711381, -0.929974814652408 ], [ 119.89638520540305, -0.930208447804281 ], [ 119.895881208695926, -0.930402625405741 ], [ 119.895238391716759, -0.930648633149939 ], [ 119.894422823903639, -0.930951252096842 ], [ 119.894283565108069, -0.930595538260114 ], [ 119.894268871131359, -0.930600787410451 ], [ 119.892884054277332, -0.931119174761044 ], [ 119.892269055843002, -0.931369480172476 ], [ 119.892063887657102, -0.931409813517725 ], [ 119.891676065494934, -0.93141980147635 ], [ 119.891434878027127, -0.931427389980405 ], [ 119.891167846470793, -0.931416871887675 ], [ 119.890514878667517, -0.931371080701032 ], [ 119.889371879819564, -0.931304442653354 ], [ 119.887451809497833, -0.931237748439117 ], [ 119.88664608070242, -0.931195033302188 ], [ 119.884978272213331, -0.931078036133574 ] ] } },
{ "type": "Feature", "properties": { "Id": 0, "Nama_Jalan": "Lrg. Bangdes", "Armada": 1.0, "panjang": 109.64657272300001, "kelurahan": "Birobuli Selatan" }, "geometry": { "type": "LineString", "coordinates": [ [ 119.890547444144104, -0.931373364449377 ], [ 119.890520556403729, -0.930383000198718 ] ] } },
{ "type": "Feature", "properties": { "Id": 0, "Nama_Jalan": "Lrg. Tunas Mekar", "Armada": 1.0, "panjang": 112.21934155300001, "kelurahan": "Birobuli Selatan" }, "geometry": { "type": "LineString", "coordinates": [ [ 119.891130379287546, -0.931414244401107 ], [ 119.89111147429675, -0.930400442726429 ] ] } },
{ "type": "Feature", "properties": { "Id": 0, "Nama_Jalan": "Jl. Banteng V Lrg. I", "Armada": 1.0, "panjang": 77.896077397900001, "kelurahan": "Birobuli Selatan" }, "geometry": { "type": "LineString", "coordinates": [ [ 119.886239011622777, -0.931869489430128 ], [ 119.885539799715332, -0.93186432876873 ] ] } },
{ "type": "Feature", "properties": { "Id": 0, "Nama_Jalan": "Jl. Banteng V Lrg. II", "Armada": 1.0, "panjang": 72.639137140200006, "kelurahan": "Birobuli Selatan" }, "geometry": { "type": "LineString", "coordinates": [ [ 119.88622223713233, -0.932269230234413 ], [ 119.885570513178891, -0.932248730051702 ] ] } },
{ "type": "Feature", "properties": { "Id": 0, "Nama_Jalan": "Jl. Banteng V Lrg. III", "Armada": 1.0, "panjang": 78.115480752699995, "kelurahan": "Birobuli Selatan" }, "geometry": { "type": "LineString", "coordinates": [ [ 119.886176957806072, -0.932663256889289 ], [ 119.885475841002332, -0.932652360568395 ] ] } },
{ "type": "Feature", "properties": { "Id": 0, "Nama_Jalan": "Jl. Malaya Lrg. Adelweis", "Armada": 1.0, "panjang": 122.490784203, "kelurahan": "Birobuli Selatan" }, "geometry": { "type": "LineString", "coordinates": [ [ 119.881852024842615, -0.932317509549531 ], [ 119.881803192809102, -0.931754089982902 ], [ 119.881786193991886, -0.931586753529651 ], [ 119.881789731271624, -0.931555671244289 ], [ 119.8818087189007, -0.931540115916264 ], [ 119.882122197932901, -0.93150877828824 ] ] } },
{ "type": "Feature", "properties": { "Id": 0, "Nama_Jalan": "Jl. Malaya Lrg Tugu", "Armada": 1.0, "panjang": 280.67042613299998, "kelurahan": "Birobuli Selatan" }, "geometry": { "type": "LineString", "coordinates": [ [ 119.881128137556701, -0.932370239447887 ], [ 119.881079490401348, -0.932922554116218 ], [ 119.88107791116893, -0.933316546461376 ], [ 119.881087482964318, -0.933404517144316 ], [ 119.881112269016697, -0.933509688468989 ], [ 119.881165578880513, -0.933643524909121 ], [ 119.881241714039277, -0.933807943731818 ], [ 119.88130550839135, -0.933983848187022 ], [ 119.881395141840372, -0.934391153134466 ], [ 119.881406623113264, -0.934490597668431 ], [ 119.881437316858921, -0.934850136829643 ] ] } },
{ "type": "Feature", "properties": { "Id": 0, "Nama_Jalan": "Jl. Malaya Lrg. I", "Armada": 1.0, "panjang": 149.74198978000001, "kelurahan": "Birobuli Selatan" }, "geometry": { "type": "LineString", "coordinates": [ [ 119.881113257008536, -0.93151319547999 ], [ 119.880542869308542, -0.931514525866656 ], [ 119.879979475937631, -0.931520886862898 ], [ 119.879769476910994, -0.931532949618544 ] ] } },
{ "type": "Feature", "properties": { "Id": 0, "Nama_Jalan": "Jl. Malaya Lrg. II", "Armada": 1.0, "panjang": 61.112565745700003, "kelurahan": "Birobuli Selatan" }, "geometry": { "type": "LineString", "coordinates": [ [ 119.881137021042264, -0.931461839132127 ], [ 119.881486116048848, -0.931418518625717 ], [ 119.881682761811575, -0.931409750061841 ] ] } },
{ "type": "Feature", "properties": { "Id": 0, "Nama_Jalan": "Jl. Malaya Lrg. III", "Armada": 1.0, "panjang": 160.419989265, "kelurahan": "Birobuli Selatan" }, "geometry": { "type": "LineString", "coordinates": [ [ 119.879679240796662, -0.931045021081623 ], [ 119.879816031275467, -0.931030564180546 ], [ 119.8806795815008, -0.931014074767886 ], [ 119.880978835865136, -0.931013828457655 ], [ 119.881070990300614, -0.931017577757855 ], [ 119.881113757423194, -0.931037863693227 ] ] } },
{ "type": "Feature", "properties": { "Id": 0, "Nama_Jalan": "Jl. Malaya Lrg. IV", "Armada": 1.0, "panjang": 67.863011274599998, "kelurahan": "Birobuli Selatan" }, "geometry": { "type": "LineString", "coordinates": [ [ 119.88130709741597, -0.931052766081666 ], [ 119.881657640673978, -0.931038133152209 ], [ 119.881852852043679, -0.931017890367635 ], [ 119.88190555095423, -0.93098485503166 ] ] } },
{ "type": "Feature", "properties": { "Id": 0, "Nama_Jalan": "Jl. Malaya Lrg. V", "Armada": 1.0, "panjang": 143.75385370699999, "kelurahan": "Birobuli Selatan" }, "geometry": { "type": "LineString", "coordinates": [ [ 119.880033109214011, -0.930298465231608 ], [ 119.880657288250461, -0.930322337340937 ], [ 119.881089078762315, -0.930333457668714 ], [ 119.881160309973069, -0.930309013710114 ], [ 119.881318477874999, -0.930297408140356 ] ] } },
{ "type": "Feature", "properties": { "Id": 0, "Nama_Jalan": "Jl. Malaya Lrg. VI", "Armada": 1.0, "panjang": 78.486901914699999, "kelurahan": "Birobuli Selatan" }, "geometry": { "type": "LineString", "coordinates": [ [ 119.881356968550065, -0.930316024108143 ], [ 119.882060951427562, -0.930344133574904 ] ] } },
{ "type": "Feature", "properties": { "Id": 0, "Nama_Jalan": "Jl. Malaya Lrg. VII", "Armada": 1.0, "panjang": 166.20794235, "kelurahan": "Birobuli Selatan" }, "geometry": { "type": "LineString", "coordinates": [ [ 119.881260892247212, -0.929576772364824 ], [ 119.882414199811663, -0.929566261355401 ], [ 119.88241591671617, -0.929340576017664 ], [ 119.88240632350103, -0.929225829364119 ] ] } },
{ "type": "Feature", "properties": { "Id": 0, "Nama_Jalan": "Jl. Malaya Lrg. VIII", "Armada": 1.0, "panjang": 135.02448674799999, "kelurahan": "Birobuli Selatan" }, "geometry": { "type": "LineString", "coordinates": [ [ 119.88240632350103, -0.929225829364119 ], [ 119.882374006994596, -0.929206012953487 ], [ 119.882012677742324, -0.92917212261796 ], [ 119.881202051679509, -0.929138601362509 ] ] } },
{ "type": "Feature", "properties": { "Id": 0, "Nama_Jalan": "Jl. Malaya Lrg. IX", "Armada": 1.0, "panjang": 93.654135103900003, "kelurahan": "Birobuli Selatan" }, "geometry": { "type": "LineString", "coordinates": [ [ 119.881027690548592, -0.929097146029742 ], [ 119.881058358620578, -0.928841313537631 ], [ 119.881079536300163, -0.928597442462494 ], [ 119.881043633855114, -0.928255598626205 ] ] } },
{ "type": "Feature", "properties": { "Id": 0, "Nama_Jalan": "Jl. Malaya Lrg. X", "Armada": 1.0, "panjang": 147.92953188300001, "kelurahan": "Birobuli Selatan" }, "geometry": { "type": "LineString", "coordinates": [ [ 119.88027534387821, -0.929030226003339 ], [ 119.880312030606007, -0.92872776929029 ], [ 119.880324977588344, -0.928291690607457 ], [ 119.880305881298398, -0.92817312636479 ], [ 119.88003006461922, -0.927787011542227 ] ] } },
{ "type": "Feature", "properties": { "Id": 0, "Nama_Jalan": "Jl. Malaya Lrg. XI", "Armada": 1.0, "panjang": 84.560246756599994, "kelurahan": "Birobuli Selatan" }, "geometry": { "type": "LineString", "coordinates": [ [ 119.880314987816291, -0.928628164411024 ], [ 119.881070207814162, -0.928704864355487 ] ] } },
{ "type": "Feature", "properties": { "Id": 0, "Nama_Jalan": "Jl. Malaya Lrg. XII", "Armada": 1.0, "panjang": 142.29709837300001, "kelurahan": "Birobuli Selatan" }, "geometry": { "type": "LineString", "coordinates": [ [ 119.88003006461922, -0.927787011542227 ], [ 119.879821259530289, -0.928031753929032 ], [ 119.879867358379698, -0.928385211766778 ], [ 119.879881105765236, -0.928644115996144 ], [ 119.87988119174787, -0.928750264111919 ], [ 119.879842909091536, -0.928988411744244 ] ] } },
{ "type": "Feature", "properties": { "Id": 0, "Nama_Jalan": "Lrg. Sintuvu II", "Armada": 2.0, "panjang": 191.38623565399999, "kelurahan": "Birobuli Selatan" }, "geometry": { "type": "LineString", "coordinates": [ [ 119.881186354924864, -0.926751743089773 ], [ 119.880961778138285, -0.926922386746138 ], [ 119.880739564485481, -0.927033020251852 ], [ 119.880528708014978, -0.927090570415651 ], [ 119.880061560215509, -0.927410832169897 ], [ 119.879990385785803, -0.927505563207311 ], [ 119.880034667031126, -0.927636060471396 ], [ 119.88003006461922, -0.927787011542227 ] ] } },
{ "type": "Feature", "properties": { "Id": 0, "Nama_Jalan": "Lrg. Sintuvu I", "Armada": 2.0, "panjang": 89.120372855, "kelurahan": "Birobuli Selatan" }, "geometry": { "type": "LineString", "coordinates": [ [ 119.880471712363715, -0.925451058814063 ], [ 119.880098484708185, -0.925609151934065 ], [ 119.879973230074981, -0.92579142762836 ], [ 119.879803687458221, -0.925834599399594 ] ] } },
{ "type": "Feature", "properties": { "Id": 0, "Nama_Jalan": "Jl. Kijang Selatan IX", "Armada": 12.0, "panjang": 415.34447176100002, "kelurahan": "Birobuli Selatan" }, "geometry": { "type": "LineString", "coordinates": [ [ 119.894364130948475, -0.927450988406137 ], [ 119.894335456106333, -0.928030724661023 ], [ 119.894366671591655, -0.928449070424007 ], [ 119.894400096793731, -0.928664205334772 ], [ 119.894766912081224, -0.929679270066495 ], [ 119.894055337535733, -0.929943049273149 ], [ 119.894283565108069, -0.930595538260114 ] ] } },
{ "type": "Feature", "properties": { "Id": 0, "Nama_Jalan": "Lrg. Pataba", "Armada": 1.0, "panjang": 174.440622136, "kelurahan": "Birobuli Selatan" }, "geometry": { "type": "LineString", "coordinates": [ [ 119.895756530488796, -0.930059504900931 ], [ 119.895169876095238, -0.93027892011674 ], [ 119.894290638430263, -0.930613605915557 ] ] } },
{ "type": "Feature", "properties": { "Id": 0, "Nama_Jalan": "Jl. Perum 9", "Armada": 2.0, "panjang": 142.56539838200001, "kelurahan": "Birobuli Selatan" }, "geometry": { "type": "LineString", "coordinates": [ [ 119.900246161153319, -0.928729945993847 ], [ 119.900211229641783, -0.928643285889639 ], [ 119.900141689566468, -0.928410012804088 ], [ 119.900147363034208, -0.928377494841391 ], [ 119.900175841885471, -0.928351651945669 ], [ 119.900983540954741, -0.928016289266211 ] ] } },
{ "type": "Feature", "properties": { "Id": 0, "Nama_Jalan": "Perumahan Smart Regency", "Armada": 2.0, "panjang": 745.55169917000001, "kelurahan": "Birobuli Selatan" }, "geometry": { "type": "MultiLineString", "coordinates": [ [ [ 119.901204698255313, -0.926562900231112 ], [ 119.90174471811288, -0.926478297642555 ] ], [ [ 119.901204698255313, -0.926562900231112 ], [ 119.901135039988461, -0.926235824791981 ], [ 119.90179235103254, -0.926130092832792 ] ], [ [ 119.90174471811288, -0.926478297642555 ], [ 119.901785199534856, -0.926680911057761 ], [ 119.901249476965418, -0.92677315520427 ], [ 119.901204698255313, -0.926562900231112 ] ], [ [ 119.9019075687727, -0.925876107777478 ], [ 119.901950409586277, -0.925987956190967 ], [ 119.901830753440493, -0.92604112792412 ], [ 119.901712704416909, -0.926318065861538 ], [ 119.90174471811288, -0.926478297642555 ] ], [ [ 119.9019075687727, -0.925876107777478 ], [ 119.902477358840301, -0.925621748016247 ], [ 119.902433556439618, -0.925504880308795 ] ], [ [ 119.901851338614378, -0.925738268251906 ], [ 119.90150904514185, -0.925875480081439 ] ], [ [ 119.901851338614378, -0.925738268251906 ], [ 119.9019075687727, -0.925876107777478 ] ], [ [ 119.902433556439618, -0.925504880308795 ], [ 119.901851338614378, -0.925738268251906 ] ], [ [ 119.902433556439618, -0.925504880308795 ], [ 119.902377392396062, -0.925355030853427 ] ], [ [ 119.902702084326734, -0.92509837492987 ], [ 119.902344066763277, -0.925261821904911 ], [ 119.902318366756248, -0.925200163608193 ], [ 119.901726233027262, -0.925431591065036 ], [ 119.901851338614378, -0.925738268251906 ] ] ] } },
{ "type": "Feature", "properties": { "Id": 0, "Nama_Jalan": "Jl. Tanggul Selatan", "Armada": 1.0, "panjang": 1576.2722973699999, "kelurahan": "Birobuli Selatan" }, "geometry": { "type": "LineString", "coordinates": [ [ 119.899941519816537, -0.922618590622783 ], [ 119.900206524103908, -0.922844372151267 ], [ 119.900581562974182, -0.92317182646891 ], [ 119.900870104822516, -0.923440779968483 ], [ 119.902151732480959, -0.924568126036379 ], [ 119.902702084326734, -0.92509837492987 ], [ 119.903354396294318, -0.925700315537913 ], [ 119.904291574683199, -0.926586721246855 ], [ 119.904372885398089, -0.926692560908887 ], [ 119.904545410825278, -0.926817211515038 ], [ 119.904749270801247, -0.926923188939684 ], [ 119.905462505256651, -0.927247730745877 ], [ 119.905844561216384, -0.927442493511066 ], [ 119.906281774411269, -0.927707974267379 ], [ 119.907179028590022, -0.928273341694153 ], [ 119.908137108202382, -0.928870692473658 ], [ 119.908515399891854, -0.929109445269339 ], [ 119.909232080499905, -0.929583158310222 ], [ 119.909564731891635, -0.929772222638142 ], [ 119.909828973066965, -0.929947955929766 ], [ 119.909996307521268, -0.930114206969748 ], [ 119.910093330265369, -0.930265216138786 ], [ 119.910586067740439, -0.931048943126083 ], [ 119.910828161143684, -0.931440092693577 ] ] } },
{ "type": "Feature", "properties": { "Id": 0, "Nama_Jalan": "Perumahan Jl. Ramba", "Armada": 2.0, "panjang": 207.690063549, "kelurahan": "Birobuli Selatan" }, "geometry": { "type": "LineString", "coordinates": [ [ 119.899698653775488, -0.927535474329743 ], [ 119.899523185967638, -0.926681910814804 ], [ 119.900186553493739, -0.926462133554798 ], [ 119.900260891376846, -0.92675469170253 ] ] } },
{ "type": "Feature", "properties": { "Id": 0, "Nama_Jalan": "BTN Tanggul Asri", "Armada": 2.0, "panjang": 484.65840734, "kelurahan": "Birobuli Selatan" }, "geometry": { "type": "MultiLineString", "coordinates": [ [ [ 119.900803266233595, -0.924912703018096 ], [ 119.901226389240108, -0.924789473670255 ] ], [ [ 119.9003708259782, -0.924676381577452 ], [ 119.9004499405426, -0.925002405399902 ], [ 119.900803266233595, -0.924912703018096 ] ], [ [ 119.9003708259782, -0.924676381577452 ], [ 119.900707275507145, -0.924584294561025 ] ], [ [ 119.900707275507145, -0.924584294561025 ], [ 119.900803266233595, -0.924912703018096 ] ], [ [ 119.900707275507145, -0.924584294561025 ], [ 119.90113302829576, -0.924467765024784 ] ], [ [ 119.900593684700198, -0.924195671257724 ], [ 119.900315379495822, -0.924249451468878 ], [ 119.90029260056275, -0.924275289570004 ], [ 119.900294061659196, -0.924319755047566 ], [ 119.9003708259782, -0.924676381577452 ] ], [ [ 119.900593684700198, -0.924195671257724 ], [ 119.900707275507145, -0.924584294561025 ] ], [ [ 119.901531194476917, -0.924022288466918 ], [ 119.901247208334851, -0.924105244007718 ], [ 119.900593684700198, -0.924195671257724 ] ] ] } },
{ "type": "Feature", "properties": { "Id": 0, "Nama_Jalan": "Jl. Ramba III", "Armada": 2.0, "panjang": 143.12227805200001, "kelurahan": "Birobuli Selatan" }, "geometry": { "type": "LineString", "coordinates": [ [ 119.897025220069594, -0.926109256609173 ], [ 119.897075873679981, -0.926061638798162 ], [ 119.897421299723774, -0.925894006237114 ], [ 119.897714549563588, -0.925817262809598 ], [ 119.89792236165988, -0.925817091713237 ], [ 119.897954447406278, -0.92584575353509 ], [ 119.897985344684088, -0.925873220990307 ], [ 119.898219250587843, -0.925834777402382 ] ] } },
{ "type": "Feature", "properties": { "Id": 0, "Nama_Jalan": "Lrg. Trans II", "Armada": 2.0, "panjang": 137.47490846299999, "kelurahan": "Birobuli Selatan" }, "geometry": { "type": "LineString", "coordinates": [ [ 119.89740863948245, -0.930877542694995 ], [ 119.897155499898517, -0.930949813657989 ], [ 119.896184599392882, -0.930950617133427 ] ] } },
{ "type": "Feature", "properties": { "Id": 0, "Nama_Jalan": "Perumahan Kehutanan", "Armada": 2.0, "panjang": 84.131268329500003, "kelurahan": "Birobuli Selatan" }, "geometry": { "type": "LineString", "coordinates": [ [ 119.900983540954741, -0.928016289266195 ], [ 119.901683177109888, -0.927730122221106 ] ] } },
{ "type": "Feature", "properties": { "Id": 0, "Nama_Jalan": "Tanggul Selatan I", "Armada": 2.0, "panjang": 105.022099216, "kelurahan": "Birobuli Selatan" }, "geometry": { "type": "LineString", "coordinates": [ [ 119.900983540954741, -0.928016289266195 ], [ 119.900973762756834, -0.92772449244604 ], [ 119.900935721995864, -0.927674319578136 ], [ 119.900837870173859, -0.927088683664569 ] ] } },
{ "type": "Feature", "properties": { "Id": 0, "Nama_Jalan": "Lrg. Pujangga II", "Armada": 2.0, "panjang": 146.734781398, "kelurahan": "Birobuli Selatan" }, "geometry": { "type": "LineString", "coordinates": [ [ 119.900837870173859, -0.927088683664569 ], [ 119.901154743850981, -0.927077006633899 ], [ 119.901731868019652, -0.927078920910786 ], [ 119.902153835470401, -0.92710755243575 ] ] } },
{ "type": "Feature", "properties": { "Id": 0, "Nama_Jalan": "Lrg. Damai", "Armada": 2.0, "panjang": 66.7522324153, "kelurahan": "Birobuli Selatan" }, "geometry": { "type": "LineString", "coordinates": [ [ 119.902507715370035, -0.930541937329068 ], [ 119.902499693404636, -0.931145030291181 ] ] } },
{ "type": "Feature", "properties": { "Id": 0, "Nama_Jalan": "Lrg. Porapi", "Armada": 2.0, "panjang": 110.69999274, "kelurahan": "Birobuli Selatan" }, "geometry": { "type": "LineString", "coordinates": [ [ 119.899255824640278, -0.929135760349796 ], [ 119.899388259428775, -0.929526455228565 ], [ 119.899933863257971, -0.92931801456475 ] ] } },
{ "type": "Feature", "properties": { "Id": 0, "Nama_Jalan": "Lrg. Trans I", "Armada": 2.0, "panjang": 115.61517486699999, "kelurahan": "Birobuli Selatan" }, "geometry": { "type": "LineString", "coordinates": [ [ 119.896218115184908, -0.930554586802173 ], [ 119.896629959180061, -0.930577196770106 ], [ 119.896775310407378, -0.930578510943979 ], [ 119.897187097984968, -0.930532269051602 ], [ 119.897248459159186, -0.930508778508404 ] ] } },
{ "type": "Feature", "properties": { "Id": 0, "Nama_Jalan": "Jl. Banteng Atas", "Armada": 2.0, "panjang": 75.370842216499994, "kelurahan": "Birobuli Selatan" }, "geometry": { "type": "LineString", "coordinates": [ [ 119.896222683251608, -0.93027106361267 ], [ 119.896218115184908, -0.930554586802173 ], [ 119.896184599392882, -0.930950617133427 ] ] } },
{ "type": "Feature", "properties": { "Id": 0, "Nama_Jalan": "Jl. Kijang Selatan VIII", "Armada": 2.0, "panjang": 180.239345321, "kelurahan": "Birobuli Selatan" }, "geometry": { "type": "LineString", "coordinates": [ [ 119.895528208930173, -0.927521083243565 ], [ 119.89567197582673, -0.928166100163845 ], [ 119.895884119683004, -0.929109769998313 ] ] } }
]
}
