{
"type": "FeatureCollection",
"name": "Birobuli Utara",
"crs": { "type": "name", "properties": { "name": "urn:ogc:def:crs:OGC:1.3:CRS84" } },
"features": [
{ "type": "Feature", "properties": { "Id": 0, "Nama_Jalan": "Jl. Gelatik", "Armada": 2.0, "kelurahan": "Birobuli Utara" }, "geometry": { "type": "LineString", "coordinates": [ [ 119.893799143330284, -0.918593129923551 ], [ 119.893773992228105, -0.918327783228454 ], [ 119.89370878573672, -0.916983070043745 ], [ 119.893750220448212, -0.916824055040488 ], [ 119.893471481793426, -0.915748468651349 ], [ 119.893324910241915, -0.91511385788788 ], [ 119.893107103510587, -0.914497235017393 ], [ 119.892776366027178, -0.912247856933076 ], [ 119.892659592898397, -0.911749490958762 ], [ 119.892531064313744, -0.911400553029934 ], [ 119.892474009031233, -0.911331268933987 ], [ 119.892393253401167, -0.911324162164282 ], [ 119.892078852956246, -0.911386096516089 ] ] } },
{ "type": "Feature", "properties": { "Id": 0, "Nama_Jalan": "Jl. Belibis", "Armada": 2.0, "kelurahan": "Birobuli Utara" }, "geometry": { "type": "LineString", "coordinates": [ [ 119.893711049887301, -0.917029762788313 ], [ 119.893400907040075, -0.917032927689838 ], [ 119.892931871073401, -0.917066181669258 ], [ 119.892391628090053, -0.917153284297874 ], [ 119.892026546035765, -0.917246221087822 ] ] } },
{ "type": "Feature", "properties": { "Id": 0, "Nama_Jalan": "Jl. Merak", "Armada": 1.0, "kelurahan": "Birobuli Utara" }, "geometry": { "type": "LineString", "coordinates": [ [ 119.895127352163911, -0.915485399978044 ], [ 119.894754174294661, -0.915545770400502 ], [ 119.894389434861139, -0.915620656697995 ], [ 119.894039870717592, -0.915664929768128 ], [ 119.893480603066365, -0.915783665558002 ] ] } },
{ "type": "Feature", "properties": { "Id": 0, "Nama_Jalan": "Jl. Gagak", "Armada": 2.0, "kelurahan": "Birobuli Utara" }, "geometry": { "type": "LineString", "coordinates": [ [ 119.892931871073401, -0.917066181669258 ], [ 119.892632226939725, -0.91598403707462 ], [ 119.892515881432018, -0.915428772459529 ], [ 119.892507302675085, -0.915392918955683 ], [ 119.892487341174643, -0.915378590985357 ], [ 119.892446009277094, -0.915370018054573 ], [ 119.891897425588837, -0.915422102861109 ], [ 119.891805836931141, -0.914937343345316 ] ] } },
{ "type": "Feature", "properties": { "Id": 0, "Nama_Jalan": "Jl. Bangau Putih", "Armada": 2.0, "kelurahan": "Birobuli Utara" }, "geometry": { "type": "LineString", "coordinates": [ [ 119.892842981399326, -0.912700917324515 ], [ 119.892292948057019, -0.912709940148227 ], [ 119.891544825227299, -0.912712936839509 ], [ 119.891440906142535, -0.912251137644285 ], [ 119.890708497184562, -0.912303369602068 ], [ 119.890650249097661, -0.912319446944902 ] ] } },
{ "type": "Feature", "properties": { "Id": 0, "Nama_Jalan": "Jl. Walet", "Armada": 2.0, "kelurahan": "Birobuli Utara" }, "geometry": { "type": "MultiLineString", "coordinates": [ [ [ 119.891440906142535, -0.912251137644285 ], [ 119.891877065184929, -0.912090129538866 ], [ 119.891785259317501, -0.911331395703951 ] ], [ [ 119.892078852956246, -0.911386096516056 ], [ 119.891874266753788, -0.911392585397756 ], [ 119.891821526903101, -0.911373980596533 ], [ 119.891785259317501, -0.911331395703951 ] ], [ [ 119.891629941270423, -0.91134012783556 ], [ 119.891463225208369, -0.911351379415829 ], [ 119.891146922197663, -0.911410446441152 ], [ 119.891047203103184, -0.911449256440853 ], [ 119.891001631717842, -0.911485153815346 ] ], [ [ 119.891629941270423, -0.91134012783556 ], [ 119.891583467329326, -0.910840150446053 ], [ 119.891560470566233, -0.910593448754131 ], [ 119.891527905633154, -0.910559048981153 ], [ 119.891497465999365, -0.9105093470054 ], [ 119.891467429751074, -0.910287897988568 ] ], [ [ 119.891785259317501, -0.911331395703951 ], [ 119.891629941270423, -0.91134012783556 ] ], [ [ 119.891467429751074, -0.910287897988568 ], [ 119.891183886267669, -0.910316312156224 ], [ 119.891002454610771, -0.910339409426418 ], [ 119.89093501681694, -0.910354764383258 ], [ 119.890788687974464, -0.910425292946047 ], [ 119.890724205240701, -0.910465863219132 ], [ 119.890524837841525, -0.910632417140008 ], [ 119.890478319844803, -0.910672618521026 ], [ 119.890425141932681, -0.910700393630296 ], [ 119.890343470865375, -0.910736798289372 ], [ 119.890300735328296, -0.910755002155059 ] ], [ [ 119.891467429751074, -0.910287897988568 ], [ 119.89142483917162, -0.909973888732472 ], [ 119.891436455501918, -0.90993095713947 ], [ 119.891539419152835, -0.909902480764744 ], [ 119.891576789527207, -0.909911607827834 ], [ 119.891588696904435, -0.909952240118967 ], [ 119.891602040460441, -0.910304857638303 ], [ 119.891612945259283, -0.910577388660447 ], [ 119.891564269229349, -0.910591772194402 ] ] ] } },
{ "type": "Feature", "properties": { "Id": 0, "Nama_Jalan": "Jl. Tanggul Utara", "Armada": 1.0, "kelurahan": "Birobuli Utara" }, "geometry": { "type": "LineString", "coordinates": [ [ 119.897443017515812, -0.91910946071384 ], [ 119.897440087701483, -0.919010488632666 ], [ 119.897176469378394, -0.919017876107545 ], [ 119.896884342982361, -0.919015245964199 ], [ 119.896825912373885, -0.919008121634841 ], [ 119.896741819115405, -0.918985239719835 ], [ 119.896659139283855, -0.918948012507908 ], [ 119.896586412451313, -0.918883523296815 ], [ 119.896546469779935, -0.918830482610501 ], [ 119.896422305526471, -0.918595340125499 ], [ 119.896370900488719, -0.91846485041875 ], [ 119.89633659310995, -0.91833147791506 ], [ 119.896313700736798, -0.918216743470471 ], [ 119.896286333564049, -0.917853859021749 ], [ 119.896287616521562, -0.917677425032637 ], [ 119.896271793783541, -0.917493832922488 ], [ 119.896233118052123, -0.917244276384363 ], [ 119.896173160903601, -0.917110924732843 ], [ 119.895964871531163, -0.916812736274177 ], [ 119.89545104435642, -0.916077778021178 ], [ 119.895256177604864, -0.915784120530354 ], [ 119.895202893269627, -0.915678973412013 ], [ 119.895127352163911, -0.915485399978027 ] ] } },
{ "type": "Feature", "properties": { "Id": 0, "Nama_Jalan": "Jl. Basuki Rahmat I", "Armada": 2.0, "kelurahan": "Birobuli Utara" }, "geometry": { "type": "LineString", "coordinates": [ [ 119.889671165032567, -0.918822136630689 ], [ 119.88961161985597, -0.918019745204047 ], [ 119.889512771358909, -0.916924524335334 ], [ 119.889449509734803, -0.916520785731255 ], [ 119.889395643623715, -0.916282715298478 ], [ 119.889387586109606, -0.916177253299951 ] ] } },
{ "type": "Feature", "properties": { "Id": 0, "Nama_Jalan": "Jl. Basuki Rahmat II", "Armada": 2.0, "kelurahan": "Birobuli Utara" }, "geometry": { "type": "LineString", "coordinates": [ [ 119.887742556343923, -0.918846299736487 ], [ 119.887734675092133, -0.918496306442896 ], [ 119.887818780076927, -0.917941593672558 ], [ 119.887841468484083, -0.917802435998768 ], [ 119.887841360254271, -0.917667600144703 ], [ 119.887805500264122, -0.917375006615803 ], [ 119.887802629759761, -0.9167572499296 ] ] } },
{ "type": "Feature", "properties": { "Id": 0, "Nama_Jalan": "Jl. Zebra Star", "Armada": 2.0, "kelurahan": "Birobuli Utara" }, "geometry": { "type": "LineString", "coordinates": [ [ 119.884233344567448, -0.921056622921116 ], [ 119.884665571348052, -0.921022800516176 ], [ 119.885021833900652, -0.921034463595122 ], [ 119.886055037989664, -0.921122077262594 ], [ 119.88642555021724, -0.921133728528612 ], [ 119.886425242259932, -0.920751214994417 ], [ 119.886407160579651, -0.920712022077989 ], [ 119.88645822081493, -0.920413619690796 ], [ 119.886499532237906, -0.920396372889949 ], [ 119.88644357032679, -0.91991588557852 ] ] } },
{ "type": "Feature", "properties": { "Id": 0, "Nama_Jalan": "Lrg. Alorfa", "Armada": 2.0, "kelurahan": "Birobuli Utara" }, "geometry": { "type": "LineString", "coordinates": [ [ 119.892606201835861, -0.921533013328004 ], [ 119.892581374424893, -0.921375247562524 ], [ 119.892535900347625, -0.92134637925302 ], [ 119.892455818279203, -0.920734925077534 ], [ 119.892512375586008, -0.920633231255818 ], [ 119.892487493560424, -0.920407569668529 ], [ 119.89246655266858, -0.920356903972012 ], [ 119.892495021093779, -0.920317673262339 ], [ 119.892487263049077, -0.920121642337852 ] ] } },
{ "type": "Feature", "properties": { "Id": 0, "Nama_Jalan": "Jl. Basuki Rahmat Lrg. Basa-Basi", "Armada": 2.0, "kelurahan": "Birobuli Utara" }, "geometry": { "type": "LineString", "coordinates": [ [ 119.889596591190823, -0.918971616421793 ], [ 119.889609794725231, -0.919442096294109 ], [ 119.889634216058013, -0.919685928228804 ], [ 119.889670187031129, -0.919820495544205 ], [ 119.88966966825167, -0.920356013729583 ] ] } },
{ "type": "Feature", "properties": { "Id": 0, "Nama_Jalan": "Lrg. Malioboro", "Armada": 2.0, "kelurahan": "Birobuli Utara" }, "geometry": { "type": "LineString", "coordinates": [ [ 119.894359655762045, -0.925942845404106 ], [ 119.894364556171666, -0.926128120180293 ], [ 119.894724362257321, -0.926119456752541 ], [ 119.894708781115384, -0.925942558248794 ] ] } },
{ "type": "Feature", "properties": { "Id": 0, "Nama_Jalan": "Jl. Zebra II", "Armada": 2.0, "kelurahan": "Birobuli Utara" }, "geometry": { "type": "LineString", "coordinates": [ [ 119.884618026593145, -0.923728413403827 ], [ 119.88558850431771, -0.923752983165855 ], [ 119.887527747259711, -0.923802079331074 ], [ 119.890090450135702, -0.923878873761457 ], [ 119.892788530323855, -0.923965117724259 ], [ 119.893685714154003, -0.923996656090138 ], [ 119.89411793797575, -0.923963429357177 ], [ 119.894431409146179, -0.92392731168917 ], [ 119.894896831839617, -0.923831301968453 ] ] } },
{ "type": "Feature", "properties": { "Id": 0, "Nama_Jalan": "Jl. Zebra I", "Armada": 2.0, "kelurahan": "Birobuli Utara" }, "geometry": { "type": "LineString", "coordinates": [ [ 119.884487386289663, -0.923122234844579 ], [ 119.887051646980353, -0.923179210992016 ], [ 119.891449100992205, -0.92332383491241 ], [ 119.892845627550543, -0.923351378835274 ], [ 119.894113908126357, -0.92338619939664 ], [ 119.89411793797575, -0.923963429357177 ] ] } },
{ "type": "Feature", "properties": { "Id": 0, "Nama_Jalan": "Jl. Zebra III", "Armada": 2.0, "kelurahan": "Birobuli Utara" }, "geometry": { "type": "LineString", "coordinates": [ [ 119.884714536023836, -0.924126059767598 ], [ 119.887022522489616, -0.924200046011842 ], [ 119.888681507425105, -0.924244110636478 ], [ 119.890070920477399, -0.924281223232398 ], [ 119.890118886408715, -0.924269708535881 ], [ 119.891439324929749, -0.924333055225911 ], [ 119.892771965253019, -0.924361845676359 ] ] } },
{ "type": "Feature", "properties": { "Id": 0, "Nama_Jalan": "Jl. Zebra IV", "Armada": 2.0, "kelurahan": "Birobuli Utara" }, "geometry": { "type": "LineString", "coordinates": [ [ 119.884749355431282, -0.924598526152697 ], [ 119.887018023375944, -0.924657392493698 ], [ 119.888738762777052, -0.924706187238168 ], [ 119.89142851109419, -0.924763748794344 ], [ 119.893675347963523, -0.924862313614711 ], [ 119.89450184500042, -0.924856853331446 ], [ 119.895071763855057, -0.924755975985236 ] ] } },
{ "type": "Feature", "properties": { "Id": 0, "Nama_Jalan": "Jl. Zebra V", "Armada": 2.0, "kelurahan": "Birobuli Utara" }, "geometry": { "type": "MultiLineString", "coordinates": [ [ [ 119.884873828778098, -0.926094652872142 ], [ 119.885497029959453, -0.926088404153033 ], [ 119.886987154852974, -0.926133322553717 ] ], [ [ 119.887005406153236, -0.925208102853321 ], [ 119.88813594113789, -0.925240645871194 ], [ 119.889275966159488, -0.925262183430332 ], [ 119.890130993763492, -0.925290170301831 ], [ 119.891405937827258, -0.925336937777668 ], [ 119.892284713145031, -0.92536394823573 ], [ 119.892758302186394, -0.925379337828588 ], [ 119.893651338128109, -0.925420680338078 ] ] ] } },
{ "type": "Feature", "properties": { "Id": 0, "Nama_Jalan": "Jl. Zebra VI", "Armada": 2.0, "kelurahan": "Birobuli Utara" }, "geometry": { "type": "LineString", "coordinates": [ [ 119.886983756393022, -0.926555803630596 ], [ 119.888680746692714, -0.926604615006947 ], [ 119.890063027950276, -0.926632167743438 ], [ 119.891384756434348, -0.926674113859613 ], [ 119.893618526408247, -0.926765513568467 ] ] } },
{ "type": "Feature", "properties": { "Id": 0, "Nama_Jalan": "Jl. Kijang II", "Armada": 2.0, "kelurahan": "Birobuli Utara" }, "geometry": { "type": "LineString", "coordinates": [ [ 119.890496511552044, -0.926645924754452 ], [ 119.890528364155188, -0.925304746690994 ] ] } },
{ "type": "Feature", "properties": { "Id": 0, "Nama_Jalan": "Jl. Kijang III", "Armada": 2.0, "kelurahan": "Birobuli Utara" }, "geometry": { "type": "LineString", "coordinates": [ [ 119.888752777774215, -0.922774524983195 ], [ 119.888755467996646, -0.923235247152707 ], [ 119.888739387458585, -0.923838387820951 ], [ 119.888728281307777, -0.924245360022793 ], [ 119.888720547125047, -0.924705670704509 ], [ 119.888709763529818, -0.925251486676699 ], [ 119.888680746692714, -0.926604615006947 ], [ 119.888667562015158, -0.927235055101694 ] ] } },
{ "type": "Feature", "properties": { "Id": 0, "Nama_Jalan": "Jl. Kijang V", "Armada": 2.0, "kelurahan": "Birobuli Utara" }, "geometry": { "type": "LineString", "coordinates": [ [ 119.885609487352284, -0.927178107150101 ], [ 119.885550090017645, -0.926520912302782 ], [ 119.886983756393022, -0.926555803630596 ] ] } },
{ "type": "Feature", "properties": { "Id": 0, "Nama_Jalan": "Lrg. Kenangan", "Armada": 2.0, "kelurahan": "Birobuli Utara" }, "geometry": { "type": "LineString", "coordinates": [ [ 119.89292813328926, -0.919436721165353 ], [ 119.892598349771973, -0.919496163015903 ], [ 119.892542376756268, -0.919367227637332 ] ] } },
{ "type": "Feature", "properties": { "Id": 0, "Nama_Jalan": "Lrg. Anatapura", "Armada": 2.0, "kelurahan": "Birobuli Utara" }, "geometry": { "type": "LineString", "coordinates": [ [ 119.888620677529403, -0.918979047776057 ], [ 119.888644906390709, -0.919574313950382 ], [ 119.888733387901055, -0.920327314299456 ], [ 119.888763072538438, -0.920618478097203 ] ] } },
{ "type": "Feature", "properties": { "Id": 0, "Nama_Jalan": "Jl. Basuki Rahmat III", "Armada": 2.0, "kelurahan": "Birobuli Utara" }, "geometry": { "type": "LineString", "coordinates": [ [ 119.886946922140694, -0.918875339189938 ], [ 119.886890049935786, -0.918295638264846 ], [ 119.886883261113937, -0.917234766127163 ], [ 119.886815783582819, -0.916320112269273 ], [ 119.886798046414654, -0.915969528985088 ] ] } },
{ "type": "Feature", "properties": { "Id": 0, "Nama_Jalan": "Jl. Angkasa", "Armada": 1.0, "kelurahan": "Birobuli Utara" }, "geometry": { "type": "LineString", "coordinates": [ [ 119.90201202592965, -0.91917885158898 ], [ 119.902015293760996, -0.920283342186391 ], [ 119.90203229194735, -0.920744729115539 ], [ 119.902093159091862, -0.921121569574744 ] ] } },
{ "type": "Feature", "properties": { "Id": 0, "Nama_Jalan": "Jl. Tanggul Selatan", "Armada": 1.0, "kelurahan": "Birobuli Utara" }, "geometry": { "type": "LineString", "coordinates": [ [ 119.899941519816537, -0.922618590622783 ], [ 119.899609231977735, -0.922292535189539 ], [ 119.899507352833112, -0.922154975122996 ], [ 119.899431849526835, -0.921998865753703 ], [ 119.89931876747977, -0.921702035595641 ], [ 119.899128807424916, -0.921163450689605 ], [ 119.899044880201572, -0.921015416574096 ], [ 119.89889370211273, -0.920856320844792 ], [ 119.89873314678097, -0.920718077048551 ], [ 119.898455905074229, -0.920456000555068 ], [ 119.898414721622075, -0.920362730715965 ], [ 119.898385191422904, -0.920265934276145 ], [ 119.898231670038783, -0.919419074612998 ], [ 119.898217036557412, -0.919238111637085 ] ] } },
{ "type": "Feature", "properties": { "Id": 0, "Nama_Jalan": "Jl. Mataram", "Armada": 1.0, "kelurahan": "Birobuli Utara" }, "geometry": { "type": "LineString", "coordinates": [ [ 119.899002171931954, -0.917493192102272 ], [ 119.901114625819091, -0.917373128509574 ], [ 119.902001641075827, -0.917322199692521 ] ] } },
{ "type": "Feature", "properties": { "Id": 0, "Nama_Jalan": "Jl. Mutiara", "Armada": 1.0, "kelurahan": "Birobuli Utara" }, "geometry": { "type": "LineString", "coordinates": [ [ 119.89873314678097, -0.920718077048551 ], [ 119.897785535910941, -0.921003952683294 ], [ 119.897318243997276, -0.92113630136117 ], [ 119.897371705157525, -0.92145947858439 ], [ 119.895479126334692, -0.921676071451281 ], [ 119.895430327572726, -0.921685315580524 ], [ 119.895375182798105, -0.921629896683632 ], [ 119.89529775083696, -0.920297866316207 ], [ 119.895379986352083, -0.919195092300522 ] ] } },
{ "type": "Feature", "properties": { "Id": 0, "Nama_Jalan": "Lrg. Mawar Jingga", "Armada": 1.0, "kelurahan": "Birobuli Utara" }, "geometry": { "type": "LineString", "coordinates": [ [ 119.896799475940654, -0.919285735117811 ], [ 119.896799589325695, -0.919426307548608 ], [ 119.896833884116361, -0.919543901421196 ], [ 119.896872486316326, -0.919701655340048 ], [ 119.896946811849446, -0.919981305165542 ], [ 119.897026933580449, -0.920380006506302 ], [ 119.897106807499, -0.920471743586199 ], [ 119.897139670460177, -0.920580732084871 ] ] } },
{ "type": "Feature", "properties": { "Id": 0, "Nama_Jalan": "Jl. Garuda II", "Armada": 1.0, "kelurahan": "Birobuli Utara" }, "geometry": { "type": "LineString", "coordinates": [ [ 119.901095359898818, -0.917374223513608 ], [ 119.901085532862766, -0.917017777676735 ], [ 119.901138227187289, -0.91639042022989 ], [ 119.901177838962809, -0.916032742198787 ], [ 119.901218540348253, -0.91525800920948 ], [ 119.901139522580962, -0.915249712882289 ], [ 119.900164872853949, -0.915304058232689 ], [ 119.899642399429311, -0.915333172018451 ], [ 119.899233941972653, -0.915383230918028 ], [ 119.899173087925831, -0.915404222873091 ] ] } },
{ "type": "Feature", "properties": { "Id": 0, "Nama_Jalan": "Jl. Apolo", "Armada": 1.0, "kelurahan": "Birobuli Utara" }, "geometry": { "type": "LineString", "coordinates": [ [ 119.901135965858487, -0.916417342621024 ], [ 119.901629328044905, -0.916333719028984 ], [ 119.901999777279158, -0.916274127917926 ], [ 119.903215658644513, -0.916139257699546 ], [ 119.903600367194642, -0.916092086439738 ] ] } },
{ "type": "Feature", "properties": { "Id": 0, "Nama_Jalan": "Jl. Palapa", "Armada": 1.0, "kelurahan": "Birobuli Utara" }, "geometry": { "type": "LineString", "coordinates": [ [ 119.901175132386172, -0.916057181441494 ], [ 119.901899336204167, -0.915931072824375 ], [ 119.902729096813232, -0.915859392811187 ], [ 119.903238250485572, -0.915807338789275 ] ] } },
{ "type": "Feature", "properties": { "Id": 0, "Nama_Jalan": "Jl. Hercules", "Armada": 1.0, "kelurahan": "Birobuli Utara" }, "geometry": { "type": "LineString", "coordinates": [ [ 119.898384488604819, -0.906892364074215 ], [ 119.897066405313907, -0.906934068781245 ] ] } },
{ "type": "Feature", "properties": { "Id": 0, "Nama_Jalan": "Jl Belakang Kantor Camat", "Armada": 1.0, "kelurahan": "Birobuli Utara" }, "geometry": { "type": "LineString", "coordinates": [ [ 119.8958296583926, -0.919276053331465 ], [ 119.895781871449756, -0.920098012050584 ] ] } },
{ "type": "Feature", "properties": { "Id": 0, "Nama_Jalan": "Jl. Sempati Air", "Armada": 1.0, "kelurahan": "Birobuli Utara" }, "geometry": { "type": "LineString", "coordinates": [ [ 119.894926165738411, -0.913544255935135 ], [ 119.895844355924169, -0.913578426444932 ], [ 119.896492308592087, -0.913646752189856 ], [ 119.896764012030772, -0.913652269175169 ], [ 119.896929303627161, -0.913642572163736 ], [ 119.897349154109875, -0.913582942051658 ], [ 119.897972284923625, -0.913500196195158 ], [ 119.899032408024141, -0.913411357587661 ] ] } },
{ "type": "Feature", "properties": { "Id": 0, "Nama_Jalan": "Jl. Kasuari", "Armada": 1.0, "kelurahan": "Birobuli Utara" }, "geometry": { "type": "LineString", "coordinates": [ [ 119.895001689566143, -0.908500800265529 ], [ 119.895026898385026, -0.908841453677324 ], [ 119.895037874520682, -0.909203634806897 ], [ 119.895024270950373, -0.91001409073662 ], [ 119.894967640365934, -0.910476735647113 ], [ 119.894896937597977, -0.911161726467407 ], [ 119.894882833765806, -0.911344625923508 ], [ 119.894894186615957, -0.911434267730619 ], [ 119.894944757891508, -0.91156272654089 ], [ 119.894998536843218, -0.911990019374999 ], [ 119.894499223769103, -0.91202688198891 ], [ 119.894112122731144, -0.912055883910504 ], [ 119.89384935565991, -0.912087456705058 ], [ 119.893428217850229, -0.91217358196585 ], [ 119.892836908744442, -0.912255344575453 ], [ 119.89277867938489, -0.912263590422833 ] ] } },
{ "type": "Feature", "properties": { "Id": 0, "Nama_Jalan": "Jl. Dirgantara", "Armada": 1.0, "kelurahan": "Birobuli Utara" }, "geometry": { "type": "LineString", "coordinates": [ [ 119.895844355924169, -0.913578426444932 ], [ 119.895870096927737, -0.91438335127388 ], [ 119.895922465972461, -0.915123944815464 ], [ 119.895961884586768, -0.91570771949722 ], [ 119.895967867263906, -0.916059624340014 ] ] } },
{ "type": "Feature", "properties": { "Id": 0, "Nama_Jalan": "Jl. Elang", "Armada": 1.0, "kelurahan": "Birobuli Utara" }, "geometry": { "type": "LineString", "coordinates": [ [ 119.898525841902639, -0.907799586963303 ], [ 119.896596469668964, -0.908180666410743 ], [ 119.895001689566143, -0.908500800265512 ] ] } },
{ "type": "Feature", "properties": { "Id": 0, "Nama_Jalan": "Jl. Air Fast", "Armada": 1.0, "kelurahan": "Birobuli Utara" }, "geometry": { "type": "LineString", "coordinates": [ [ 119.898625843454326, -0.909009312557803 ], [ 119.898107199020146, -0.909074758572076 ], [ 119.898164561935232, -0.909529898878072 ] ] } },
{ "type": "Feature", "properties": { "Id": 0, "Nama_Jalan": "Jl. Lion", "Armada": 1.0, "kelurahan": "Birobuli Utara" }, "geometry": { "type": "LineString", "coordinates": [ [ 119.899180664306613, -0.914380332809614 ], [ 119.899453758748237, -0.914344250372671 ], [ 119.89964616125954, -0.914379954079703 ], [ 119.900377707929877, -0.914443907171727 ], [ 119.900474602984985, -0.914438568805383 ], [ 119.900508921038409, -0.914585806842239 ], [ 119.900550740702144, -0.914610635881813 ], [ 119.901242315324765, -0.914585209714697 ] ] } },
{ "type": "Feature", "properties": { "Id": 0, "Nama_Jalan": "Jl. Sempati II", "Armada": 1.0, "kelurahan": "Birobuli Utara" }, "geometry": { "type": "MultiLineString", "coordinates": [ [ [ 119.898982434150383, -0.912350827345245 ], [ 119.900052203724954, -0.912257175908944 ], [ 119.900233635838177, -0.912236468735956 ] ], [ [ 119.900444444505638, -0.912124413674516 ], [ 119.900850474194343, -0.912009331331163 ] ] ] } },
{ "type": "Feature", "properties": { "Id": 0, "Nama_Jalan": "BTN Griya Tanggul", "Armada": 1.0, "kelurahan": "Birobuli Utara" }, "geometry": { "type": "MultiLineString", "coordinates": [ [ [ 119.894651126772374, -0.914250954545305 ], [ 119.894776579046294, -0.914210074192269 ], [ 119.894987938173955, -0.914190776986316 ], [ 119.894961629304802, -0.913961291813563 ], [ 119.894847474451154, -0.913767738339883 ], [ 119.894464438093792, -0.912940869068401 ] ], [ [ 119.894085928439225, -0.913007204509898 ], [ 119.894191344366135, -0.91297934163544 ], [ 119.894464438093792, -0.912940869068401 ] ], [ [ 119.894464438093792, -0.912940869068401 ], [ 119.894855405631361, -0.912888541372776 ] ], [ [ 119.894855405631361, -0.912888541372776 ], [ 119.894923255929058, -0.91349513779487 ], [ 119.89492807102134, -0.913576417456191 ], [ 119.894961629304802, -0.913961291813563 ] ], [ [ 119.894855405631361, -0.912888541372776 ], [ 119.895129365400365, -0.912851874161108 ], [ 119.895160481454553, -0.913153076207119 ] ] ] } },
{ "type": "Feature", "properties": { "Id": 0, "Nama_Jalan": "Jl. Sriwijaya", "Armada": 1.0, "kelurahan": "Birobuli Utara" }, "geometry": { "type": "LineString", "coordinates": [ [ 119.898753520942776, -0.910544335651492 ], [ 119.897702913417589, -0.910652289289589 ], [ 119.897522429780238, -0.910671560944045 ] ] } },
{ "type": "Feature", "properties": { "Id": 0, "Nama_Jalan": "Jl. Batavia", "Armada": 1.0, "kelurahan": "Birobuli Utara" }, "geometry": { "type": "LineString", "coordinates": [ [ 119.898855269621521, -0.911707640188215 ], [ 119.897761672229237, -0.911812521898334 ], [ 119.896882330000807, -0.911957632430625 ] ] } },
{ "type": "Feature", "properties": { "Id": 0, "Nama_Jalan": "Jl. Baitul Makmur", "Armada": 1.0, "kelurahan": "Birobuli Utara" }, "geometry": { "type": "LineString", "coordinates": [ [ 119.904196978721842, -0.926312174538105 ], [ 119.904293810986616, -0.92622985543731 ], [ 119.905308197097057, -0.925976563024012 ], [ 119.905923670088271, -0.925826877049226 ], [ 119.906385308096645, -0.925755732079294 ], [ 119.90703503308869, -0.925671044047751 ], [ 119.908072359663976, -0.925593685971202 ], [ 119.908421944798974, -0.925580009461579 ], [ 119.908729694446819, -0.925522379278177 ], [ 119.909424990921494, -0.925405140463187 ] ] } },
{ "type": "Feature", "properties": { "Id": 0, "Nama_Jalan": "Jl. Tanggul Utara", "Armada": 2.0, "kelurahan": "Birobuli Utara" }, "geometry": { "type": "LineString", "coordinates": [ [ 119.895127352163911, -0.915485399978027 ], [ 119.894897702325878, -0.914863736593928 ], [ 119.894645434984156, -0.914217976154833 ], [ 119.894228122894447, -0.913296941303931 ], [ 119.893977815036294, -0.912724333764041 ], [ 119.893959240734787, -0.912662668882412 ], [ 119.893942077665699, -0.912583789848624 ], [ 119.893870854751583, -0.912084873480776 ] ] } },
{ "type": "Feature", "properties": { "Id": 0, "Nama_Jalan": "Lrg. Naroso", "Armada": 1.0, "kelurahan": "Birobuli Utara" }, "geometry": { "type": "LineString", "coordinates": [ [ 119.90196413127569, -0.92421992323877 ], [ 119.902392846181343, -0.923964246017555 ], [ 119.902442750369673, -0.924000543239627 ], [ 119.902467463411881, -0.92401677950427 ], [ 119.902495961670311, -0.924014843507294 ], [ 119.903239138460719, -0.923776598620293 ] ] } },
{ "type": "Feature", "properties": { "Id": 0, "Nama_Jalan": "Belakang BNI (Perumahan Griya Nirwana)", "Armada": 1.0, "kelurahan": "Birobuli Utara" }, "geometry": { "type": "MultiLineString", "coordinates": [ [ [ 119.893924322524796, -0.921244506489046 ], [ 119.894810046790496, -0.92105730763514 ], [ 119.894819048879782, -0.921055603375096 ] ], [ [ 119.894819048879782, -0.921055603375096 ], [ 119.894934953560977, -0.921034732914007 ], [ 119.894977934275047, -0.921320385561027 ], [ 119.89484495946202, -0.921351573414081 ], [ 119.894803191342504, -0.921096998754899 ], [ 119.894819048879782, -0.921055603375096 ] ], [ [ 119.894916768066935, -0.920696882554682 ], [ 119.894782695018137, -0.920714504575747 ], [ 119.894772065422018, -0.920786234073941 ], [ 119.894819048879782, -0.921055603375096 ] ], [ [ 119.894916768066935, -0.920696882554682 ], [ 119.894956289934299, -0.920986901593905 ] ], [ [ 119.895157905138902, -0.920665188462087 ], [ 119.894916768066935, -0.920696882554682 ] ] ] } },
{ "type": "Feature", "properties": { "Id": 0, "Nama_Jalan": "Jl. Satelit", "Armada": 1.0, "kelurahan": "Birobuli Utara" }, "geometry": { "type": "LineString", "coordinates": [ [ 119.9011044012924, -0.916793137286791 ], [ 119.901872792427511, -0.916697447757261 ] ] } },
{ "type": "Feature", "properties": { "Id": 0, "Nama_Jalan": "Lrg. Bidara", "Armada": 1.0, "kelurahan": "Birobuli Utara" }, "geometry": { "type": "LineString", "coordinates": [ [ 119.902299365068956, -0.916471658607056 ], [ 119.90230337768817, -0.916735586127296 ], [ 119.902271404759162, -0.917141071147927 ], [ 119.902282837043657, -0.917181225191888 ], [ 119.902320869108053, -0.917221357504336 ], [ 119.902370274862733, -0.917228967309444 ], [ 119.902427275925149, -0.917230833282567 ] ] } }
]
}
