{
"type": "FeatureCollection",
"name": "Boyaoge",
"crs": { "type": "name", "properties": { "name": "urn:ogc:def:crs:OGC:1.3:CRS84" } },
"features": [
{ "type": "Feature", "properties": { "Id": 0, "Nama_Jalan": "Jl. Beringin", "Armada": 2.0, "kelurahan": "Boyaoge" }, "geometry": { "type": "LineString", "coordinates": [ [ 119.856327517773138, -0.908174309568362 ], [ 119.856437348356067, -0.908153302859183 ], [ 119.857378476713436, -0.908161518931506 ], [ 119.857841622039842, -0.908170115475083 ], [ 119.859044088696805, -0.908282719067084 ], [ 119.860118268782088, -0.908425794188649 ], [ 119.860677076272168, -0.908490917867701 ], [ 119.860897503075037, -0.908517518629225 ], [ 119.861007739047267, -0.908559508161258 ], [ 119.861116064423214, -0.908588110924069 ], [ 119.861245279000045, -0.908590845999933 ] ] } },
{ "type": "Feature", "properties": { "Id": 0, "Nama_Jalan": "Jl. Anggur", "Armada": 1.0, "kelurahan": "Boyaoge" }, "geometry": { "type": "LineString", "coordinates": [ [ 119.853179844031075, -0.909328482340628 ], [ 119.853192829255036, -0.909380710571662 ], [ 119.853102090803873, -0.909971783983909 ], [ 119.852979126783723, -0.910658514443272 ], [ 119.852899184020856, -0.911084137344517 ], [ 119.852819163766156, -0.912014215362326 ], [ 119.852748457870263, -0.912707598631086 ], [ 119.852682391216817, -0.913259922119861 ], [ 119.852737113930729, -0.913381330101789 ], [ 119.852699339056102, -0.913668254172292 ], [ 119.85363051881356, -0.913854946419537 ], [ 119.854029585082344, -0.913921568858523 ], [ 119.854327869318809, -0.913888815494214 ], [ 119.854949221471799, -0.913928483109566 ], [ 119.855862298766368, -0.914051594058515 ], [ 119.855924092314879, -0.91410414161684 ], [ 119.856194875466116, -0.914135004745639 ] ] } },
{ "type": "Feature", "properties": { "Id": 0, "Nama_Jalan": "Jl. Anggur IV", "Armada": 1.0, "kelurahan": "Boyaoge" }, "geometry": { "type": "LineString", "coordinates": [ [ 119.853350945679651, -0.913798894840869 ], [ 119.853279566387599, -0.914262855420015 ], [ 119.85328435697231, -0.91431401429801 ], [ 119.853326184090122, -0.91434649543199 ], [ 119.853570013907543, -0.9143814446804 ], [ 119.853491772181542, -0.915304468157187 ], [ 119.854994211215072, -0.915557283726437 ], [ 119.855078182252001, -0.915572397803474 ], [ 119.856225355820214, -0.915585822021544 ] ] } },
{ "type": "Feature", "properties": { "Id": 0, "Nama_Jalan": "Jl. Ps. Harimau", "Armada": 1.0, "kelurahan": "Boyaoge" }, "geometry": { "type": "LineString", "coordinates": [ [ 119.855013450679152, -0.915560746667628 ], [ 119.854849678010893, -0.916145052816528 ], [ 119.854760711436157, -0.916569726371717 ], [ 119.854766457098876, -0.916627100426646 ], [ 119.854821587744397, -0.91666339597678 ], [ 119.855131827661381, -0.916732001199389 ], [ 119.855155620145368, -0.91678457918367 ], [ 119.855038716571201, -0.917494282450463 ], [ 119.855031200534299, -0.917600439004055 ], [ 119.855059762952834, -0.917677877223479 ], [ 119.855057124602496, -0.917944690084192 ], [ 119.854976843438607, -0.918987133594732 ], [ 119.854978513489556, -0.919145999407443 ], [ 119.854937025260398, -0.919540032944356 ] ] } },
{ "type": "Feature", "properties": { "Id": 0, "Nama_Jalan": "Jl. Lekatu", "Armada": 2.0, "kelurahan": "Boyaoge" }, "geometry": { "type": "LineString", "coordinates": [ [ 119.856297620966501, -0.917462402587746 ], [ 119.857126018907493, -0.917575298019067 ], [ 119.857998932323071, -0.917667238016917 ], [ 119.858748524415432, -0.917704108639256 ] ] } },
{ "type": "Feature", "properties": { "Id": 0, "Nama_Jalan": "Jl. Cemangi", "Armada": 1.0, "kelurahan": "Boyaoge" }, "geometry": { "type": "LineString", "coordinates": [ [ 119.852018231412828, -0.909727764073618 ], [ 119.852024743435464, -0.909807319484011 ], [ 119.851908239037883, -0.910827432934471 ], [ 119.85178511188164, -0.911910078143972 ], [ 119.851641999980259, -0.912057999999899 ], [ 119.85156877479902, -0.912555045390552 ], [ 119.851497999980296, -0.912847999999894 ], [ 119.851452903662619, -0.913077531672169 ], [ 119.851416020303034, -0.913713502655297 ], [ 119.851352300602031, -0.914229963166126 ], [ 119.851273448395432, -0.914590373448306 ], [ 119.851254770209906, -0.914818181619634 ], [ 119.851284454408884, -0.914934342748566 ], [ 119.851276048049456, -0.915116527308676 ], [ 119.85120653458327, -0.915513931488372 ], [ 119.851143986546575, -0.915709069683949 ], [ 119.851136790650514, -0.915798498094377 ], [ 119.851225435721247, -0.91598872630301 ], [ 119.8512469124896, -0.916116377021079 ], [ 119.851237019970739, -0.916221101344499 ], [ 119.851047184210643, -0.916616218582028 ], [ 119.851022282093567, -0.916783586281807 ], [ 119.851030886916277, -0.916852434007118 ], [ 119.85112597093665, -0.91713256505862 ], [ 119.851142420417432, -0.91733145793787 ], [ 119.851109239679587, -0.917577451441165 ] ] } },
{ "type": "Feature", "properties": { "Id": 0, "Nama_Jalan": "Jl. Bambu", "Armada": 2.0, "kelurahan": "Boyaoge" }, "geometry": { "type": "MultiLineString", "coordinates": [ [ [ 119.858425883193476, -0.907485201649367 ], [ 119.858403866980908, -0.907878979047369 ], [ 119.858388050286138, -0.908221285178635 ] ], [ [ 119.858425883193476, -0.907485201649367 ], [ 119.858431481919482, -0.907053663158745 ], [ 119.85849959701504, -0.906082956287116 ], [ 119.858542160667582, -0.905843845450978 ], [ 119.85867953013998, -0.905353628488328 ] ], [ [ 119.856637155921462, -0.907102905863901 ], [ 119.857054081870771, -0.907231676049881 ], [ 119.857691894634129, -0.907367442650823 ], [ 119.858033952173344, -0.907428135112816 ], [ 119.858425883193476, -0.907485201649367 ] ] ] } },
{ "type": "Feature", "properties": { "Id": 0, "Nama_Jalan": "Jl. Bakuku", "Armada": 2.0, "kelurahan": "Boyaoge" }, "geometry": { "type": "LineString", "coordinates": [ [ 119.85867953013998, -0.905353628488328 ], [ 119.858746306546081, -0.90509788263937 ], [ 119.858867476068852, -0.904392509457395 ] ] } },
{ "type": "Feature", "properties": { "Id": 0, "Nama_Jalan": "Jl. Bakuku II", "Armada": 2.0, "kelurahan": "Boyaoge" }, "geometry": { "type": "LineString", "coordinates": [ [ 119.858472998095195, -0.906462015636645 ], [ 119.857940417361746, -0.90642380668318 ], [ 119.857650713631102, -0.906493369362876 ], [ 119.857496319266104, -0.906474365917517 ] ] } },
{ "type": "Feature", "properties": { "Id": 0, "Nama_Jalan": "Jl. Danau Talaga", "Armada": 2.0, "kelurahan": "Boyaoge" }, "geometry": { "type": "LineString", "coordinates": [ [ 119.857600399834553, -0.904022744270716 ], [ 119.858867476068852, -0.904392509457395 ], [ 119.860022618783645, -0.904669541019207 ] ] } },
{ "type": "Feature", "properties": { "Id": 0, "Nama_Jalan": "Jl. Lengaru", "Armada": 2.0, "kelurahan": "Boyaoge" }, "geometry": { "type": "LineString", "coordinates": [ [ 119.856198852402912, -0.90935897045555 ], [ 119.856954094517889, -0.909319637876997 ], [ 119.857689086855572, -0.909353478955266 ], [ 119.857890988848112, -0.909380214117138 ], [ 119.858314261509989, -0.909480850215651 ] ] } },
{ "type": "Feature", "properties": { "Id": 0, "Nama_Jalan": "Jl. Ganogo", "Armada": 2.0, "kelurahan": "Boyaoge" }, "geometry": { "type": "LineString", "coordinates": [ [ 119.858403314828877, -0.908222714609252 ], [ 119.858369298717861, -0.908697418871189 ], [ 119.858333902945304, -0.908990077388632 ], [ 119.858331991173372, -0.909276971368195 ], [ 119.858276913267446, -0.909910330421184 ], [ 119.858351900800201, -0.910129743294871 ], [ 119.858352048870088, -0.910317657730657 ], [ 119.858316603738018, -0.910547199999457 ], [ 119.858272564293614, -0.910720805116469 ], [ 119.858238441908512, -0.910820527510007 ], [ 119.858168027354452, -0.910979091867219 ], [ 119.858110426942702, -0.911105316567319 ], [ 119.857903954019747, -0.911095104063619 ], [ 119.857759528087357, -0.912422097721985 ], [ 119.857683724118033, -0.914175391014718 ] ] } },
{ "type": "Feature", "properties": { "Id": 0, "Nama_Jalan": "Jl. Cendana", "Armada": 1.0, "kelurahan": "Boyaoge" }, "geometry": { "type": "LineString", "coordinates": [ [ 119.855241514884739, -0.908602952863675 ], [ 119.855194706417208, -0.909484589160379 ], [ 119.855103394176695, -0.910402122681623 ], [ 119.855050748238838, -0.91140927961996 ], [ 119.855204153949401, -0.911529174122328 ], [ 119.855172494288297, -0.912041423391898 ], [ 119.855091824675895, -0.912146682053286 ], [ 119.85508288085795, -0.912851968485202 ], [ 119.854997799041854, -0.913385179894514 ], [ 119.855009727297443, -0.913452112115533 ], [ 119.854949221471799, -0.913928483109566 ] ] } },
{ "type": "Feature", "properties": { "Id": 0, "Nama_Jalan": "Jl. Anggur I", "Armada": 1.0, "kelurahan": "Boyaoge" }, "geometry": { "type": "LineString", "coordinates": [ [ 119.852970449877262, -0.910704711084877 ], [ 119.854007987952414, -0.91082867457115 ], [ 119.854375010762766, -0.910921622137385 ], [ 119.854457001739064, -0.910986107735733 ], [ 119.85507214398443, -0.910999960729469 ] ] } },
{ "type": "Feature", "properties": { "Id": 0, "Nama_Jalan": "Jl. Anggur III", "Armada": 1.0, "kelurahan": "Boyaoge" }, "geometry": { "type": "LineString", "coordinates": [ [ 119.852748457870263, -0.912707598631086 ], [ 119.853519075430185, -0.912784723019604 ], [ 119.854323678179995, -0.912840860801783 ], [ 119.85438605887957, -0.912885040328532 ], [ 119.854376754813913, -0.913133688753977 ], [ 119.854366378453577, -0.913227415579661 ], [ 119.854362730848379, -0.913420593419187 ], [ 119.854336249290185, -0.913571711826363 ], [ 119.854327869318809, -0.913888815494214 ] ] } },
{ "type": "Feature", "properties": { "Id": 0, "Nama_Jalan": "Jl. Buah Pala III", "Armada": 1.0, "kelurahan": "Boyaoge" }, "geometry": { "type": "LineString", "coordinates": [ [ 119.856515529218356, -0.907112960861214 ], [ 119.856244707459254, -0.907031889857182 ], [ 119.855238951575728, -0.906991818707315 ] ] } },
{ "type": "Feature", "properties": { "Id": 0, "Nama_Jalan": "Jl. Buah Pala II", "Armada": 1.0, "kelurahan": "Boyaoge" }, "geometry": { "type": "LineString", "coordinates": [ [ 119.855713412413792, -0.907010704489104 ], [ 119.85569453505741, -0.907502592859228 ], [ 119.855243250715617, -0.907476653186154 ] ] } },
{ "type": "Feature", "properties": { "Id": 0, "Nama_Jalan": "Jl. Buah Pala", "Armada": 1.0, "kelurahan": "Boyaoge" }, "geometry": { "type": "LineString", "coordinates": [ [ 119.855681002697693, -0.905540613262981 ], [ 119.855606116991922, -0.905602958889779 ], [ 119.855567952748842, -0.905848276343259 ], [ 119.855494439807089, -0.905994172060192 ], [ 119.855461565422559, -0.906474744236668 ], [ 119.855444973658066, -0.906517791393512 ], [ 119.855392740825664, -0.906541740651098 ], [ 119.855292987811566, -0.906541819889864 ], [ 119.855259770541181, -0.90658488025996 ], [ 119.855236085423584, -0.906668576268538 ], [ 119.855243250715617, -0.907476653186154 ], [ 119.855220925354374, -0.908535785144506 ] ] } },
{ "type": "Feature", "properties": { "Id": 0, "Nama_Jalan": "Jl. Delima", "Armada": 1.0, "kelurahan": "Boyaoge" }, "geometry": { "type": "LineString", "coordinates": [ [ 119.854088788614447, -0.908917059212586 ], [ 119.854154655512389, -0.908408295039028 ], [ 119.85422286509133, -0.908162946833938 ], [ 119.854240354466512, -0.908053148348226 ], [ 119.854234400311384, -0.907731832324675 ], [ 119.854243660823784, -0.907423892675417 ], [ 119.854265275253695, -0.907122637342081 ], [ 119.854278405689442, -0.906299720785495 ], [ 119.854291634181067, -0.906207904372366 ], [ 119.854274123299248, -0.905987249370926 ], [ 119.854252579141857, -0.905772096354075 ], [ 119.854282744109526, -0.904863576409128 ] ] } },
{ "type": "Feature", "properties": { "Id": 0, "Nama_Jalan": "Jl. Jamur Lrg. II", "Armada": 1.0, "kelurahan": "Boyaoge" }, "geometry": { "type": "LineString", "coordinates": [ [ 119.85191712302894, -0.90632717761808 ], [ 119.85276977223775, -0.906321719625156 ], [ 119.852819725614822, -0.906419702053129 ], [ 119.85387195539019, -0.906509716546592 ] ] } },
{ "type": "Feature", "properties": { "Id": 0, "Nama_Jalan": "Jl. Jamur Lrg. III", "Armada": 1.0, "kelurahan": "Boyaoge" }, "geometry": { "type": "LineString", "coordinates": [ [ 119.85193902765289, -0.907002556686983 ], [ 119.852865327816517, -0.907026924476863 ], [ 119.853507823041042, -0.9070736321409 ], [ 119.853775054196035, -0.907118246993679 ], [ 119.854247903754199, -0.907154952982774 ] ] } },
{ "type": "Feature", "properties": { "Id": 0, "Nama_Jalan": "Jl. Cempedak", "Armada": 1.0, "kelurahan": "Boyaoge" }, "geometry": { "type": "LineString", "coordinates": [ [ 119.856937089810572, -0.905883289933623 ], [ 119.855814658917865, -0.905615218938175 ], [ 119.855740421587385, -0.905594358567965 ], [ 119.855681002697693, -0.905540613262981 ], [ 119.855672044694742, -0.905474874029798 ], [ 119.855704460897471, -0.905167035896608 ], [ 119.85568660810047, -0.905116246067319 ], [ 119.855653925153163, -0.905083398819618 ], [ 119.855596667740443, -0.90505967594007 ], [ 119.855412999980132, -0.905034999999893 ] ] } },
{ "type": "Feature", "properties": { "Id": 0, "Nama_Jalan": "Lrg. Sukun", "Armada": 1.0, "kelurahan": "Boyaoge" }, "geometry": { "type": "LineString", "coordinates": [ [ 119.854969550000092, -0.904575182999956 ], [ 119.855306676911383, -0.904682547688882 ], [ 119.855451575850751, -0.904707535976667 ], [ 119.856338519172581, -0.904640422985227 ], [ 119.856492414616895, -0.904628825231886 ] ] } },
{ "type": "Feature", "properties": { "Id": 0, "Nama_Jalan": "BTN Bayaoge Indah", "Armada": 2.0, "kelurahan": "Boyaoge" }, "geometry": { "type": "MultiLineString", "coordinates": [ [ [ 119.859058157765858, -0.915545047794215 ], [ 119.858695459656801, -0.91549678565706 ] ], [ [ 119.858695459656801, -0.91549678565706 ], [ 119.858688387506191, -0.915563732887107 ], [ 119.858208566281334, -0.915492395124715 ] ], [ [ 119.858695459656801, -0.91549678565706 ], [ 119.858730843195573, -0.915190738735089 ], [ 119.858265291427742, -0.91514329707555 ] ] ] } },
{ "type": "Feature", "properties": { "Id": 0, "Nama_Jalan": "Lrg. Vegata", "Armada": 2.0, "kelurahan": "Boyaoge" }, "geometry": { "type": "LineString", "coordinates": [ [ 119.858917078839553, -0.913428592318494 ], [ 119.859357623018369, -0.913448314033658 ] ] } },
{ "type": "Feature", "properties": { "Id": 0, "Nama_Jalan": "Lrg. Tunas Harapan", "Armada": 2.0, "kelurahan": "Boyaoge" }, "geometry": { "type": "MultiLineString", "coordinates": [ [ [ 119.856809427389862, -0.912220121893816 ], [ 119.856797388154263, -0.912298273022024 ], [ 119.856836598552178, -0.912325735557336 ], [ 119.856960124959713, -0.912354326034094 ], [ 119.857223770211831, -0.912369655158769 ] ], [ [ 119.856809427389862, -0.912220121893816 ], [ 119.856834014975448, -0.912061557144343 ], [ 119.856855377419151, -0.912044804648126 ], [ 119.856892190094499, -0.912043579825992 ] ], [ [ 119.856202177548994, -0.91219912981069 ], [ 119.856584251256933, -0.912195916072222 ], [ 119.856809427389862, -0.912220121893816 ] ] ] } },
{ "type": "Feature", "properties": { "Id": 0, "Nama_Jalan": "Lrg. Galara", "Armada": 2.0, "kelurahan": "Boyaoge" }, "geometry": { "type": "LineString", "coordinates": [ [ 119.856184864011922, -0.910834713018926 ], [ 119.856708005640641, -0.910857192951863 ], [ 119.857029152981255, -0.910904751960904 ], [ 119.85707049959656, -0.9101617792883 ], [ 119.857085969481076, -0.909900694524815 ], [ 119.857316531875867, -0.909904914231021 ] ] } },
{ "type": "Feature", "properties": { "Id": 0, "Nama_Jalan": "Jl. Delima II", "Armada": 1.0, "kelurahan": "Boyaoge" }, "geometry": { "type": "LineString", "coordinates": [ [ 119.854241514346455, -0.90748541133551 ], [ 119.854708338836005, -0.907500972548371 ], [ 119.854749639231699, -0.907467946977648 ], [ 119.854759320854598, -0.907093543451627 ], [ 119.854805051874962, -0.90604682455648 ], [ 119.854811924299682, -0.905724064089233 ], [ 119.854808927072838, -0.905536151326397 ], [ 119.854941408924617, -0.905475798627898 ], [ 119.855041142847725, -0.905451333577782 ], [ 119.85535464889702, -0.905446781458343 ], [ 119.855673923185279, -0.905457035059734 ] ] } },
{ "type": "Feature", "properties": { "Id": 0, "Nama_Jalan": "Lrg. Cendana I", "Armada": 1.0, "kelurahan": "Boyaoge" }, "geometry": { "type": "LineString", "coordinates": [ [ 119.855199137529851, -0.90940112874111 ], [ 119.854648378975739, -0.909424169102849 ] ] } },
{ "type": "Feature", "properties": { "Id": 0, "Nama_Jalan": "Lrg. Cendana II", "Armada": 1.0, "kelurahan": "Boyaoge" }, "geometry": { "type": "LineString", "coordinates": [ [ 119.855194706417208, -0.909484589160379 ], [ 119.855832668658991, -0.909522203520642 ] ] } },
{ "type": "Feature", "properties": { "Id": 0, "Nama_Jalan": "Lrg. Cendana III", "Armada": 1.0, "kelurahan": "Boyaoge" }, "geometry": { "type": "LineString", "coordinates": [ [ 119.85509297300321, -0.910601486386659 ], [ 119.854665922036233, -0.910590376699481 ], [ 119.854686652573903, -0.910374233823744 ] ] } },
{ "type": "Feature", "properties": { "Id": 0, "Nama_Jalan": "Lrg. Cendana IV", "Armada": 1.0, "kelurahan": "Boyaoge" }, "geometry": { "type": "LineString", "coordinates": [ [ 119.855088780428801, -0.910681693193018 ], [ 119.855623633545008, -0.910692894127018 ] ] } },
{ "type": "Feature", "properties": { "Id": 0, "Nama_Jalan": "Lrg. Anggur", "Armada": 1.0, "kelurahan": "Boyaoge" }, "geometry": { "type": "LineString", "coordinates": [ [ 119.854022099025073, -0.910832248164751 ], [ 119.85400472808044, -0.910948462506293 ], [ 119.853957020921996, -0.91189345620616 ], [ 119.853942470706841, -0.912115810331941 ], [ 119.853892829209329, -0.912810800149678 ] ] } },
{ "type": "Feature", "properties": { "Id": 0, "Nama_Jalan": "Lrg. Cendana V", "Armada": 1.0, "kelurahan": "Boyaoge" }, "geometry": { "type": "LineString", "coordinates": [ [ 119.85506366688486, -0.911162134564675 ], [ 119.855478673532687, -0.911199016285734 ] ] } },
{ "type": "Feature", "properties": { "Id": 0, "Nama_Jalan": "Lrg. Cendana VI", "Armada": 1.0, "kelurahan": "Boyaoge" }, "geometry": { "type": "LineString", "coordinates": [ [ 119.855050748238838, -0.91140927961996 ], [ 119.854521918721474, -0.911406821506465 ], [ 119.854499627531922, -0.912053305799696 ] ] } },
{ "type": "Feature", "properties": { "Id": 0, "Nama_Jalan": "Lapangan Galara", "Armada": 1.0, "kelurahan": "Boyaoge" }, "geometry": { "type": "LineString", "coordinates": [ [ 119.85350102191876, -0.915306024614506 ], [ 119.853482561053866, -0.915550670609509 ], [ 119.852651788905717, -0.915441241032629 ], [ 119.852614731934878, -0.915434098382326 ], [ 119.852577664752829, -0.915414045514128 ], [ 119.852556253835672, -0.915369594117191 ], [ 119.852556349133337, -0.915001981347321 ], [ 119.852620990467656, -0.914149615656951 ], [ 119.852671936217746, -0.913698673351856 ], [ 119.852699339056102, -0.913668254172292 ] ] } },
{ "type": "Feature", "properties": { "Id": 0, "Nama_Jalan": "Lrg. Cendana VII", "Armada": 1.0, "kelurahan": "Boyaoge" }, "geometry": { "type": "LineString", "coordinates": [ [ 119.855112219585124, -0.912120070534144 ], [ 119.854791097705359, -0.912115441784702 ], [ 119.854780655004546, -0.912426251252222 ] ] } },
{ "type": "Feature", "properties": { "Id": 0, "Nama_Jalan": "Lrg. Ayam Potong", "Armada": 1.0, "kelurahan": "Boyaoge" }, "geometry": { "type": "LineString", "coordinates": [ [ 119.852699339056102, -0.913668254172292 ], [ 119.852485286276234, -0.913632725246922 ], [ 119.852443989280331, -0.913670054485156 ], [ 119.85243267833674, -0.913783386634622 ], [ 119.852395657622736, -0.913822146928509 ], [ 119.852360039309161, -0.913832216707631 ], [ 119.852113012560906, -0.913809462774256 ], [ 119.851413619024299, -0.913732965452593 ] ] } },
{ "type": "Feature", "properties": { "Id": 0, "Nama_Jalan": "Lrg. Lapangan Galara", "Armada": 1.0, "kelurahan": "Boyaoge" }, "geometry": { "type": "LineString", "coordinates": [ [ 119.853686510811002, -0.916328128716938 ], [ 119.853401465011075, -0.916282932608497 ], [ 119.853057053435478, -0.916252128766801 ] ] } },
{ "type": "Feature", "properties": { "Id": 0, "Nama_Jalan": "Jl. Lapangan Galara", "Armada": 1.0, "kelurahan": "Boyaoge" }, "geometry": { "type": "LineString", "coordinates": [ [ 119.853482561053866, -0.915550670609509 ], [ 119.853430056492201, -0.91628746599973 ], [ 119.853372490447455, -0.916884476298326 ], [ 119.853371573906813, -0.916926746038202 ], [ 119.853428678196977, -0.917055802344454 ], [ 119.853421156756781, -0.917155264860045 ] ] } },
{ "type": "Feature", "properties": { "Id": 0, "Nama_Jalan": "Lrg. Angsana", "Armada": 1.0, "kelurahan": "Boyaoge" }, "geometry": { "type": "LineString", "coordinates": [ [ 119.853533378921128, -0.909179212308802 ], [ 119.853479716480592, -0.909801814305548 ], [ 119.853741950979654, -0.909834598142789 ], [ 119.853712345426473, -0.910242010665779 ], [ 119.853641114962542, -0.910784841187449 ] ] } },
{ "type": "Feature", "properties": { "Id": 0, "Nama_Jalan": "Lrg. Anggur", "Armada": 1.0, "kelurahan": "Boyaoge" }, "geometry": { "type": "LineString", "coordinates": [ [ 119.852870727135027, -0.911414891704924 ], [ 119.853469717542609, -0.911452704926142 ] ] } },
{ "type": "Feature", "properties": { "Id": 0, "Nama_Jalan": "Lrg. Sayur", "Armada": 1.0, "kelurahan": "Boyaoge" }, "geometry": { "type": "LineString", "coordinates": [ [ 119.852896943433862, -0.911110179647166 ], [ 119.853440980299837, -0.911152684886245 ] ] } },
{ "type": "Feature", "properties": { "Id": 0, "Nama_Jalan": "Lrg. Loakan", "Armada": 1.0, "kelurahan": "Boyaoge" }, "geometry": { "type": "LineString", "coordinates": [ [ 119.853231164698613, -0.912755908572314 ], [ 119.853282146660931, -0.912229898487656 ], [ 119.852800579563379, -0.912196462525154 ] ] } },
{ "type": "Feature", "properties": { "Id": 0, "Nama_Jalan": "Lrg. Delima", "Armada": 1.0, "kelurahan": "Boyaoge" }, "geometry": { "type": "LineString", "coordinates": [ [ 119.854255523745707, -0.905801502978764 ], [ 119.853857968418069, -0.905936713581704 ], [ 119.853257056079954, -0.905913760644149 ], [ 119.852828443337629, -0.905939606955251 ] ] } },
{ "type": "Feature", "properties": { "Id": 0, "Nama_Jalan": "Jl. Delima I", "Armada": 1.0, "kelurahan": "Boyaoge" }, "geometry": { "type": "LineString", "coordinates": [ [ 119.854234400311384, -0.907731832324675 ], [ 119.853942108458355, -0.907723880681014 ], [ 119.853547818671288, -0.90768952780036 ], [ 119.852797265269444, -0.907653067180514 ] ] } },
{ "type": "Feature", "properties": { "Id": 0, "Nama_Jalan": "Lrg. Delima", "Armada": 1.0, "kelurahan": "Boyaoge" }, "geometry": { "type": "LineString", "coordinates": [ [ 119.854274123299248, -0.905987249370926 ], [ 119.854805392295205, -0.906030836769564 ] ] } },
{ "type": "Feature", "properties": { "Id": 0, "Nama_Jalan": "Lrg. Ps. Harimau", "Armada": 1.0, "kelurahan": "Boyaoge" }, "geometry": { "type": "LineString", "coordinates": [ [ 119.855040707895469, -0.917482193412629 ], [ 119.854485576671379, -0.917393303426348 ], [ 119.854084132043766, -0.917323098021287 ], [ 119.854090042260154, -0.917288426973427 ], [ 119.854059151036566, -0.917269325556981 ], [ 119.853448681028638, -0.91717657550299 ], [ 119.853421156756781, -0.917155264860045 ], [ 119.85301874835416, -0.917123128185418 ] ] } },
{ "type": "Feature", "properties": { "Id": 0, "Nama_Jalan": "Lrg. Buah Pala I", "Armada": 1.0, "kelurahan": "Boyaoge" }, "geometry": { "type": "LineString", "coordinates": [ [ 119.855231256283091, -0.908045672456602 ], [ 119.854787541102397, -0.908063163961368 ] ] } },
{ "type": "Feature", "properties": { "Id": 0, "Nama_Jalan": "Jl. Agatis", "Armada": 2.0, "kelurahan": "Boyaoge" }, "geometry": { "type": "LineString", "coordinates": [ [ 119.859474408058603, -0.912588689013627 ], [ 119.859262833657866, -0.914146037662604 ], [ 119.859115834897977, -0.915218415358561 ], [ 119.859044901177299, -0.915620121494114 ], [ 119.858931441994002, -0.916306363380866 ], [ 119.85884635875081, -0.916834791796421 ], [ 119.858699373557954, -0.917701691033062 ] ] } },
{ "type": "Feature", "properties": { "Id": 0, "Nama_Jalan": "Lrg. Kenari", "Armada": 2.0, "kelurahan": "Boyaoge" }, "geometry": { "type": "LineString", "coordinates": [ [ 119.856258431663775, -0.913435397902492 ], [ 119.856911558032294, -0.913410967186273 ], [ 119.857712867483343, -0.913501318074705 ] ] } },
{ "type": "Feature", "properties": { "Id": 0, "Nama_Jalan": "Jl. Lekatu Lrg Buntu", "Armada": 2.0, "kelurahan": "Boyaoge" }, "geometry": { "type": "LineString", "coordinates": [ [ 119.857699583800795, -0.917635709032009 ], [ 119.857751918523547, -0.91697477387343 ], [ 119.857813735479155, -0.916308296614019 ], [ 119.857942770701101, -0.915945632465446 ] ] } },
{ "type": "Feature", "properties": { "Id": 0, "Nama_Jalan": "Agatis Lrg. I", "Armada": 2.0, "kelurahan": "Boyaoge" }, "geometry": { "type": "LineString", "coordinates": [ [ 119.859002452306598, -0.915876867243237 ], [ 119.858539444379332, -0.915815347784818 ], [ 119.85815748283585, -0.915752538273754 ] ] } },
{ "type": "Feature", "properties": { "Id": 0, "Nama_Jalan": "Agatis Lrg. II", "Armada": 2.0, "kelurahan": "Boyaoge" }, "geometry": { "type": "LineString", "coordinates": [ [ 119.858315907145524, -0.916060820407194 ], [ 119.858963914271484, -0.916109959153567 ] ] } },
{ "type": "Feature", "properties": { "Id": 0, "Nama_Jalan": "Bakuku Lrg. I", "Armada": 2.0, "kelurahan": "Boyaoge" }, "geometry": { "type": "LineString", "coordinates": [ [ 119.85867531135338, -0.905368683648537 ], [ 119.858056040584557, -0.905241713614943 ], [ 119.857985775979316, -0.905895406253972 ], [ 119.857932279100055, -0.906124484651256 ], [ 119.857484828932826, -0.9061406193115 ], [ 119.857504582665555, -0.905889572531529 ], [ 119.857497419230157, -0.905840806468275 ], [ 119.857451796580989, -0.905813587903013 ], [ 119.857068415747747, -0.905756513846244 ] ] } },
{ "type": "Feature", "properties": { "Id": 0, "Nama_Jalan": "Bakuku Lrg. III", "Armada": 2.0, "kelurahan": "Boyaoge" }, "geometry": { "type": "LineString", "coordinates": [ [ 119.858693517559061, -0.905300058288256 ], [ 119.859128248745691, -0.905373788905597 ] ] } },
{ "type": "Feature", "properties": { "Id": 0, "Nama_Jalan": "Jl. Sungai Tanamea", "Armada": 2.0, "kelurahan": "Boyaoge" }, "geometry": { "type": "LineString", "coordinates": [ [ 119.860022618783645, -0.904669541019207 ], [ 119.859798749533454, -0.905662929248021 ], [ 119.859630432648089, -0.906451671677219 ], [ 119.859607904758064, -0.906696082148234 ], [ 119.859610164334839, -0.906832577172629 ], [ 119.85962453526885, -0.906986053027274 ], [ 119.85966147832994, -0.907124107751651 ], [ 119.85969310387263, -0.907198298615849 ], [ 119.859752997165785, -0.907251325970495 ], [ 119.859907044720643, -0.907276972224327 ], [ 119.860524341011754, -0.907350530560107 ], [ 119.860604037813886, -0.90739770805769 ], [ 119.860637584821106, -0.907472273223099 ], [ 119.860638316792972, -0.907551473061475 ], [ 119.860520144310897, -0.908472628957864 ] ] } },
{ "type": "Feature", "properties": { "Id": 0, "Nama_Jalan": "Lengaru Lrg. I", "Armada": 2.0, "kelurahan": "Boyaoge" }, "geometry": { "type": "LineString", "coordinates": [ [ 119.857335499449476, -0.909337198835666 ], [ 119.857337643682541, -0.909117058142347 ], [ 119.857383005799946, -0.908812915725296 ], [ 119.857362955384843, -0.908685981684043 ] ] } },
{ "type": "Feature", "properties": { "Id": 0, "Nama_Jalan": "Lengaru Lrg. II", "Armada": 2.0, "kelurahan": "Boyaoge" }, "geometry": { "type": "LineString", "coordinates": [ [ 119.857335499449476, -0.909337198835666 ], [ 119.857322197580459, -0.909559443074129 ], [ 119.857316531875867, -0.909904914231021 ] ] } },
{ "type": "Feature", "properties": { "Id": 0, "Nama_Jalan": "Lengaru Lrg. III", "Armada": 2.0, "kelurahan": "Boyaoge" }, "geometry": { "type": "LineString", "coordinates": [ [ 119.857689086855572, -0.909353478955266 ], [ 119.857704458618784, -0.908796481986473 ], [ 119.85773288422304, -0.908700828462803 ], [ 119.857906145733011, -0.908550071789469 ], [ 119.85791793647256, -0.908442477684208 ] ] } },
{ "type": "Feature", "properties": { "Id": 0, "Nama_Jalan": "Lengaru Lrg. IV", "Armada": 2.0, "kelurahan": "Boyaoge" }, "geometry": { "type": "LineString", "coordinates": [ [ 119.857818181134576, -0.909370573174051 ], [ 119.857799524520132, -0.909601044300706 ], [ 119.857784143876714, -0.909975451402978 ] ] } },
{ "type": "Feature", "properties": { "Id": 0, "Nama_Jalan": "Jl. Ganogo Lrg II (Rumah Witan)", "Armada": 2.0, "kelurahan": "Boyaoge" }, "geometry": { "type": "LineString", "coordinates": [ [ 119.858110426942702, -0.911105316567319 ], [ 119.85848627528776, -0.911205482571247 ], [ 119.858860623709717, -0.911252998715853 ], [ 119.859164650421704, -0.911275707024606 ], [ 119.859392700593745, -0.91133099049855 ], [ 119.859603751342078, -0.911354193123205 ] ] } },
{ "type": "Feature", "properties": { "Id": 0, "Nama_Jalan": "Jl. Ganogo Lrg I", "Armada": 2.0, "kelurahan": "Boyaoge" }, "geometry": { "type": "MultiLineString", "coordinates": [ [ [ 119.858671903359649, -0.91033120745015 ], [ 119.85863736174062, -0.910577121217249 ], [ 119.858614686250036, -0.910735886448733 ] ], [ [ 119.858671903359649, -0.91033120745015 ], [ 119.859083051202035, -0.910348624503412 ], [ 119.85917427033543, -0.910369590407101 ] ], [ [ 119.858352048870088, -0.910317657730641 ], [ 119.858671903359649, -0.91033120745015 ] ] ] } },
{ "type": "Feature", "properties": { "Id": 0, "Nama_Jalan": "Lrg. Buvu Avo", "Armada": 2.0, "kelurahan": "Boyaoge" }, "geometry": { "type": "LineString", "coordinates": [ [ 119.858739191718854, -0.910334057924704 ], [ 119.858778679438103, -0.909887927239318 ], [ 119.858891507963861, -0.908999307768657 ], [ 119.858896391459851, -0.908866974794514 ] ] } },
{ "type": "Feature", "properties": { "Id": 0, "Nama_Jalan": "Lrg. Nur Yahya Kuburan", "Armada": 2.0, "kelurahan": "Boyaoge" }, "geometry": { "type": "LineString", "coordinates": [ [ 119.85917427033543, -0.910369590407101 ], [ 119.859259039867482, -0.909941933746986 ], [ 119.859273495178826, -0.909900561910827 ], [ 119.859322119037515, -0.909818041580639 ], [ 119.859398083461841, -0.909770165570603 ], [ 119.859434767017703, -0.909605173283647 ], [ 119.859365877882794, -0.909589688274858 ] ] } },
{ "type": "Feature", "properties": { "Id": 0, "Nama_Jalan": "Lrg. Masjid Nur Yahya", "Armada": 2.0, "kelurahan": "Boyaoge" }, "geometry": { "type": "LineString", "coordinates": [ [ 119.85917427033543, -0.910369590407101 ], [ 119.859192128287916, -0.91062742054082 ], [ 119.85944270153783, -0.910632001858724 ], [ 119.859698546340624, -0.910670835316411 ] ] } },
{ "type": "Feature", "properties": { "Id": 0, "Nama_Jalan": "Lrg. Ambalat", "Armada": 2.0, "kelurahan": "Boyaoge" }, "geometry": { "type": "MultiLineString", "coordinates": [ [ [ 119.859476626237594, -0.912567517865583 ], [ 119.859085084037787, -0.912539324740174 ], [ 119.858709814749517, -0.912528866717601 ] ], [ [ 119.858709814749517, -0.912528866717601 ], [ 119.858695749467458, -0.912763173404294 ] ], [ [ 119.858709814749517, -0.912528866717601 ], [ 119.858674172664166, -0.912508573707749 ], [ 119.858328570651281, -0.912471554330406 ] ], [ [ 119.858328570651281, -0.912471554330406 ], [ 119.85831602749542, -0.912678485552937 ], [ 119.858307869657693, -0.912874535262686 ] ], [ [ 119.858328570651281, -0.912471554330406 ], [ 119.858348319692084, -0.912163735719971 ] ], [ [ 119.858348319692084, -0.912163735719971 ], [ 119.85864090839307, -0.912191066263015 ] ], [ [ 119.858348319692084, -0.912163735719971 ], [ 119.858350038290226, -0.912136948831859 ] ], [ [ 119.858350038290226, -0.912136948831859 ], [ 119.857794393151011, -0.912101754332736 ] ], [ [ 119.858350038290226, -0.912136948831859 ], [ 119.858403964435496, -0.911550449735224 ], [ 119.858421963765466, -0.911188343142177 ] ] ] } },
{ "type": "Feature", "properties": { "Id": 0, "Nama_Jalan": "Lrg. Vegata II", "Armada": 2.0, "kelurahan": "Boyaoge" }, "geometry": { "type": "LineString", "coordinates": [ [ 119.858441905873462, -0.914206151583239 ], [ 119.858475477446802, -0.91341047636722 ], [ 119.858465739758486, -0.913110203440018 ] ] } }
]
}
