{
"type": "FeatureCollection",
"name": "Buluri",
"crs": { "type": "name", "properties": { "name": "urn:ogc:def:crs:OGC:1.3:CRS84" } },
"features": [
{ "type": "Feature", "properties": { "Id": 0, "Nama_Jalan": "Jl. Malonda", "Armada": null, "kelurahan": "Buluri" }, "geometry": { "type": "LineString", "coordinates": [ [ 119.8246897630641, -0.852281317670658 ], [ 119.824119497377865, -0.850895977444364 ], [ 119.823451532655383, -0.849307754322864 ], [ 119.823208935105029, -0.848843511349484 ], [ 119.823051400267445, -0.848589599967193 ], [ 119.822409442241863, -0.847651664845623 ], [ 119.82221388912312, -0.847374470241675 ], [ 119.822009474432562, -0.847159444049277 ], [ 119.820469448307861, -0.845835445017361 ], [ 119.818859340609976, -0.844488779923916 ], [ 119.818250319313165, -0.843934546528782 ], [ 119.818105320561628, -0.843772074229922 ], [ 119.818031623308372, -0.843676493807172 ], [ 119.817936498441725, -0.843509203346797 ], [ 119.817513152676412, -0.842708575346236 ], [ 119.817425194533328, -0.842598660047072 ], [ 119.81726832383346, -0.842440977792846 ], [ 119.816505415528525, -0.8417486626806 ], [ 119.816136116205215, -0.841460593758357 ], [ 119.815393258832984, -0.840907410609782 ], [ 119.815195524630752, -0.84073349959292 ], [ 119.815130850257816, -0.84063408674934 ], [ 119.814868296496329, -0.840158017792631 ], [ 119.814790313316067, -0.840047138404272 ], [ 119.814681927317295, -0.83993436836736 ], [ 119.81423702526601, -0.839542589611407 ], [ 119.814044959996451, -0.839324682134612 ], [ 119.813989791662777, -0.839232912967429 ], [ 119.813925092785539, -0.839099071498976 ], [ 119.813786228799827, -0.838879212646328 ], [ 119.813687350177062, -0.838775998944104 ], [ 119.813366026803891, -0.838485502505029 ], [ 119.81327474310693, -0.838374632456119 ], [ 119.813198650599134, -0.838250362549938 ], [ 119.813151073154842, -0.838145198914844 ], [ 119.813118692366643, -0.838034286199803 ], [ 119.813111026450727, -0.837942482522114 ], [ 119.813118554458001, -0.837841104392608 ], [ 119.813150786408528, -0.837743533782374 ], [ 119.813209618295062, -0.837644031249628 ], [ 119.813325443399293, -0.837531098672461 ], [ 119.813629313446739, -0.837328133659386 ], [ 119.813786922789276, -0.83719030595164 ], [ 119.814050855346551, -0.836937639983289 ], [ 119.814170477842538, -0.83682087940813 ], [ 119.814214123996749, -0.836742427561198 ], [ 119.814229279708982, -0.836679297828537 ], [ 119.814229222427144, -0.836598964876317 ], [ 119.814200671978, -0.836530128650735 ], [ 119.814145510723321, -0.83644792281121 ], [ 119.814061857660448, -0.836379126375961 ], [ 119.813911674162838, -0.836272124159248 ], [ 119.813675908895306, -0.83605616029846 ], [ 119.813480059183121, -0.835859294445647 ], [ 119.812766987065373, -0.835104295353351 ], [ 119.81269471690068, -0.835010625497507 ], [ 119.812607226961617, -0.834890188894369 ], [ 119.812474077703172, -0.834689452051936 ], [ 119.8123504180639, -0.83447340677673 ], [ 119.812312349608789, -0.834379712211365 ], [ 119.812276650840943, -0.83427836515899 ], [ 119.812131696387496, -0.833507653919889 ], [ 119.812087866652632, -0.833327892221467 ], [ 119.812015505708146, -0.833106071753684 ], [ 119.81193793278257, -0.832902903770449 ], [ 119.811428195462369, -0.831677352162543 ], [ 119.811377609986877, -0.831516004813084 ], [ 119.81128831891661, -0.831199278723295 ], [ 119.811257345048745, -0.831061706418386 ], [ 119.811080676434003, -0.829942667087095 ], [ 119.810714738585332, -0.828861060290683 ], [ 119.810676045973111, -0.828723612910394 ], [ 119.810652174664398, -0.828553280460595 ], [ 119.810607428409398, -0.828251465043653 ], [ 119.810515148340258, -0.82790485472187 ], [ 119.810327773259303, -0.82742980289546 ], [ 119.810282541265323, -0.827281003444758 ], [ 119.810275927982147, -0.827226331999902 ] ] } },
{ "type": "Feature", "properties": { "Id": 0, "Nama_Jalan": "Lrg. Alkhairaat", "Armada": null, "kelurahan": "Buluri" }, "geometry": { "type": "LineString", "coordinates": [ [ 119.824604092605398, -0.852073199725096 ], [ 119.823856538358399, -0.852280477451683 ], [ 119.823395204737338, -0.852419965260336 ], [ 119.82332290261219, -0.85228421872301 ] ] } },
{ "type": "Feature", "properties": { "Id": 0, "Nama_Jalan": "Lrg. Kuburan", "Armada": null, "kelurahan": "Buluri" }, "geometry": { "type": "LineString", "coordinates": [ [ 119.82332290261219, -0.85228421872301 ], [ 119.823234569656933, -0.85231297407963 ], [ 119.823156695515692, -0.852353197768061 ], [ 119.822990531606038, -0.852481469740927 ], [ 119.822845239322746, -0.852569560132926 ], [ 119.822636287925079, -0.852649090515734 ], [ 119.822549233560707, -0.852684406471948 ], [ 119.822543606331479, -0.852631466709216 ], [ 119.822547076642053, -0.852504749331528 ], [ 119.822539892091029, -0.852423465887109 ], [ 119.822500499059885, -0.852143766030447 ], [ 119.822477905083318, -0.852101942906971 ], [ 119.822438698430361, -0.852078063385492 ], [ 119.822379309474499, -0.852062566716994 ], [ 119.822315170304933, -0.852047073551445 ], [ 119.822285464072039, -0.852023187012395 ], [ 119.822202227431021, -0.851875015965306 ] ] } },
{ "type": "Feature", "properties": { "Id": 0, "Nama_Jalan": "Jl. Pantolemba", "Armada": null, "kelurahan": "Buluri" }, "geometry": { "type": "LineString", "coordinates": [ [ 119.824164575318932, -0.851005485005704 ], [ 119.823584238205399, -0.851255484895554 ], [ 119.82302580772604, -0.851522117302957 ], [ 119.822425078589191, -0.851759254147106 ], [ 119.822212981699039, -0.851868194119111 ] ] } },
{ "type": "Feature", "properties": { "Id": 0, "Nama_Jalan": "Lrg. Paud", "Armada": null, "kelurahan": "Buluri" }, "geometry": { "type": "LineString", "coordinates": [ [ 119.822549233560707, -0.852684406471948 ], [ 119.82252975367345, -0.852704995441839 ], [ 119.822522661816791, -0.852750904915507 ], [ 119.822627003137512, -0.853178311000835 ], [ 119.822738418654751, -0.853535420926916 ], [ 119.822844051315329, -0.853779209008019 ], [ 119.822879683134758, -0.853786355189075 ], [ 119.822928129005049, -0.853777712316219 ], [ 119.823044961152306, -0.853746066755063 ] ] } },
{ "type": "Feature", "properties": { "Id": 0, "Nama_Jalan": "Jl. Anggrek", "Armada": null, "kelurahan": "Buluri" }, "geometry": { "type": "LineString", "coordinates": [ [ 119.823470211083901, -0.849352166219043 ], [ 119.822337379198302, -0.850008621854203 ], [ 119.821771886281851, -0.850362883514691 ], [ 119.820033995537685, -0.851310939747823 ], [ 119.819808445249294, -0.851428257621397 ], [ 119.81968501077445, -0.851526373473686 ], [ 119.819573469230505, -0.851648389096433 ], [ 119.818842329498622, -0.852191651487579 ], [ 119.818666670275633, -0.852328059630577 ], [ 119.818398411162491, -0.852505180602177 ] ] } },
{ "type": "Feature", "properties": { "Id": 0, "Nama_Jalan": "Jl. Bente Indah/ Seroja", "Armada": null, "kelurahan": "Buluri" }, "geometry": { "type": "LineString", "coordinates": [ [ 119.819808536285947, -0.845282670678623 ], [ 119.81904059979216, -0.846113957381442 ], [ 119.818560267359416, -0.846653685575174 ], [ 119.818317246830745, -0.846917813857414 ], [ 119.817825517880124, -0.847463289034712 ], [ 119.817481894883201, -0.847869030026809 ] ] } },
{ "type": "Feature", "properties": { "Id": 0, "Nama_Jalan": "Jl. Datulemba", "Armada": null, "kelurahan": "Buluri" }, "geometry": { "type": "LineString", "coordinates": [ [ 119.818841673277575, -0.846337482223884 ], [ 119.818550312541902, -0.846024738902291 ], [ 119.818243687218839, -0.845697894370086 ], [ 119.818195218403815, -0.845674977615772 ], [ 119.818039859264488, -0.845637793901252 ], [ 119.818005645248803, -0.845620604765783 ], [ 119.817992773066749, -0.845556061092611 ], [ 119.817977269241581, -0.845382854978652 ], [ 119.817952474263777, -0.845252810586102 ], [ 119.817944836658967, -0.845201173697525 ], [ 119.817963804432239, -0.845155255415791 ], [ 119.818026445266852, -0.845069138853851 ], [ 119.818054894171752, -0.844996436073356 ], [ 119.818070013499806, -0.844883576673824 ], [ 119.817832228101594, -0.844503126228623 ], [ 119.817638201346739, -0.844201063743113 ], [ 119.817438561695425, -0.843973504321008 ], [ 119.817377204299049, -0.843863091530782 ] ] } },
{ "type": "Feature", "properties": { "Id": 0, "Nama_Jalan": "Lrg. Dahlia", "Armada": null, "kelurahan": "Buluri" }, "geometry": { "type": "LineString", "coordinates": [ [ 119.818365876274086, -0.845828140736885 ], [ 119.818977426481979, -0.845182750435141 ], [ 119.819286913965897, -0.844846395048044 ] ] } },
{ "type": "Feature", "properties": { "Id": 0, "Nama_Jalan": null, "Armada": null, "kelurahan": "Buluri" }, "geometry": { "type": "LineString", "coordinates": [ [ 119.817247363186553, -0.842421956686345 ], [ 119.816893295494268, -0.842735916236442 ], [ 119.816597039381207, -0.842955612807263 ], [ 119.816741088758789, -0.843119042512595 ], [ 119.816858023700036, -0.843229414902598 ], [ 119.817027717081089, -0.843382784230408 ], [ 119.817114706020149, -0.843465922626139 ], [ 119.817184599325003, -0.843556246045018 ], [ 119.817377204299049, -0.843863091530782 ] ] } },
{ "type": "Feature", "properties": { "Id": 0, "Nama_Jalan": "Jl. Uwentumbu", "Armada": null, "kelurahan": "Buluri" }, "geometry": { "type": "LineString", "coordinates": [ [ 119.817481894883201, -0.847869030026809 ], [ 119.817583276568968, -0.848128793920284 ], [ 119.817582149529457, -0.84854050012779 ], [ 119.817583655619686, -0.848652391077283 ], [ 119.81763788092502, -0.848752767228481 ], [ 119.817879112140616, -0.849059388067756 ] ] } },
{ "type": "Feature", "properties": { "Id": 0, "Nama_Jalan": "Al Djufri Resort", "Armada": null, "kelurahan": "Buluri" }, "geometry": { "type": "LineString", "coordinates": [ [ 119.824014809517905, -0.850647061080845 ], [ 119.824426145505228, -0.850465785889565 ], [ 119.824712468823876, -0.850309213808984 ] ] } },
{ "type": "Feature", "properties": { "Id": 0, "Nama_Jalan": "Jl. Buri", "Armada": null, "kelurahan": "Buluri" }, "geometry": { "type": "LineString", "coordinates": [ [ 119.818439539002995, -0.846784899886523 ], [ 119.818131123817437, -0.846482841866914 ], [ 119.817836379335617, -0.846163639348718 ], [ 119.817589166138262, -0.845884568261221 ], [ 119.817598638973806, -0.845846307639013 ], [ 119.818001314068482, -0.845598887371157 ] ] } },
{ "type": "Feature", "properties": { "Id": 0, "Nama_Jalan": "Jl. Lengaru", "Armada": null, "kelurahan": "Buluri" }, "geometry": { "type": "LineString", "coordinates": [ [ 119.818429956196212, -0.846795315016175 ], [ 119.818539003113074, -0.846911940616353 ], [ 119.818668817926692, -0.847096897591851 ], [ 119.819046770654197, -0.847525539638593 ], [ 119.819089590684356, -0.847586737982125 ], [ 119.819118137676014, -0.84764983556097 ], [ 119.819132450625929, -0.847735895761097 ], [ 119.819145339555263, -0.847823391515108 ], [ 119.819117115521223, -0.847878354011919 ], [ 119.818851254127168, -0.848087031420977 ], [ 119.81874303356355, -0.848203784462939 ], [ 119.818657650072922, -0.848370250522119 ], [ 119.818623496956505, -0.848437219488514 ], [ 119.818257030499467, -0.848783684139394 ], [ 119.817879112140616, -0.849059388067756 ] ] } }
]
}
