{
"type": "FeatureCollection",
"name": "Donggala Kodi",
"crs": { "type": "name", "properties": { "name": "urn:ogc:def:crs:OGC:1.3:CRS84" } },
"features": [
{ "type": "Feature", "properties": { "Id": 0, "Nama_Jalan": "Jl. Manggis II", "Armada": null, "kelurahan": "Donggala Kodi" }, "geometry": { "type": "LineString", "coordinates": [ [ 119.842912338211349, -0.901855567878305 ], [ 119.842225466233785, -0.901863280655735 ], [ 119.841507199137155, -0.901815073147896 ], [ 119.840978540174461, -0.901864261291661 ], [ 119.840780456938489, -0.901864417033237 ], [ 119.840600887200623, -0.901848778879194 ], [ 119.840341491827999, -0.901804513762917 ], [ 119.840069295341266, -0.901791817343478 ], [ 119.839923944751732, -0.901799104006587 ], [ 119.839607629135628, -0.901861035481101 ] ] } },
{ "type": "Feature", "properties": { "Id": 0, "Nama_Jalan": "Jl. Pipa Air", "Armada": null, "kelurahan": "Donggala Kodi" }, "geometry": { "type": "LineString", "coordinates": [ [ 119.847454542811136, -0.898274576190831 ], [ 119.847013769494922, -0.898300670273584 ], [ 119.846481800791736, -0.898365878294401 ], [ 119.846379704539785, -0.898407797334581 ], [ 119.84627640499663, -0.898429395559453 ], [ 119.846150532872542, -0.89843905751833 ], [ 119.845892846237277, -0.898452409100594 ], [ 119.845834667733143, -0.89846679953035 ], [ 119.845675585075625, -0.898529085074227 ], [ 119.845357346559936, -0.898559219740902 ], [ 119.845012981982947, -0.898589374893024 ], [ 119.844669806692906, -0.898621919896678 ], [ 119.844234012052979, -0.898666491536652 ], [ 119.843631968281642, -0.898720756748681 ], [ 119.843433662042273, -0.898738843280508 ], [ 119.843046547974524, -0.89877261807955 ], [ 119.842470630503058, -0.898828058123516 ], [ 119.841980206885736, -0.89887147708575 ], [ 119.841461295772376, -0.898932849391739 ], [ 119.840853274439823, -0.898988792662054 ], [ 119.840678006694873, -0.899007578318527 ], [ 119.840468527529595, -0.899013480419732 ], [ 119.840290371888273, -0.89898349584198 ] ] } },
{ "type": "Feature", "properties": { "Id": 0, "Nama_Jalan": "Jl. Kedondong III", "Armada": null, "kelurahan": "Donggala Kodi" }, "geometry": { "type": "LineString", "coordinates": [ [ 119.842854335613467, -0.896816410619624 ], [ 119.842832555110149, -0.89729189860405 ], [ 119.842759002484925, -0.898003937352924 ], [ 119.842722803236313, -0.898491689564381 ], [ 119.842711345638619, -0.898804885961204 ] ] } },
{ "type": "Feature", "properties": { "Id": 0, "Nama_Jalan": "Jl. Kedondong II", "Armada": null, "kelurahan": "Donggala Kodi" }, "geometry": { "type": "LineString", "coordinates": [ [ 119.842551662844812, -0.896845805853269 ], [ 119.842418257675277, -0.896802406952529 ], [ 119.842032014455825, -0.896733853898805 ], [ 119.841404956511468, -0.896691309752711 ], [ 119.840423087672747, -0.896686339383965 ], [ 119.840149467689244, -0.896675077355047 ], [ 119.83961363242706, -0.896658282251344 ], [ 119.839486818778255, -0.896679898625517 ], [ 119.839350050716874, -0.89672877801443 ], [ 119.838515240043748, -0.897085183017176 ], [ 119.838122074877589, -0.8972820150373 ], [ 119.838091510119909, -0.897302397544931 ] ] } },
{ "type": "Feature", "properties": { "Id": 0, "Nama_Jalan": "Jl. Kedondong", "Armada": null, "kelurahan": "Donggala Kodi" }, "geometry": { "type": "LineString", "coordinates": [ [ 119.84641314467126, -0.896839003523624 ], [ 119.84546027296517, -0.896788669758524 ], [ 119.845213046718655, -0.89681504258693 ], [ 119.843761402896874, -0.896829089313745 ], [ 119.842854335613467, -0.896816410619624 ], [ 119.842640829572403, -0.896822793746683 ], [ 119.842512600078422, -0.896855887153256 ], [ 119.84241859072749, -0.896913339990601 ], [ 119.84230607890629, -0.897000931442221 ], [ 119.841161661532453, -0.898106140156979 ], [ 119.840658545793801, -0.898630120927837 ], [ 119.840481974966991, -0.898806700863268 ], [ 119.84037563418164, -0.898889027974611 ], [ 119.840312977444086, -0.898948369110111 ], [ 119.84023699944737, -0.89898094363541 ], [ 119.839264678484113, -0.899192576152952 ] ] } },
{ "type": "Feature", "properties": { "Id": 0, "Nama_Jalan": "Jl. Tamako", "Armada": null, "kelurahan": "Donggala Kodi" }, "geometry": { "type": "LineString", "coordinates": [ [ 119.842854335613467, -0.896816410619624 ], [ 119.842870534881214, -0.896128085787051 ], [ 119.842925667973589, -0.895244282427321 ], [ 119.842972550850078, -0.894440936097525 ], [ 119.842973684610428, -0.894132330493799 ] ] } },
{ "type": "Feature", "properties": { "Id": 0, "Nama_Jalan": "Jl. Asam III", "Armada": null, "kelurahan": "Donggala Kodi" }, "geometry": { "type": "LineString", "coordinates": [ [ 119.842973684610428, -0.894132330493799 ], [ 119.841375295212686, -0.894173100401408 ], [ 119.840770692774669, -0.894184638233884 ], [ 119.840410152342102, -0.894183484779763 ], [ 119.840132292700631, -0.894218128982966 ], [ 119.839744010327195, -0.894277962734666 ], [ 119.83965923483504, -0.894298111601712 ], [ 119.839090047640198, -0.894459217618942 ], [ 119.839011683204532, -0.894477209769603 ], [ 119.838842129336882, -0.894513921310814 ], [ 119.838334835268299, -0.89454946154 ], [ 119.83796792703788, -0.89460784416416 ], [ 119.837596741845516, -0.894664078388005 ], [ 119.837319599519432, -0.894705894461557 ], [ 119.8371101458753, -0.894745506071537 ] ] } },
{ "type": "Feature", "properties": { "Id": 0, "Nama_Jalan": "Jl. Munif Rahman", "Armada": null, "kelurahan": "Donggala Kodi" }, "geometry": { "type": "LineString", "coordinates": [ [ 119.839264678484113, -0.899192576152952 ], [ 119.839009229001817, -0.898722264688881 ], [ 119.838595326559499, -0.897900508108111 ], [ 119.838500224717691, -0.897773869455296 ], [ 119.837808454244183, -0.896975878677079 ], [ 119.837145533045373, -0.896065989490149 ], [ 119.836384713641564, -0.895044508948857 ] ] } },
{ "type": "Feature", "properties": { "Id": 0, "Nama_Jalan": "Lorong Langsat", "Armada": null, "kelurahan": "Donggala Kodi" }, "geometry": { "type": "LineString", "coordinates": [ [ 119.848521553373089, -0.898149587274038 ], [ 119.84852233536698, -0.898698017672797 ], [ 119.849883987554364, -0.898702300581848 ] ] } },
{ "type": "Feature", "properties": { "Id": 0, "Nama_Jalan": "Lorong Tolambu", "Armada": null, "kelurahan": "Donggala Kodi" }, "geometry": { "type": "LineString", "coordinates": [ [ 119.847499219766306, -0.899171680336903 ], [ 119.848885629743407, -0.899113809463312 ], [ 119.849917701518464, -0.899146926308413 ] ] } },
{ "type": "Feature", "properties": { "Id": 0, "Nama_Jalan": "Jl. Sultan Alaudin", "Armada": null, "kelurahan": "Donggala Kodi" }, "geometry": { "type": "LineString", "coordinates": [ [ 119.839360441756995, -0.900186390253655 ], [ 119.838750492393217, -0.900156744397959 ], [ 119.838402769629781, -0.900146975642317 ], [ 119.838250292461723, -0.900152833140501 ], [ 119.838070749082789, -0.900171622242789 ], [ 119.83782994464076, -0.900211976687869 ], [ 119.837660389948155, -0.900247971813763 ], [ 119.837468027563816, -0.900275377890963 ], [ 119.837309856671638, -0.900289846766632 ], [ 119.837121750549983, -0.90029286319271 ], [ 119.836684261578881, -0.900300378532064 ] ] } },
{ "type": "Feature", "properties": { "Id": 0, "Nama_Jalan": "BTN Palu Permai", "Armada": null, "kelurahan": "Donggala Kodi" }, "geometry": { "type": "LineString", "coordinates": [ [ 119.837487245214419, -0.902001337132368 ], [ 119.837473759058724, -0.901154463792732 ], [ 119.837448834758476, -0.900277133576542 ] ] } },
{ "type": "Feature", "properties": { "Id": 0, "Nama_Jalan": "BTN Palu Permai", "Armada": null, "kelurahan": "Donggala Kodi" }, "geometry": { "type": "LineString", "coordinates": [ [ 119.837191173779445, -0.900291749939008 ], [ 119.837212922930902, -0.901218503207612 ], [ 119.837232728986152, -0.902011460547802 ] ] } },
{ "type": "Feature", "properties": { "Id": 0, "Nama_Jalan": "BTN Palu Permai", "Armada": null, "kelurahan": "Donggala Kodi" }, "geometry": { "type": "LineString", "coordinates": [ [ 119.836975710401802, -0.902021683478749 ], [ 119.836945580078122, -0.901135751684462 ], [ 119.836910059195588, -0.900296499707451 ] ] } },
{ "type": "Feature", "properties": { "Id": 0, "Nama_Jalan": "BTN Palu Permai", "Armada": null, "kelurahan": "Donggala Kodi" }, "geometry": { "type": "LineString", "coordinates": [ [ 119.837697683025695, -0.900240054787363 ], [ 119.837711486422009, -0.900391261033186 ], [ 119.83772791745811, -0.901060197790296 ], [ 119.837736713378419, -0.901377212766421 ], [ 119.837754017523608, -0.90163971050808 ], [ 119.837755589330854, -0.901829061704332 ], [ 119.837742889408617, -0.90199116883612 ], [ 119.836933477685463, -0.902023363286254 ], [ 119.83670595249842, -0.902036559943261 ], [ 119.836687626686171, -0.901190942806509 ], [ 119.837473759058724, -0.901154463792732 ] ] } },
{ "type": "Feature", "properties": { "Id": 0, "Nama_Jalan": "Lorong Bulou Indah", "Armada": null, "kelurahan": "Donggala Kodi" }, "geometry": { "type": "LineString", "coordinates": [ [ 119.838193016579112, -0.897419490170763 ], [ 119.838023750036243, -0.897533203649044 ], [ 119.837934716911377, -0.897576307880709 ], [ 119.83786941359088, -0.897591899213902 ], [ 119.837342157373513, -0.897613828655731 ], [ 119.836924165848146, -0.897648822139847 ], [ 119.836204498907563, -0.89763623497994 ], [ 119.835264234721762, -0.897689567468974 ], [ 119.83520866991681, -0.897706107517815 ], [ 119.835175437757655, -0.897731237072443 ], [ 119.835158846097201, -0.897775480182319 ], [ 119.835256601607512, -0.898263130849284 ], [ 119.83530294319776, -0.898605938025111 ], [ 119.83537208519698, -0.898947771010861 ], [ 119.835466319203817, -0.899488022238198 ], [ 119.835536678598416, -0.899868107255117 ] ] } },
{ "type": "Feature", "properties": { "Id": 0, "Nama_Jalan": "BTN Palu Nagaya", "Armada": null, "kelurahan": "Donggala Kodi" }, "geometry": { "type": "LineString", "coordinates": [ [ 119.834521776750194, -0.899692459271635 ], [ 119.834599951087114, -0.900042832548204 ], [ 119.835534039101404, -0.899853848572343 ] ] } },
{ "type": "Feature", "properties": { "Id": 0, "Nama_Jalan": "BTN Palu Nagaya", "Armada": null, "kelurahan": "Donggala Kodi" }, "geometry": { "type": "LineString", "coordinates": [ [ 119.835363752508584, -0.89890657483993 ], [ 119.834763047431537, -0.899024574257591 ] ] } },
{ "type": "Feature", "properties": { "Id": 0, "Nama_Jalan": "BTN Palu Nagaya", "Armada": null, "kelurahan": "Donggala Kodi" }, "geometry": { "type": "LineString", "coordinates": [ [ 119.834817809646538, -0.899315576159308 ], [ 119.834763047431537, -0.899024574257574 ], [ 119.834692277975449, -0.899036045769152 ], [ 119.834660198309123, -0.899015748887662 ], [ 119.83463452636488, -0.898988872238714 ], [ 119.834531733027575, -0.898744551022759 ], [ 119.834640973319068, -0.898725339060061 ], [ 119.835280971094832, -0.898602906910362 ] ] } },
{ "type": "Feature", "properties": { "Id": 0, "Nama_Jalan": "BTN Palu Nagaya", "Armada": null, "kelurahan": "Donggala Kodi" }, "geometry": { "type": "LineString", "coordinates": [ [ 119.835470995723384, -0.899513285057922 ], [ 119.834521776750194, -0.899692459271635 ], [ 119.834466907358816, -0.899379304742048 ], [ 119.835399007653336, -0.899210022735923 ] ] } },
{ "type": "Feature", "properties": { "Id": 0, "Nama_Jalan": "Jl. Gunung Gawalise", "Armada": null, "kelurahan": "Donggala Kodi" }, "geometry": { "type": "LineString", "coordinates": [ [ 119.839264678484113, -0.899192576152952 ], [ 119.839344806565947, -0.899627327431832 ], [ 119.839386863443849, -0.900263847663487 ], [ 119.839390318343533, -0.900891432610813 ], [ 119.839399933592333, -0.901039655289174 ], [ 119.839426233862113, -0.901264370784408 ], [ 119.839473889703314, -0.901462770584269 ], [ 119.839607629135642, -0.901861035481084 ], [ 119.839933784159314, -0.902885339115185 ], [ 119.839986464980754, -0.903056688999861 ], [ 119.840055859904396, -0.903302475037741 ], [ 119.840103056343395, -0.903520479626489 ], [ 119.840105203400498, -0.903760849651648 ] ] } },
{ "type": "Feature", "properties": { "Id": 0, "Nama_Jalan": "Jl. Cemara (Kompleks Perumahan Cemara)", "Armada": null, "kelurahan": "Donggala Kodi" }, "geometry": { "type": "LineString", "coordinates": [ [ 119.845744766027551, -0.900197105654289 ], [ 119.845829090908566, -0.900208993345983 ], [ 119.845919342372028, -0.900206531595352 ], [ 119.846032155299852, -0.900201661308319 ], [ 119.846415690041866, -0.900147566847148 ], [ 119.846998811213922, -0.900134437094918 ], [ 119.847428362905248, -0.900141550563792 ] ] } },
{ "type": "Feature", "properties": { "Id": 0, "Nama_Jalan": "Jl. Cemara III (Kompleks Perumahan Cemara)", "Armada": null, "kelurahan": "Donggala Kodi" }, "geometry": { "type": "LineString", "coordinates": [ [ 119.846564510095789, -0.900144200489963 ], [ 119.846575314858299, -0.900892701267342 ] ] } },
{ "type": "Feature", "properties": { "Id": 0, "Nama_Jalan": "Jl. Cemara IV (Kompleks Perumahan Cemara)", "Armada": null, "kelurahan": "Donggala Kodi" }, "geometry": { "type": "LineString", "coordinates": [ [ 119.845688455543566, -0.900944844500945 ], [ 119.846173650105158, -0.900939668471723 ], [ 119.846255585968095, -0.90093362700572 ], [ 119.846323266661969, -0.900921619767428 ], [ 119.846396879498002, -0.900902435474534 ], [ 119.846469314997819, -0.900896401483557 ], [ 119.846576027384188, -0.900892700706603 ], [ 119.847008362751808, -0.900893519363987 ] ] } },
{ "type": "Feature", "properties": { "Id": 0, "Nama_Jalan": "Jl. Cemara II (Kompleks Perumahan Cemara)", "Armada": null, "kelurahan": "Donggala Kodi" }, "geometry": { "type": "LineString", "coordinates": [ [ 119.847015848959231, -0.901756283549413 ], [ 119.847007910426726, -0.900841387795426 ], [ 119.846998811213922, -0.900134437094918 ] ] } },
{ "type": "Feature", "properties": { "Id": 0, "Nama_Jalan": "Jl. Cemara VI (Kompleks Perumahan Cemara)", "Armada": null, "kelurahan": "Donggala Kodi" }, "geometry": { "type": "LineString", "coordinates": [ [ 119.845744766027551, -0.900197105654289 ], [ 119.84570387572235, -0.900529737503511 ], [ 119.845688455543566, -0.900944844500945 ], [ 119.845675977227259, -0.901305812154364 ], [ 119.845683149293535, -0.901366054593619 ] ] } },
{ "type": "Feature", "properties": { "Id": 0, "Nama_Jalan": "Jl. Cemara V (Kompleks Perumahan Cemara)", "Armada": null, "kelurahan": "Donggala Kodi" }, "geometry": { "type": "LineString", "coordinates": [ [ 119.845683149293535, -0.901366054593619 ], [ 119.846318718334174, -0.901359816346615 ], [ 119.846478296313876, -0.901323828775659 ], [ 119.847012080514588, -0.901321990281815 ] ] } }
]
}
