{
"type": "FeatureCollection",
"name": "Duyu",
"crs": { "type": "name", "properties": { "name": "urn:ogc:def:crs:OGC:1.3:CRS84" } },
"features": [
{ "type": "Feature", "properties": { "Id": 0, "Nama_Jalan": "Jl. PDAM", "Armada": null, "kelurahan": "Duyu" }, "geometry": { "type": "LineString", "coordinates": [ [ 119.843767219278774, -0.909315499447148 ], [ 119.843751966531514, -0.909552200844377 ], [ 119.843665426233557, -0.909744729024783 ], [ 119.843271065154738, -0.910836204087336 ], [ 119.842906922082975, -0.911693357148449 ], [ 119.842736182076507, -0.912033943299777 ], [ 119.842626552768607, -0.912766572641451 ], [ 119.842594371624415, -0.912919609677825 ], [ 119.842537746562783, -0.913399728101899 ], [ 119.842522642164596, -0.913522149274031 ], [ 119.842501849565664, -0.913659876125001 ], [ 119.842477214688515, -0.913744052043703 ], [ 119.842296998746633, -0.914115248449805 ], [ 119.842291336123949, -0.914163069043588 ], [ 119.84231796588449, -0.914199388029116 ], [ 119.842382592790386, -0.914229938783259 ], [ 119.842648635989022, -0.914269892113015 ] ] } },
{ "type": "Feature", "properties": { "Id": 0, "Nama_Jalan": "BTN Sogo", "Armada": null, "kelurahan": "Duyu" }, "geometry": { "type": "LineString", "coordinates": [ [ 119.842648635989022, -0.914269892113015 ], [ 119.843192107654403, -0.91433066315777 ], [ 119.84321268637035, -0.91392134143468 ] ] } },
{ "type": "Feature", "properties": { "Id": 0, "Nama_Jalan": "BTN Sogo", "Armada": null, "kelurahan": "Duyu" }, "geometry": { "type": "LineString", "coordinates": [ [ 119.843192107654403, -0.91433066315777 ], [ 119.843162103997358, -0.914835624501698 ] ] } },
{ "type": "Feature", "properties": { "Id": 0, "Nama_Jalan": "BTN Sogo", "Armada": null, "kelurahan": "Duyu" }, "geometry": { "type": "LineString", "coordinates": [ [ 119.84317426035993, -0.914631032572646 ], [ 119.842914207361545, -0.914615629438506 ], [ 119.842890464804896, -0.914626406995372 ], [ 119.842879799434641, -0.91465510513812 ], [ 119.842865658025502, -0.914793782981171 ] ] } },
{ "type": "Feature", "properties": { "Id": 0, "Nama_Jalan": "BTN Sogo", "Armada": null, "kelurahan": "Duyu" }, "geometry": { "type": "LineString", "coordinates": [ [ 119.843191418309658, -0.914342264784882 ], [ 119.843358413127532, -0.91434164771047 ], [ 119.843575706679729, -0.914305612325152 ], [ 119.843696356547468, -0.914298821820591 ], [ 119.844069240758913, -0.914290156486699 ], [ 119.844164245706523, -0.914291276074485 ], [ 119.8442307569794, -0.914301981597645 ], [ 119.844261649283354, -0.914322278743312 ], [ 119.844257299332497, -0.914830327180584 ] ] } },
{ "type": "Feature", "properties": { "Id": 0, "Nama_Jalan": "Jl. Syukur", "Armada": null, "kelurahan": "Duyu" }, "geometry": { "type": "LineString", "coordinates": [ [ 119.846407414333399, -0.909488107545394 ], [ 119.846397192349414, -0.910008535253348 ], [ 119.846414451704078, -0.910210782823479 ], [ 119.846446079874866, -0.910563639065117 ], [ 119.846489323793676, -0.911190471175632 ], [ 119.846509463907353, -0.911431447298544 ], [ 119.846509648778749, -0.911666701395982 ], [ 119.846482710268788, -0.911841729059073 ], [ 119.84646003905614, -0.912006711990396 ], [ 119.846422863403987, -0.912452864017142 ], [ 119.846414035157338, -0.912703426407028 ], [ 119.846425606057892, -0.912920023239284 ], [ 119.845735868259268, -0.912907662890726 ], [ 119.84505755646974, -0.912928286301597 ], [ 119.844216801043714, -0.912966252812247 ], [ 119.844161219211628, -0.912960559182348 ], [ 119.844117032213333, -0.912947684071 ], [ 119.84408281273501, -0.912924759655169 ], [ 119.844062834829103, -0.912890348049357 ], [ 119.844042843389502, -0.912838722690838 ], [ 119.844018593690876, -0.912808617925886 ], [ 119.843977252299339, -0.912790002617301 ], [ 119.843918820340079, -0.912784311244346 ], [ 119.843821916273242, -0.912784388438019 ], [ 119.843767760613957, -0.912780128135653 ], [ 119.843730701161363, -0.912770116291765 ], [ 119.843702181919156, -0.91274718731881 ], [ 119.843686482579244, -0.912717075730403 ], [ 119.843676075423446, -0.912167677933006 ], [ 119.843650408570269, -0.912147615634413 ], [ 119.843611922939473, -0.91213617042224 ], [ 119.842806702998772, -0.912059349241604 ], [ 119.842734551441723, -0.91204484046431 ] ] } },
{ "type": "Feature", "properties": { "Id": 0, "Nama_Jalan": "Jl. Tagari Lonjo", "Armada": null, "kelurahan": "Duyu" }, "geometry": { "type": "LineString", "coordinates": [ [ 119.847714202248028, -0.909611509120408 ], [ 119.847703726315103, -0.909881677022156 ], [ 119.8477037947969, -0.909968940900971 ], [ 119.847718105380594, -0.910045434886091 ], [ 119.84775142701065, -0.910135063107841 ], [ 119.847782378250628, -0.910230670190927 ], [ 119.847801440910203, -0.910309551179196 ], [ 119.847812263038279, -0.910480484230664 ], [ 119.847828283366397, -0.911221617134378 ], [ 119.847846759205183, -0.911762399657001 ], [ 119.847844053502016, -0.911946014667723 ], [ 119.847831351004103, -0.912102382614612 ], [ 119.847757718877205, -0.912700617604189 ], [ 119.847736518096411, -0.912922978225506 ], [ 119.847740893789805, -0.913050643058527 ], [ 119.8477467092398, -0.913196954923578 ], [ 119.847763920630314, -0.913337519788959 ], [ 119.847766869055221, -0.913462316805416 ], [ 119.84771903146526, -0.914241753387401 ], [ 119.847697093277048, -0.914733317885766 ], [ 119.847671821479338, -0.915213887421622 ], [ 119.847667607455733, -0.915291352475862 ], [ 119.847626524322479, -0.915599797607075 ], [ 119.847606619977554, -0.915658627036496 ], [ 119.847576742505922, -0.915720333399896 ], [ 119.847561115599802, -0.915782028362167 ], [ 119.847537029002041, -0.915958488159455 ], [ 119.847514365218174, -0.916132077873187 ], [ 119.847515938756644, -0.916319992944913 ], [ 119.847520321623506, -0.916456264637096 ], [ 119.847486551204696, -0.917001392502868 ], [ 119.847468130969858, -0.917134813518625 ], [ 119.847422701613624, -0.917352890266138 ], [ 119.847395733340377, -0.917489187099245 ], [ 119.847374465309855, -0.917625479367962 ], [ 119.847313702603188, -0.918275823899501 ], [ 119.847279792064526, -0.918643076988125 ], [ 119.847281761840975, -0.918731056607309 ], [ 119.847291345572103, -0.918836243826379 ], [ 119.847301013056708, -0.9190471040465 ], [ 119.84730402576119, -0.919252231703826 ], [ 119.847295559563321, -0.919358389733139 ], [ 119.847279954435407, -0.919447339786243 ], [ 119.847249974255334, -0.919584003566878 ] ] } },
{ "type": "Feature", "properties": { "Id": 0, "Nama_Jalan": "Jl. Kesehatan", "Armada": null, "kelurahan": "Duyu" }, "geometry": { "type": "LineString", "coordinates": [ [ 119.847249974255334, -0.919584003566861 ], [ 119.846689114315609, -0.919474089237288 ], [ 119.846278159716249, -0.919395523051414 ], [ 119.846122567035565, -0.91936576304749 ], [ 119.845721946116313, -0.919318645799286 ], [ 119.845699329772316, -0.91933559630513 ], [ 119.845682148182249, -0.919383426035355 ], [ 119.845614307455406, -0.919942926989642 ], [ 119.845565917430974, -0.920320711797129 ], [ 119.845553601985969, -0.920364951440349 ], [ 119.84548912591373, -0.920524708512016 ], [ 119.845229549240898, -0.921001594407829 ], [ 119.84505589212273, -0.921254202330443 ], [ 119.845024571510194, -0.921292958452619 ], [ 119.844978300274917, -0.921347505870992 ], [ 119.844936317890543, -0.921419263591284 ], [ 119.844919959288987, -0.921456573205501 ], [ 119.844849606086868, -0.921692601616472 ], [ 119.844820100945313, -0.921788914554827 ] ] } },
{ "type": "Feature", "properties": { "Id": 0, "Nama_Jalan": "Jl. Umar Syarif", "Armada": null, "kelurahan": "Duyu" }, "geometry": { "type": "LineString", "coordinates": [ [ 119.849405905417015, -0.909672348402389 ], [ 119.849377915053068, -0.910322665327376 ], [ 119.84934608881926, -0.910927082184018 ], [ 119.84936716852441, -0.911154668526098 ], [ 119.849401733814389, -0.911617497762703 ], [ 119.849417223328004, -0.911984710620252 ], [ 119.849412001953056, -0.912592931530925 ], [ 119.849425415426026, -0.912736368171187 ], [ 119.849435092063217, -0.912960138302736 ], [ 119.849435304566441, -0.91322981913708 ], [ 119.84944116005147, -0.913426815477136 ], [ 119.849435637765154, -0.913652510373029 ], [ 119.849433829690199, -0.913769182322666 ], [ 119.849433991088603, -0.913973833735288 ], [ 119.849420977273638, -0.914337244073293 ], [ 119.84936054934947, -0.914811624959837 ], [ 119.849330216150392, -0.914897717636377 ], [ 119.849284916491996, -0.915280280168712 ], [ 119.849254573948699, -0.91575567938054 ] ] } },
{ "type": "Feature", "properties": { "Id": 0, "Nama_Jalan": "BTN Jalan Umar Syarif", "Armada": null, "kelurahan": "Duyu" }, "geometry": { "type": "LineString", "coordinates": [ [ 119.849415225258866, -0.912627399890132 ], [ 119.849901373598357, -0.912643671973069 ], [ 119.850296140124271, -0.91267778419755 ], [ 119.850455747040712, -0.912679091250569 ], [ 119.850458409550669, -0.912440966748772 ], [ 119.850424183457221, -0.912409435677921 ], [ 119.850398491855827, -0.912357815182574 ], [ 119.850399799417147, -0.912208629028095 ] ] } },
{ "type": "Feature", "properties": { "Id": 0, "Nama_Jalan": "BTN Jalan Umar Syarif", "Armada": null, "kelurahan": "Duyu" }, "geometry": { "type": "LineString", "coordinates": [ [ 119.850399082595089, -0.912290414541243 ], [ 119.849891119187163, -0.912289365361946 ] ] } },
{ "type": "Feature", "properties": { "Id": 0, "Nama_Jalan": "BTN Jalan Umar Syarif", "Armada": null, "kelurahan": "Duyu" }, "geometry": { "type": "LineString", "coordinates": [ [ 119.850175292199978, -0.912667341596942 ], [ 119.850136863249418, -0.913095342857325 ] ] } },
{ "type": "Feature", "properties": { "Id": 0, "Nama_Jalan": "BTN Jalan Cemangi", "Armada": null, "kelurahan": "Duyu" }, "geometry": { "type": "LineString", "coordinates": [ [ 119.850663052891051, -0.912459774056336 ], [ 119.850702927618187, -0.912067649514613 ], [ 119.850740119682854, -0.911643016187516 ] ] } },
{ "type": "Feature", "properties": { "Id": 0, "Nama_Jalan": "Lorong Jalan Cemangi", "Armada": null, "kelurahan": "Duyu" }, "geometry": { "type": "LineString", "coordinates": [ [ 119.850458254453642, -0.912454837904117 ], [ 119.850796520524455, -0.912462990951787 ], [ 119.851050679088729, -0.912493868271571 ], [ 119.851108883729751, -0.912512948087276 ], [ 119.851551861391712, -0.912543674589867 ] ] } },
{ "type": "Feature", "properties": { "Id": 0, "Nama_Jalan": "BTN Jalan Cemangi", "Armada": null, "kelurahan": "Duyu" }, "geometry": { "type": "LineString", "coordinates": [ [ 119.850756153788438, -0.91246201801555 ], [ 119.850753520700849, -0.912750776330047 ] ] } },
{ "type": "Feature", "properties": { "Id": 0, "Nama_Jalan": null, "Armada": null, "kelurahan": "Duyu" }, "geometry": { "type": "LineString", "coordinates": [ [ 119.844069240758913, -0.914290156486699 ], [ 119.844053201190235, -0.913850929794614 ] ] } },
{ "type": "Feature", "properties": { "Id": 0, "Nama_Jalan": null, "Armada": null, "kelurahan": "Duyu" }, "geometry": { "type": "LineString", "coordinates": [ [ 119.842666394030886, -0.914271877820472 ], [ 119.842518054542012, -0.914606930523251 ], [ 119.842482503663291, -0.914703069188173 ] ] } },
{ "type": "Feature", "properties": { "Id": 0, "Nama_Jalan": null, "Armada": null, "kelurahan": "Duyu" }, "geometry": { "type": "LineString", "coordinates": [ [ 119.842592349252641, -0.912936757145577 ], [ 119.842048554720421, -0.912929916659191 ], [ 119.842005824272647, -0.912957205853418 ], [ 119.841967381409773, -0.913000270945777 ], [ 119.84192894643742, -0.913053377414109 ], [ 119.841893346934327, -0.913087833350286 ], [ 119.841853468861032, -0.913117989246647 ], [ 119.841787935151615, -0.913142427643121 ], [ 119.8416155285, -0.913175558044985 ], [ 119.84163791510386, -0.91299152172048 ] ] } },
{ "type": "Feature", "properties": { "Id": 0, "Nama_Jalan": null, "Armada": null, "kelurahan": "Duyu" }, "geometry": { "type": "LineString", "coordinates": [ [ 119.842594371624429, -0.912919609677808 ], [ 119.843040289514576, -0.912912570581153 ], [ 119.843073047873347, -0.912889592787365 ], [ 119.84309296264361, -0.912843673522014 ], [ 119.843122876517285, -0.912827870402839 ], [ 119.843288207232035, -0.912857862828799 ] ] } },
{ "type": "Feature", "properties": { "Id": 0, "Nama_Jalan": null, "Armada": null, "kelurahan": "Duyu" }, "geometry": { "type": "LineString", "coordinates": [ [ 119.843676075423446, -0.912167677933006 ], [ 119.843702554844768, -0.912116384461695 ], [ 119.843711019567152, -0.912007357198252 ], [ 119.843745210858842, -0.91199441966102 ], [ 119.844007437580331, -0.912014293675038 ], [ 119.844022697543906, -0.911484958329571 ], [ 119.844039777981578, -0.911459124098411 ], [ 119.844065420035221, -0.911447627859015 ], [ 119.844126700950767, -0.911451882550533 ], [ 119.844153764682531, -0.911436081740439 ], [ 119.844166565436865, -0.911404512996617 ], [ 119.844207583638649, -0.911011432851123 ], [ 119.84421030543885, -0.910847899968721 ], [ 119.844196022214291, -0.910806311403833 ], [ 119.844153253573779, -0.910784828202261 ], [ 119.844104799327326, -0.910781997759637 ] ] } },
{ "type": "Feature", "properties": { "Id": 0, "Nama_Jalan": null, "Armada": null, "kelurahan": "Duyu" }, "geometry": { "type": "LineString", "coordinates": [ [ 119.846405305096823, -0.910103601634796 ], [ 119.846063829875519, -0.910089420186479 ], [ 119.846032500023185, -0.910116700165664 ], [ 119.846009737386936, -0.910165490502118 ], [ 119.845981729335421, -0.910793814028843 ], [ 119.84594185064887, -0.911427884944596 ], [ 119.845885334224334, -0.91204618989826 ], [ 119.845867025019757, -0.912321624239116 ], [ 119.846012385350875, -0.912327246330447 ], [ 119.846139269563253, -0.912396000149663 ], [ 119.846424074924315, -0.912438324301853 ] ] } },
{ "type": "Feature", "properties": { "Id": 0, "Nama_Jalan": null, "Armada": null, "kelurahan": "Duyu" }, "geometry": { "type": "LineString", "coordinates": [ [ 119.845867025019757, -0.912321624239099 ], [ 119.845648969827252, -0.912294542883759 ], [ 119.845520709015091, -0.912287472671362 ], [ 119.84546083742444, -0.912263134233255 ], [ 119.845428038544625, -0.912234470791329 ] ] } },
{ "type": "Feature", "properties": { "Id": 0, "Nama_Jalan": null, "Armada": null, "kelurahan": "Duyu" }, "geometry": { "type": "LineString", "coordinates": [ [ 119.844820100945313, -0.921788914554827 ], [ 119.843574555677677, -0.921675116902178 ], [ 119.840525188009835, -0.921422349401843 ], [ 119.839168596545363, -0.921291346465607 ], [ 119.838562678601633, -0.921259078657992 ], [ 119.83838975346363, -0.921238178278735 ], [ 119.838290922860793, -0.92120574253523 ], [ 119.838199680510868, -0.9211579994959 ], [ 119.837754786028754, -0.920814079287535 ], [ 119.837636878785972, -0.920686026224834 ], [ 119.837564626778189, -0.920624879319275 ], [ 119.837018995543119, -0.920240873655527 ], [ 119.836655829393834, -0.919927489584012 ], [ 119.836513245142712, -0.919830058471781 ], [ 119.836422014856652, -0.919797616416473 ], [ 119.836325099389782, -0.919784305435453 ], [ 119.836218698546332, -0.919790128575137 ], [ 119.836146502447576, -0.919799749637528 ], [ 119.835415359505433, -0.917891983770999 ], [ 119.835366950238921, -0.917796150618957 ], [ 119.835321322298, -0.917763671925383 ], [ 119.835262408753408, -0.917750330385358 ], [ 119.834707618084835, -0.917798589737934 ], [ 119.834622133283219, -0.917823522513657 ], [ 119.834213738788876, -0.91798451169899 ], [ 119.833655960323682, -0.916651834708293 ] ] } },
{ "type": "Feature", "properties": { "Id": 0, "Nama_Jalan": null, "Armada": null, "kelurahan": "Duyu" }, "geometry": { "type": "LineString", "coordinates": [ [ 119.843804139387913, -0.921696092567601 ], [ 119.843849088344356, -0.921083937995022 ], [ 119.843930336891219, -0.92051008057379 ], [ 119.843883797884089, -0.919927240784013 ], [ 119.843890727731363, -0.919680504603607 ], [ 119.84391471634865, -0.919380678966596 ], [ 119.843940340209059, -0.919346230880305 ], [ 119.843993056154417, -0.919331843781562 ], [ 119.844327955956103, -0.919344485378408 ], [ 119.84475259476153, -0.919306848140389 ], [ 119.845668923576156, -0.919324760848271 ] ] } },
{ "type": "Feature", "properties": { "Id": 0, "Nama_Jalan": null, "Armada": null, "kelurahan": "Duyu" }, "geometry": { "type": "LineString", "coordinates": [ [ 119.847254577204481, -0.911674502089545 ], [ 119.847843730374507, -0.911673747166625 ] ] } },
{ "type": "Feature", "properties": { "Id": 0, "Nama_Jalan": null, "Armada": null, "kelurahan": "Duyu" }, "geometry": { "type": "LineString", "coordinates": [ [ 119.847846055749457, -0.911810137531681 ], [ 119.848277141257427, -0.911784859193925 ] ] } },
{ "type": "Feature", "properties": { "Id": 0, "Nama_Jalan": null, "Armada": null, "kelurahan": "Duyu" }, "geometry": { "type": "LineString", "coordinates": [ [ 119.847815470561557, -0.912231405395744 ], [ 119.848131827962007, -0.9122195969304 ] ] } },
{ "type": "Feature", "properties": { "Id": 0, "Nama_Jalan": null, "Armada": null, "kelurahan": "Duyu" }, "geometry": { "type": "LineString", "coordinates": [ [ 119.847740893789805, -0.913050643058527 ], [ 119.848495497961537, -0.913100815617815 ] ] } },
{ "type": "Feature", "properties": { "Id": 0, "Nama_Jalan": null, "Armada": null, "kelurahan": "Duyu" }, "geometry": { "type": "LineString", "coordinates": [ [ 119.847662274978333, -0.91533138777078 ], [ 119.848165330448197, -0.915322005069025 ], [ 119.848205720232713, -0.915338708297236 ], [ 119.848186949829397, -0.915630399892876 ], [ 119.8481513328814, -0.915642382355327 ], [ 119.847951815638709, -0.915630588062246 ], [ 119.847923701690547, -0.916120722955196 ] ] } },
{ "type": "Feature", "properties": { "Id": 0, "Nama_Jalan": null, "Armada": null, "kelurahan": "Duyu" }, "geometry": { "type": "MultiLineString", "coordinates": [ [ [ 119.849254573948699, -0.91575567938054 ], [ 119.848658378474951, -0.915695888861012 ] ], [ [ 119.848658378474951, -0.915695888861012 ], [ 119.848612062691487, -0.915694033226553 ], [ 119.848588326883487, -0.915713178552605 ], [ 119.848584898358226, -0.91588292744335 ] ], [ [ 119.848658378474951, -0.915695888861012 ], [ 119.848748018352978, -0.914918810205999 ] ] ] } },
{ "type": "Feature", "properties": { "Id": 0, "Nama_Jalan": null, "Armada": null, "kelurahan": "Duyu" }, "geometry": { "type": "LineString", "coordinates": [ [ 119.849254573948699, -0.91575567938054 ], [ 119.849330506173061, -0.915766377131909 ], [ 119.849328684701462, -0.915865835422717 ], [ 119.849264538888193, -0.916443501503101 ], [ 119.849260815886936, -0.916541048692781 ], [ 119.849268544770197, -0.916703616175042 ], [ 119.849257387963434, -0.917011558789344 ], [ 119.848824133401834, -0.91696409034314 ], [ 119.848259741779486, -0.916876561612472 ], [ 119.84800127261461, -0.916802176031436 ], [ 119.847502662295113, -0.916741324033683 ] ] } }
]
}
