{
"type": "FeatureCollection",
"name": "Kabonena",
"crs": { "type": "name", "properties": { "name": "urn:ogc:def:crs:OGC:1.3:CRS84" } },
"features": [
{ "type": "Feature", "properties": { "Id": 0, "Nama_Jalan": "Jl. Munif Rahman I", "Armada": null, "kelurahan": "Kabonena" }, "geometry": { "type": "LineString", "coordinates": [ [ 119.836718525046862, -0.88333690470278 ], [ 119.836629341384054, -0.883890713967611 ], [ 119.836591465848954, -0.884056665747909 ], [ 119.836507569398648, -0.884296290101883 ], [ 119.836408016961329, -0.884561747360769 ], [ 119.836382411695951, -0.884622015652216 ], [ 119.836329746677364, -0.884703822132991 ], [ 119.835975226558858, -0.885124400810438 ], [ 119.835775892792725, -0.885354072864198 ], [ 119.835607867776545, -0.885527775715038 ], [ 119.835539510736339, -0.885588077009102 ] ] } },
{ "type": "Feature", "properties": { "Id": 0, "Nama_Jalan": "Jl. Munif Rahman", "Armada": null, "kelurahan": "Kabonena" }, "geometry": { "type": "LineString", "coordinates": [ [ 119.835539510736339, -0.885588077009102 ], [ 119.83557065588937, -0.88531693422209 ], [ 119.83566603027576, -0.884554189795685 ], [ 119.835736063964177, -0.883573900552062 ], [ 119.835764651888411, -0.883187300404726 ] ] } },
{ "type": "Feature", "properties": { "Id": 0, "Nama_Jalan": "Lrg. Bugis", "Armada": null, "kelurahan": "Kabonena" }, "geometry": { "type": "LineString", "coordinates": [ [ 119.836499036936971, -0.884319041964065 ], [ 119.836622550219445, -0.884330629345337 ], [ 119.836770758399169, -0.884333384229876 ], [ 119.836974508920605, -0.884290192691779 ], [ 119.837122702884287, -0.884274299220382 ], [ 119.837252384166888, -0.884275633866377 ], [ 119.837909372316318, -0.88432390056684 ], [ 119.83801056220436, -0.884338167513109 ], [ 119.83815594408388, -0.884372483243829 ], [ 119.838351223619142, -0.884434015784135 ], [ 119.838453864705997, -0.884482709281151 ], [ 119.838497639591907, -0.884422737894864 ], [ 119.838564116004221, -0.884388258988359 ], [ 119.838603966660202, -0.884321285554116 ] ] } },
{ "type": "Feature", "properties": { "Id": 0, "Nama_Jalan": "Lrg. Hollywood", "Armada": null, "kelurahan": "Kabonena" }, "geometry": { "type": "LineString", "coordinates": [ [ 119.836703947913648, -0.883427425118234 ], [ 119.837257234559459, -0.883469399589355 ], [ 119.837529193732479, -0.883483535265783 ], [ 119.837662196259913, -0.883479846721847 ] ] } },
{ "type": "Feature", "properties": { "Id": 0, "Nama_Jalan": "Jl. Lasoso", "Armada": null, "kelurahan": "Kabonena" }, "geometry": { "type": "LineString", "coordinates": [ [ 119.836371705093484, -0.884638646604913 ], [ 119.838069353079348, -0.885700718300861 ], [ 119.83971590232305, -0.886724953297979 ] ] } },
{ "type": "Feature", "properties": { "Id": 0, "Nama_Jalan": "Lrg. VII", "Armada": null, "kelurahan": "Kabonena" }, "geometry": { "type": "LineString", "coordinates": [ [ 119.839453010353367, -0.886561421725429 ], [ 119.839522497307044, -0.886264836354622 ], [ 119.839572162156955, -0.885986507728349 ], [ 119.839600442503752, -0.88569671974292 ], [ 119.83960604329971, -0.885566177203956 ] ] } },
{ "type": "Feature", "properties": { "Id": 0, "Nama_Jalan": "Jl. Samudra III", "Armada": null, "kelurahan": "Kabonena" }, "geometry": { "type": "LineString", "coordinates": [ [ 119.841813704980837, -0.888030090999863 ], [ 119.841220689663686, -0.889014466066822 ], [ 119.840786810683795, -0.889700964059236 ], [ 119.840427475808013, -0.890343174713922 ], [ 119.840391030799267, -0.890576772999021 ], [ 119.839949247028727, -0.890555598635204 ], [ 119.839722642221972, -0.890528519274921 ], [ 119.8392196192043, -0.890557599336785 ], [ 119.839186857174383, -0.890576273080874 ], [ 119.839117107375245, -0.890678175741678 ], [ 119.838762260408998, -0.890668409681386 ], [ 119.838695420017956, -0.89084777241769 ] ] } },
{ "type": "Feature", "properties": { "Id": 0, "Nama_Jalan": "Jl. Tanderante", "Armada": null, "kelurahan": "Kabonena" }, "geometry": { "type": "LineString", "coordinates": [ [ 119.835202604572999, -0.886813105361662 ], [ 119.836648052904181, -0.887074979557608 ], [ 119.837713653347961, -0.887247251461801 ], [ 119.838804423814011, -0.887412809005085 ], [ 119.83909898940226, -0.887483349271322 ], [ 119.839290955303554, -0.887559706768351 ], [ 119.839741472865043, -0.887821391059493 ], [ 119.840034253618001, -0.888043031591751 ], [ 119.841213802365772, -0.889025363377873 ] ] } },
{ "type": "Feature", "properties": { "Id": 0, "Nama_Jalan": "Lrg. Kenangan", "Armada": null, "kelurahan": "Kabonena" }, "geometry": { "type": "LineString", "coordinates": [ [ 119.839682249930547, -0.887786991277879 ], [ 119.839663619131571, -0.88788600315497 ], [ 119.839622589066394, -0.888895912943419 ], [ 119.839556384790811, -0.889286144398679 ], [ 119.83953380333655, -0.889573059089553 ], [ 119.839904165708219, -0.889373856657333 ], [ 119.839902176393934, -0.889257186711802 ], [ 119.83987737888917, -0.88913097120261 ], [ 119.839871615776531, -0.889048731830627 ], [ 119.839951196615331, -0.888757947787685 ], [ 119.84004788694017, -0.888478626417074 ], [ 119.840186299010185, -0.888169655603275 ] ] } },
{ "type": "Feature", "properties": { "Id": 0, "Nama_Jalan": null, "Armada": null, "kelurahan": "Kabonena" }, "geometry": { "type": "LineString", "coordinates": [ [ 119.838959385868407, -0.888899215878605 ], [ 119.83961836414457, -0.888920816108289 ] ] } },
{ "type": "Feature", "properties": { "Id": 0, "Nama_Jalan": "Jl. Kelapa Gading", "Armada": null, "kelurahan": "Kabonena" }, "geometry": { "type": "LineString", "coordinates": [ [ 119.841213802365772, -0.889025363377873 ], [ 119.841654474752161, -0.889405652094595 ], [ 119.84197982850074, -0.889648353836666 ] ] } },
{ "type": "Feature", "properties": { "Id": 0, "Nama_Jalan": "Jl. Kelapa Gading Lrg I", "Armada": null, "kelurahan": "Kabonena" }, "geometry": { "type": "LineString", "coordinates": [ [ 119.841654474752161, -0.889405652094595 ], [ 119.841363807231929, -0.889772866263379 ] ] } },
{ "type": "Feature", "properties": { "Id": 0, "Nama_Jalan": "Jl. Kelapa Gading Lrg II", "Armada": null, "kelurahan": "Kabonena" }, "geometry": { "type": "LineString", "coordinates": [ [ 119.84197982850074, -0.889648353836666 ], [ 119.841924980255527, -0.889989720640234 ], [ 119.841912442156087, -0.890674695995788 ] ] } },
{ "type": "Feature", "properties": { "Id": 0, "Nama_Jalan": null, "Armada": null, "kelurahan": "Kabonena" }, "geometry": { "type": "LineString", "coordinates": [ [ 119.841630788806683, -0.890407144543799 ], [ 119.841917277398537, -0.890410536796861 ] ] } },
{ "type": "Feature", "properties": { "Id": 0, "Nama_Jalan": "Jl. Kelapa II Lrg. I", "Armada": null, "kelurahan": "Kabonena" }, "geometry": { "type": "LineString", "coordinates": [ [ 119.841912442156087, -0.890674695995788 ], [ 119.842576067628215, -0.890707676603012 ], [ 119.842580234448477, -0.890566376874228 ], [ 119.842714311271791, -0.890570337078139 ], [ 119.842903149975442, -0.890595293794515 ], [ 119.843170339998636, -0.890668298615963 ] ] } },
{ "type": "Feature", "properties": { "Id": 0, "Nama_Jalan": "Jl. Kelapa II", "Armada": null, "kelurahan": "Kabonena" }, "geometry": { "type": "LineString", "coordinates": [ [ 119.843170339998636, -0.890668298615963 ], [ 119.84284154718101, -0.891293808362122 ], [ 119.84205465225989, -0.892771133021385 ], [ 119.841707050786312, -0.893413957690589 ], [ 119.841514250405382, -0.893780962317314 ], [ 119.841480670875285, -0.893844882558317 ], [ 119.841447734977663, -0.89394615885902 ], [ 119.841442970367467, -0.894166268911538 ] ] } },
{ "type": "Feature", "properties": { "Id": 0, "Nama_Jalan": "Jl. Nurul Amal", "Armada": null, "kelurahan": "Kabonena" }, "geometry": { "type": "LineString", "coordinates": [ [ 119.834811801407355, -0.888080729243666 ], [ 119.834862101415084, -0.888069703963342 ], [ 119.835425109020989, -0.888211522653505 ], [ 119.835516573211066, -0.888241337192639 ], [ 119.835638962952046, -0.888335679907838 ], [ 119.835973959762384, -0.888476479156705 ], [ 119.83638254171953, -0.888561037189714 ], [ 119.836436000618818, -0.888586099415171 ], [ 119.836563145086089, -0.888686415349486 ], [ 119.836752008354921, -0.888742453413675 ], [ 119.836721510959535, -0.889238571285712 ], [ 119.836684146739813, -0.890072516782597 ], [ 119.836698257826527, -0.89020065357753 ], [ 119.836702577987694, -0.890259464298889 ], [ 119.836681265724948, -0.890342681207576 ], [ 119.836617241168398, -0.890477572851558 ], [ 119.836564553447914, -0.890529255320047 ], [ 119.836480513301069, -0.890579527607458 ], [ 119.836467716292034, -0.890616834262065 ], [ 119.836483491835793, -0.890747360600742 ], [ 119.836386564673958, -0.890717311464439 ], [ 119.83631956377917, -0.89068723912018 ], [ 119.836271075501315, -0.890639938539612 ], [ 119.836232561551952, -0.890591195732807 ] ] } },
{ "type": "Feature", "properties": { "Id": 0, "Nama_Jalan": "Jl. Mitra Puenjidi", "Armada": null, "kelurahan": "Kabonena" }, "geometry": { "type": "LineString", "coordinates": [ [ 119.833156417303755, -0.887786369929237 ], [ 119.833037297902791, -0.888555350696662 ], [ 119.832954381280871, -0.88945627709096 ], [ 119.832815933585152, -0.890728063378324 ], [ 119.832730990162176, -0.892237336842638 ], [ 119.83266191956298, -0.892916623568941 ] ] } },
{ "type": "Feature", "properties": { "Id": 0, "Nama_Jalan": "Lrg. Taipadea", "Armada": null, "kelurahan": "Kabonena" }, "geometry": { "type": "LineString", "coordinates": [ [ 119.8353099570718, -0.892183056210901 ], [ 119.834873971402786, -0.892292416004969 ], [ 119.834486342114005, -0.89227693746838 ], [ 119.834317704462833, -0.892270374051791 ], [ 119.834278747594311, -0.892263709986948 ], [ 119.8342568827006, -0.89224555671673 ], [ 119.834250210430625, -0.892216872043887 ], [ 119.834262344225024, -0.891933789436051 ], [ 119.834306708529326, -0.891557917991287 ], [ 119.83433509929182, -0.891413490403113 ] ] } },
{ "type": "Feature", "properties": { "Id": 0, "Nama_Jalan": "Jl. Buvu Kulu", "Armada": null, "kelurahan": "Kabonena" }, "geometry": { "type": "LineString", "coordinates": [ [ 119.832814599665397, -0.89075176418485 ], [ 119.8331862332128, -0.890757860956891 ], [ 119.833230180010361, -0.890767390213874 ], [ 119.833259889868145, -0.890794861668315 ], [ 119.833297950067362, -0.890871338522726 ], [ 119.833324125596249, -0.890935870464076 ], [ 119.833334905888876, -0.891056598665254 ], [ 119.833331473944824, -0.891227545155844 ], [ 119.833918221366787, -0.891352608569298 ], [ 119.83433509929182, -0.891413490403097 ], [ 119.834738911810817, -0.89147151329356 ], [ 119.835058388061768, -0.891503541584482 ], [ 119.835135571622615, -0.891493918442433 ] ] } },
{ "type": "Feature", "properties": { "Id": 0, "Nama_Jalan": null, "Armada": null, "kelurahan": "Kabonena" }, "geometry": { "type": "LineString", "coordinates": [ [ 119.83433509929182, -0.891413490403097 ], [ 119.83433934644215, -0.891221623747039 ], [ 119.83432076410557, -0.891147761790005 ], [ 119.834307079529367, -0.890956267651383 ], [ 119.834311309740301, -0.890897450181898 ], [ 119.834307723497218, -0.890866611372589 ], [ 119.834274919072428, -0.89083005723204 ], [ 119.834007687339536, -0.89078794673909 ], [ 119.833982035099524, -0.890786532119127 ], [ 119.833953544795946, -0.890800899119647 ], [ 119.833938601918376, -0.890827448815269 ], [ 119.833928851348119, -0.891121527423669 ], [ 119.833920348143906, -0.891183217210627 ], [ 119.833889979806386, -0.891346588971184 ] ] } },
{ "type": "Feature", "properties": { "Id": 0, "Nama_Jalan": "Jl. Munif Rahman II", "Armada": null, "kelurahan": "Kabonena" }, "geometry": { "type": "LineString", "coordinates": [ [ 119.834867570052907, -0.892292160391198 ], [ 119.834881764604901, -0.892699088366896 ], [ 119.834891488616734, -0.892990760801576 ], [ 119.834874929786523, -0.893078038580682 ], [ 119.834042435762228, -0.893053581657469 ], [ 119.833694466561681, -0.893033051752366 ], [ 119.83266191956298, -0.892916623568924 ] ] } },
{ "type": "Feature", "properties": { "Id": 0, "Nama_Jalan": "Jl. Bukit Tinggi", "Armada": null, "kelurahan": "Kabonena" }, "geometry": { "type": "LineString", "coordinates": [ [ 119.834252535476779, -0.892226867621179 ], [ 119.83407268846625, -0.892209858056105 ], [ 119.834032775140244, -0.892194826852581 ], [ 119.834000691976485, -0.892169748122091 ], [ 119.833901628602803, -0.892141852371741 ], [ 119.833756967558614, -0.892119729961079 ], [ 119.833433475715808, -0.892117111923736 ], [ 119.833404991991728, -0.892140085916132 ], [ 119.83339583065991, -0.892272783681316 ], [ 119.833425788324732, -0.892313643505766 ], [ 119.833407147646881, -0.892783932783829 ], [ 119.833393869752484, -0.892813589292324 ], [ 119.833376271735517, -0.892997172706711 ] ] } },
{ "type": "Feature", "properties": { "Id": 0, "Nama_Jalan": "Lrg. Damai", "Armada": null, "kelurahan": "Kabonena" }, "geometry": { "type": "LineString", "coordinates": [ [ 119.836655521750558, -0.883728139982156 ], [ 119.837088580368018, -0.883783718885574 ] ] } },
{ "type": "Feature", "properties": { "Id": 0, "Nama_Jalan": null, "Armada": null, "kelurahan": "Kabonena" }, "geometry": { "type": "LineString", "coordinates": [ [ 119.834429092961713, -0.893064940858537 ], [ 119.834401080729506, -0.893648112148178 ], [ 119.834370467573024, -0.893991218704899 ], [ 119.834320927989324, -0.8944311682413 ] ] } },
{ "type": "Feature", "properties": { "Id": 0, "Nama_Jalan": "Bukit Indah", "Armada": null, "kelurahan": "Kabonena" }, "geometry": { "type": "LineString", "coordinates": [ [ 119.834320927989324, -0.8944311682413 ], [ 119.834019804760473, -0.894380956160547 ], [ 119.834009182847694, -0.894467033992283 ], [ 119.834112914087925, -0.895006083469455 ], [ 119.834197578572926, -0.89545907814108 ], [ 119.834291388920491, -0.895450637205628 ], [ 119.834515809060363, -0.895414600106603 ], [ 119.83442402109182, -0.89496400193019 ], [ 119.83433223423053, -0.894514599088185 ], [ 119.834348807665293, -0.894446447804217 ], [ 119.834611302908186, -0.894506014081195 ], [ 119.834699549160462, -0.894984109403536 ], [ 119.834777011153705, -0.895336695012016 ], [ 119.834829294753192, -0.895377298223602 ], [ 119.835062247054637, -0.896141222573134 ] ] } },
{ "type": "Feature", "properties": { "Id": 0, "Nama_Jalan": null, "Armada": null, "kelurahan": "Kabonena" }, "geometry": { "type": "LineString", "coordinates": [ [ 119.834402500088359, -0.893618563152647 ], [ 119.834885302773642, -0.893669930503851 ] ] } },
{ "type": "Feature", "properties": { "Id": 0, "Nama_Jalan": "Jl. Bukit Thursina", "Armada": null, "kelurahan": "Kabonena" }, "geometry": { "type": "LineString", "coordinates": [ [ 119.834452986099421, -0.896082126258031 ], [ 119.834508225454243, -0.896259960234428 ], [ 119.835382150171483, -0.896110091739927 ], [ 119.835309712965881, -0.895806036085809 ], [ 119.835545211677683, -0.895660490778621 ], [ 119.83581489126108, -0.895488141720891 ], [ 119.83636749199394, -0.895066927343353 ] ] } },
{ "type": "Feature", "properties": { "Id": 0, "Nama_Jalan": "Jl. Puenjidi", "Armada": null, "kelurahan": "Kabonena" }, "geometry": { "type": "LineString", "coordinates": [ [ 119.834811801407355, -0.888080729243666 ], [ 119.834736264397776, -0.888069311665161 ], [ 119.834291560911936, -0.887959199267372 ], [ 119.833862548282312, -0.887869157517935 ], [ 119.833156417303755, -0.887786369929237 ], [ 119.83294899321929, -0.887752234264854 ], [ 119.832805053041625, -0.887740869397255 ], [ 119.832663976084675, -0.887746716246153 ], [ 119.832454520061162, -0.887784174741798 ], [ 119.832002851062313, -0.887884937930476 ], [ 119.831612423636386, -0.887938315524567 ], [ 119.831478475129373, -0.887948460345867 ], [ 119.831318826274384, -0.887894072662949 ], [ 119.831176306588475, -0.887876968651399 ], [ 119.83034401868035, -0.887813058203194 ], [ 119.82979820155785, -0.887791961582446 ], [ 119.828931751424165, -0.887781153480418 ], [ 119.828816312130854, -0.887769766453996 ], [ 119.828782143582828, -0.887735245259643 ], [ 119.828775934924622, -0.887379016029189 ], [ 119.828773274513154, -0.887003657403623 ], [ 119.828781559253073, -0.886966593123619 ] ] } },
{ "type": "Feature", "properties": { "Id": 0, "Nama_Jalan": "Kompleks BTN Taman Ria Estate", "Armada": null, "kelurahan": "Kabonena" }, "geometry": { "type": "LineString", "coordinates": [ [ 119.828781559253073, -0.886966593123602 ], [ 119.828845644777658, -0.886910538535945 ], [ 119.829075063327011, -0.886887409908307 ], [ 119.829126349427085, -0.886865852934725 ], [ 119.829133425717018, -0.886801295033518 ], [ 119.829074482581092, -0.886122822375775 ], [ 119.829049471282417, -0.885088089628292 ], [ 119.82877298858385, -0.885062481078884 ], [ 119.828658994031642, -0.885076913655344 ], [ 119.827950832922298, -0.885206562697501 ], [ 119.82791090598063, -0.885173599858411 ], [ 119.828124022758558, -0.884324212014127 ], [ 119.828759697605875, -0.884448525536079 ], [ 119.828720244759609, -0.8850410041098 ] ] } },
{ "type": "Feature", "properties": { "Id": 0, "Nama_Jalan": "Jl. Jalur Gaza II", "Armada": null, "kelurahan": "Kabonena" }, "geometry": { "type": "LineString", "coordinates": [ [ 119.829049471282417, -0.885088089628292 ], [ 119.82928520148694, -0.8851274767425 ], [ 119.82934790444115, -0.885127428554624 ], [ 119.829407744201859, -0.885110168582759 ], [ 119.829567273361945, -0.885006762091762 ], [ 119.830191440474835, -0.884990502908669 ], [ 119.830628926949146, -0.884978690640924 ], [ 119.831293036653548, -0.885016911453743 ], [ 119.831474029648291, -0.885029682738735 ], [ 119.831945709546105, -0.88500780254894 ], [ 119.832257774528117, -0.884976003628226 ], [ 119.832329020075406, -0.884965907362122 ], [ 119.832368898980874, -0.884935752293948 ], [ 119.832383115857979, -0.884891272016411 ], [ 119.83238017971658, -0.88477794917638 ], [ 119.832385850574411, -0.884739213452684 ], [ 119.832427151278054, -0.884704753815304 ], [ 119.832468470487413, -0.884694680577378 ], [ 119.83276913915897, -0.884668628453576 ], [ 119.833111157420603, -0.88467266889022 ], [ 119.833166739203349, -0.884678364114916 ] ] } },
{ "type": "Feature", "properties": { "Id": 0, "Nama_Jalan": null, "Armada": null, "kelurahan": "Kabonena" }, "geometry": { "type": "LineString", "coordinates": [ [ 119.83121256648856, -0.885546900197161 ], [ 119.831530322160617, -0.885502186330126 ], [ 119.831568815242463, -0.885523674150713 ], [ 119.831542235426099, -0.886216227409993 ], [ 119.832545502420587, -0.88624414458969 ], [ 119.832990684713081, -0.886256858443289 ], [ 119.83309198370641, -0.885688118127004 ] ] } },
{ "type": "Feature", "properties": { "Id": 0, "Nama_Jalan": "Jl. Arafah", "Armada": null, "kelurahan": "Kabonena" }, "geometry": { "type": "LineString", "coordinates": [ [ 119.83309198370641, -0.885688118127004 ], [ 119.833945726256005, -0.885858882533465 ], [ 119.833976624046713, -0.885262109674404 ] ] } },
{ "type": "Feature", "properties": { "Id": 0, "Nama_Jalan": "Jl. Jalur Gaza", "Armada": null, "kelurahan": "Kabonena" }, "geometry": { "type": "LineString", "coordinates": [ [ 119.83566776997462, -0.884529838408335 ], [ 119.835403773461735, -0.884506647611602 ], [ 119.835013287520795, -0.884481127269924 ], [ 119.834625664644193, -0.884472818571941 ], [ 119.834420457029594, -0.884474410942408 ], [ 119.834260861125486, -0.884488878646826 ], [ 119.833914614865094, -0.884546524718134 ], [ 119.833863005629084, -0.884142037372829 ], [ 119.83370765762831, -0.88412063941625 ], [ 119.833694812485064, -0.884094828412911 ], [ 119.833694753714596, -0.884017365820914 ] ] } },
{ "type": "Feature", "properties": { "Id": 0, "Nama_Jalan": null, "Armada": null, "kelurahan": "Kabonena" }, "geometry": { "type": "LineString", "coordinates": [ [ 119.834443913194335, -0.884474228927771 ], [ 119.83438583245885, -0.884933714235012 ], [ 119.834363257087517, -0.885230671547093 ], [ 119.833976624046713, -0.885262109674404 ] ] } },
{ "type": "Feature", "properties": { "Id": 0, "Nama_Jalan": "Lrg. Tribrata", "Armada": null, "kelurahan": "Kabonena" }, "geometry": { "type": "LineString", "coordinates": [ [ 119.838972145374811, -0.894453678370905 ], [ 119.839019448782722, -0.894195433925514 ], [ 119.839048726793749, -0.893661064880143 ], [ 119.839068881134892, -0.893616819187137 ], [ 119.839066468380338, -0.893567809442857 ], [ 119.839001127491287, -0.893534388957051 ], [ 119.838964287768903, -0.893500946280262 ], [ 119.838957136763753, -0.893467480491462 ], [ 119.838993894756257, -0.893394532142836 ], [ 119.839010319368867, -0.893132725555722 ], [ 119.839001967057371, -0.893081329618201 ], [ 119.838978159178751, -0.893007232999649 ], [ 119.838951983550459, -0.892942701464248 ], [ 119.838893768893954, -0.892910470799535 ], [ 119.838766718628705, -0.892933282338273 ], [ 119.838737132700146, -0.893067190799724 ], [ 119.838721749637713, -0.893138927115208 ], [ 119.838698018855411, -0.89316524450681 ], [ 119.838567372873158, -0.893145024253966 ], [ 119.838492526080941, -0.893104438679557 ] ] } },
{ "type": "Feature", "properties": { "Id": 0, "Nama_Jalan": "Jl. Kelapa Asri", "Armada": null, "kelurahan": "Kabonena" }, "geometry": { "type": "LineString", "coordinates": [ [ 119.841731031511941, -0.893369609752454 ], [ 119.841591733236172, -0.893340628725847 ], [ 119.841379861061839, -0.893322623644257 ], [ 119.840800350177275, -0.893338376166687 ], [ 119.840510605647751, -0.893360597237846 ], [ 119.840523187689456, -0.893661829226856 ] ] } },
{ "type": "Feature", "properties": { "Id": 0, "Nama_Jalan": null, "Armada": null, "kelurahan": "Kabonena" }, "geometry": { "type": "LineString", "coordinates": [ [ 119.836719524219077, -0.889282913735933 ], [ 119.83708549343784, -0.889290509496173 ], [ 119.837154346812966, -0.889258419266438 ], [ 119.838066482902732, -0.88938681684363 ], [ 119.838086450162749, -0.889408318693477 ], [ 119.838067181791814, -0.890300585024863 ], [ 119.838037722253787, -0.890910265192274 ], [ 119.838459541703358, -0.890912806845247 ], [ 119.838644779455237, -0.890886842322291 ], [ 119.838695420017956, -0.89084777241769 ] ] } },
{ "type": "Feature", "properties": { "Id": 0, "Nama_Jalan": "Lrg. Uve Lante", "Armada": null, "kelurahan": "Kabonena" }, "geometry": { "type": "LineString", "coordinates": [ [ 119.837077811765482, -0.894740638479168 ], [ 119.837072215422765, -0.894691450632076 ], [ 119.837065048029885, -0.894636706551097 ], [ 119.837035739044126, -0.894203752767553 ], [ 119.837031826473023, -0.894057437929606 ], [ 119.837017351102688, -0.893764813425111 ], [ 119.837015428604587, -0.893735623068267 ], [ 119.837005076259331, -0.893708734452859 ], [ 119.836990099626433, -0.893691173614095 ], [ 119.836964439442539, -0.893679359043502 ], [ 119.836928451971971, -0.89367329046373 ], [ 119.83680254441262, -0.893668941503118 ], [ 119.836784016414896, -0.893666086938711 ], [ 119.836771298085765, -0.893651074541646 ], [ 119.836761121306481, -0.893543495753784 ], [ 119.836759224821236, -0.893393473545683 ], [ 119.836769837729804, -0.893295680931625 ], [ 119.836772162374942, -0.893229931693606 ], [ 119.836778069856848, -0.89319047864206 ], [ 119.836802979987297, -0.893153401631397 ], [ 119.83683857899176, -0.893117511719203 ], [ 119.836779128994806, -0.893023120724239 ], [ 119.836600924836461, -0.892930017433806 ], [ 119.836227946688766, -0.892816743526905 ] ] } },
{ "type": "Feature", "properties": { "Id": 0, "Nama_Jalan": null, "Armada": null, "kelurahan": "Kabonena" }, "geometry": { "type": "LineString", "coordinates": [ [ 119.835307759823337, -0.892000595415146 ], [ 119.835526258375097, -0.891986080918301 ], [ 119.836096323363321, -0.892038236384106 ], [ 119.836144802195278, -0.892073104674021 ], [ 119.836162907932788, -0.892144815124204 ], [ 119.836212422193867, -0.892291094666485 ], [ 119.836236269975871, -0.89241731127115 ], [ 119.836227946688766, -0.892816743526905 ] ] } }
]
}
