{
"type": "FeatureCollection",
"name": "Kamonji",
"crs": { "type": "name", "properties": { "name": "urn:ogc:def:crs:OGC:1.3:CRS84" } },
"features": [
{ "type": "Feature", "properties": { "Id": 0, "Nama_Jalan": "Jl. Belimbing", "Armada": 2.0, "kelurahan": "Kamonji" }, "geometry": { "type": "LineString", "coordinates": [ [ 119.852452416228232, -0.902245861204036 ], [ 119.852483066755767, -0.901956552280276 ], [ 119.852446801958749, -0.901136542391423 ], [ 119.852432142174862, -0.900610581717644 ], [ 119.852419391009988, -0.900023234594037 ] ] } },
{ "type": "Feature", "properties": { "Id": 0, "Nama_Jalan": "Jl. Belimbing I", "Armada": 2.0, "kelurahan": "Kamonji" }, "geometry": { "type": "LineString", "coordinates": [ [ 119.852895551965773, -0.900034504853611 ], [ 119.852867369725729, -0.900298958765158 ], [ 119.852864193265447, -0.901100351393856 ], [ 119.852885381368765, -0.901469471410991 ], [ 119.852856902831405, -0.901498183270917 ], [ 119.852463148348221, -0.901506164252281 ] ] } },
{ "type": "Feature", "properties": { "Id": 0, "Nama_Jalan": "Jl. Belimbing II Lrg II", "Armada": 2.0, "kelurahan": "Kamonji" }, "geometry": { "type": "LineString", "coordinates": [ [ 119.852865892057125, -0.900671744018505 ], [ 119.853993374755134, -0.900688867916214 ] ] } },
{ "type": "Feature", "properties": { "Id": 0, "Nama_Jalan": "Jl. Mangga", "Armada": 2.0, "kelurahan": "Kamonji" }, "geometry": { "type": "LineString", "coordinates": [ [ 119.856108700613333, -0.900676886190794 ], [ 119.854434337720591, -0.90009286748143 ], [ 119.854256187034693, -0.900066709369874 ], [ 119.852398845604526, -0.900022748303063 ], [ 119.852291943121301, -0.899991752340365 ], [ 119.85225626125434, -0.899920056950976 ], [ 119.852272264432898, -0.899119131957936 ], [ 119.852286266091369, -0.898798755986853 ] ] } },
{ "type": "Feature", "properties": { "Id": 0, "Nama_Jalan": "Jl. Lombok", "Armada": 2.0, "kelurahan": "Kamonji" }, "geometry": { "type": "LineString", "coordinates": [ [ 119.85531743411201, -0.903257970063927 ], [ 119.85574469398, -0.901861047999788 ], [ 119.856108700613333, -0.900676886190794 ] ] } },
{ "type": "Feature", "properties": { "Id": 0, "Nama_Jalan": "Jl. Lombok Lrg I", "Armada": 2.0, "kelurahan": "Kamonji" }, "geometry": { "type": "LineString", "coordinates": [ [ 119.855951006136351, -0.901189886787615 ], [ 119.855835932154264, -0.901191291856929 ], [ 119.855311073843254, -0.90123234955851 ], [ 119.855023709163845, -0.901256484250868 ], [ 119.854626664624732, -0.90134286576685 ], [ 119.854544971160394, -0.901354406007551 ], [ 119.854092742831057, -0.901335636816555 ], [ 119.854035264621714, -0.901333769568219 ], [ 119.853996061047255, -0.901314674279333 ], [ 119.853993374755134, -0.900688867916214 ] ] } },
{ "type": "Feature", "properties": { "Id": 0, "Nama_Jalan": "Jl. Lombok Lrg III", "Armada": 2.0, "kelurahan": "Kamonji" }, "geometry": { "type": "LineString", "coordinates": [ [ 119.855493748629229, -0.902685897298024 ], [ 119.854400143008419, -0.902327263582397 ] ] } },
{ "type": "Feature", "properties": { "Id": 0, "Nama_Jalan": "Jl. Lombok Lrg II", "Armada": 2.0, "kelurahan": "Kamonji" }, "geometry": { "type": "LineString", "coordinates": [ [ 119.855640165980063, -0.902200404999807 ], [ 119.854659742544484, -0.901882557833563 ] ] } },
{ "type": "Feature", "properties": { "Id": 0, "Nama_Jalan": "Jl. Durian", "Armada": 21.0, "kelurahan": "Kamonji" }, "geometry": { "type": "LineString", "coordinates": [ [ 119.851634934525691, -0.895691023275194 ], [ 119.849058966963597, -0.895877329496077 ], [ 119.848159514398489, -0.896018492928961 ], [ 119.847432155980485, -0.89627529799993 ] ] } },
{ "type": "Feature", "properties": { "Id": 0, "Nama_Jalan": "Lrg. Kulit Durian", "Armada": 2.0, "kelurahan": "Kamonji" }, "geometry": { "type": "LineString", "coordinates": [ [ 119.852876599340362, -0.895626481117249 ], [ 119.852902602144923, -0.896057889041479 ], [ 119.852943738208893, -0.896732296336265 ], [ 119.852976592202737, -0.89769710748507 ] ] } },
{ "type": "Feature", "properties": { "Id": 0, "Nama_Jalan": "Jl. Nangka", "Armada": 2.0, "kelurahan": "Kamonji" }, "geometry": { "type": "LineString", "coordinates": [ [ 119.854562287002764, -0.897498598690149 ], [ 119.854165753908333, -0.897551971728649 ], [ 119.852859588390587, -0.89771138764624 ], [ 119.851761186945893, -0.897801905158726 ] ] } },
{ "type": "Feature", "properties": { "Id": 0, "Nama_Jalan": "Jl. Nenas", "Armada": 21.0, "kelurahan": "Kamonji" }, "geometry": { "type": "LineString", "coordinates": [ [ 119.85457268398028, -0.898703498999885 ], [ 119.853530936691669, -0.89872435170507 ], [ 119.852163895058084, -0.898789500308664 ], [ 119.851787696740573, -0.89880700988388 ], [ 119.85161287197009, -0.898782283235339 ], [ 119.849896408980456, -0.898864173999867 ] ] } },
{ "type": "Feature", "properties": { "Id": 0, "Nama_Jalan": "Jl. Nenas II", "Armada": 1.0, "kelurahan": "Kamonji" }, "geometry": { "type": "LineString", "coordinates": [ [ 119.850705207606012, -0.898825587097784 ], [ 119.850691469734173, -0.899252677840892 ], [ 119.850691826205377, -0.899711708578368 ] ] } },
{ "type": "Feature", "properties": { "Id": 0, "Nama_Jalan": "Jl. Nenas Lrg I", "Armada": 2.0, "kelurahan": "Kamonji" }, "geometry": { "type": "LineString", "coordinates": [ [ 119.853536789390944, -0.897628736122719 ], [ 119.853556035330385, -0.898013194271454 ], [ 119.853582329967423, -0.89823073462082 ], [ 119.853603833668473, -0.898395681558806 ], [ 119.853604172199539, -0.898722885755599 ] ] } },
{ "type": "Feature", "properties": { "Id": 0, "Nama_Jalan": "Jl. Serikaya I", "Armada": 1.0, "kelurahan": "Kamonji" }, "geometry": { "type": "LineString", "coordinates": [ [ 119.85497974898017, -0.904539250999844 ], [ 119.852803640220785, -0.903846178541242 ] ] } },
{ "type": "Feature", "properties": { "Id": 0, "Nama_Jalan": "Jl. Sarikaya II", "Armada": 1.0, "kelurahan": "Kamonji" }, "geometry": { "type": "LineString", "coordinates": [ [ 119.852995243756908, -0.90323806566914 ], [ 119.853838913951577, -0.903514236178267 ], [ 119.855128418468581, -0.903955370293488 ] ] } },
{ "type": "Feature", "properties": { "Id": 0, "Nama_Jalan": "Jl. Datu Adam", "Armada": 1.0, "kelurahan": "Kamonji" }, "geometry": { "type": "LineString", "coordinates": [ [ 119.847432155980485, -0.89627529799993 ], [ 119.847403665980636, -0.894896116999925 ], [ 119.847382002106855, -0.893874440346957 ] ] } },
{ "type": "Feature", "properties": { "Id": 0, "Nama_Jalan": "Lrg. II", "Armada": 1.0, "kelurahan": "Kamonji" }, "geometry": { "type": "LineString", "coordinates": [ [ 119.847403665980636, -0.894896116999925 ], [ 119.848109646853118, -0.894915699484751 ], [ 119.84827591346405, -0.894929914181047 ], [ 119.84850628133151, -0.894910607642847 ], [ 119.848627412171709, -0.894912903673397 ] ] } },
{ "type": "Feature", "properties": { "Id": 0, "Nama_Jalan": "Jl. Palola Lrg I", "Armada": 1.0, "kelurahan": "Kamonji" }, "geometry": { "type": "LineString", "coordinates": [ [ 119.847446787433697, -0.89669819777113 ], [ 119.847542252406498, -0.896680909257448 ], [ 119.847686191216383, -0.896692272275366 ], [ 119.848194985667575, -0.89675929387121 ], [ 119.848239016811704, -0.896571343130813 ] ] } },
{ "type": "Feature", "properties": { "Id": 0, "Nama_Jalan": "Jl. Tolambu", "Armada": 1.0, "kelurahan": "Kamonji" }, "geometry": { "type": "LineString", "coordinates": [ [ 119.850027345980337, -0.902026622999796 ], [ 119.850041996980337, -0.901359448999854 ], [ 119.850029926775733, -0.900823091035191 ], [ 119.849966530681087, -0.899795345055236 ], [ 119.849896408980456, -0.898864173999867 ], [ 119.849830587980435, -0.898006404999829 ], [ 119.849877418871642, -0.89660634695166 ], [ 119.849931754393026, -0.895811952614795 ] ] } },
{ "type": "Feature", "properties": { "Id": 0, "Nama_Jalan": "Jl. Langsat", "Armada": 1.0, "kelurahan": "Kamonji" }, "geometry": { "type": "LineString", "coordinates": [ [ 119.851761186945893, -0.897801905158726 ], [ 119.849830587980435, -0.898006404999829 ] ] } },
{ "type": "Feature", "properties": { "Id": 0, "Nama_Jalan": "Lrg. Langsat", "Armada": 1.0, "kelurahan": "Kamonji" }, "geometry": { "type": "LineString", "coordinates": [ [ 119.850203257986152, -0.89796692976304 ], [ 119.850192941550134, -0.897211614304356 ] ] } },
{ "type": "Feature", "properties": { "Id": 0, "Nama_Jalan": "Jl. Kangkung", "Armada": 1.0, "kelurahan": "Kamonji" }, "geometry": { "type": "LineString", "coordinates": [ [ 119.850028564980505, -0.900728094999937 ], [ 119.851712093184787, -0.900644783646981 ] ] } },
{ "type": "Feature", "properties": { "Id": 0, "Nama_Jalan": "Jl. Sukun", "Armada": 1.0, "kelurahan": "Kamonji" }, "geometry": { "type": "LineString", "coordinates": [ [ 119.85497974898017, -0.904539250999844 ], [ 119.854859307492802, -0.904934806704244 ] ] } },
{ "type": "Feature", "properties": { "Id": 0, "Nama_Jalan": "Jl. Jamur", "Armada": 1.0, "kelurahan": "Kamonji" }, "geometry": { "type": "LineString", "coordinates": [ [ 119.851897292980269, -0.904620413999909 ], [ 119.851895555370078, -0.905548335341856 ] ] } },
{ "type": "Feature", "properties": { "Id": 0, "Nama_Jalan": "Lrg. Makassar", "Armada": 1.0, "kelurahan": "Kamonji" }, "geometry": { "type": "LineString", "coordinates": [ [ 119.853008392133802, -0.903196335275978 ], [ 119.852481066725758, -0.903121442573862 ] ] } },
{ "type": "Feature", "properties": { "Id": 0, "Nama_Jalan": "Lrg. Delima", "Armada": 1.0, "kelurahan": "Kamonji" }, "geometry": { "type": "LineString", "coordinates": [ [ 119.852315083972741, -0.905966389874141 ], [ 119.852326648830058, -0.905569510713534 ], [ 119.852311193059691, -0.905546810525152 ], [ 119.851895555370078, -0.905548335341856 ] ] } },
{ "type": "Feature", "properties": { "Id": 0, "Nama_Jalan": "Jl. Sarikaya III", "Armada": 1.0, "kelurahan": "Kamonji" }, "geometry": { "type": "LineString", "coordinates": [ [ 119.853214737786303, -0.902540230337505 ], [ 119.853008392133802, -0.903196335275978 ], [ 119.852803640220785, -0.903846178541242 ] ] } },
{ "type": "Feature", "properties": { "Id": 0, "Nama_Jalan": "Jl. Cempedak III", "Armada": 1.0, "kelurahan": "Kamonji" }, "geometry": { "type": "LineString", "coordinates": [ [ 119.853759194003885, -0.905491457136807 ], [ 119.852850948741832, -0.905471138369321 ] ] } },
{ "type": "Feature", "properties": { "Id": 0, "Nama_Jalan": "Jl. Cempedak I", "Armada": 1.0, "kelurahan": "Kamonji" }, "geometry": { "type": "LineString", "coordinates": [ [ 119.852914092189081, -0.904668861464597 ], [ 119.852851771517763, -0.905156630348082 ], [ 119.852850948741832, -0.905471138369321 ], [ 119.852828443337629, -0.905939606955251 ] ] } },
{ "type": "Feature", "properties": { "Id": 0, "Nama_Jalan": "Jl. Cempedak II", "Armada": 1.0, "kelurahan": "Kamonji" }, "geometry": { "type": "LineString", "coordinates": [ [ 119.853759194003885, -0.905491457136807 ], [ 119.853786791120399, -0.905398792526746 ], [ 119.853788451749693, -0.905092771367876 ], [ 119.853831901793157, -0.904771416104577 ] ] } },
{ "type": "Feature", "properties": { "Id": 0, "Nama_Jalan": "Lrg. Cempedak", "Armada": 1.0, "kelurahan": "Kamonji" }, "geometry": { "type": "LineString", "coordinates": [ [ 119.852828443337629, -0.905939606955251 ], [ 119.852343644299594, -0.905969042732454 ], [ 119.851904373039289, -0.906017664743233 ] ] } },
{ "type": "Feature", "properties": { "Id": 0, "Nama_Jalan": "Lrg. Family", "Armada": 1.0, "kelurahan": "Kamonji" }, "geometry": { "type": "LineString", "coordinates": [ [ 119.847461316406196, -0.89705823986207 ], [ 119.847895956329509, -0.897057899135199 ] ] } },
{ "type": "Feature", "properties": { "Id": 0, "Nama_Jalan": "Lrg. Al-Muhajirin", "Armada": 1.0, "kelurahan": "Kamonji" }, "geometry": { "type": "LineString", "coordinates": [ [ 119.850041037109122, -0.901403158875678 ], [ 119.850561563862655, -0.90141253918513 ], [ 119.851217200694308, -0.901560250832009 ], [ 119.851784843982045, -0.901559803006136 ] ] } },
{ "type": "Feature", "properties": { "Id": 0, "Nama_Jalan": "Lrg. Kulit Ular", "Armada": 1.0, "kelurahan": "Kamonji" }, "geometry": { "type": "LineString", "coordinates": [ [ 119.849949630395628, -0.899570921099013 ], [ 119.850288919433112, -0.899552616927826 ] ] } },
{ "type": "Feature", "properties": { "Id": 0, "Nama_Jalan": "Jl. Kedondong", "Armada": 1.0, "kelurahan": "Kamonji" }, "geometry": { "type": "LineString", "coordinates": [ [ 119.847432155980485, -0.89627529799993 ], [ 119.846909785528453, -0.896545503023416 ], [ 119.846789201174076, -0.896635969512397 ], [ 119.846669560557245, -0.896718306574178 ], [ 119.846591694784422, -0.896766183472715 ], [ 119.846443542789046, -0.896835154437248 ], [ 119.84641314467126, -0.896839003523624 ] ] } },
{ "type": "Feature", "properties": { "Id": 0, "Nama_Jalan": "Lrg. Kedondong", "Armada": 1.0, "kelurahan": "Kamonji" }, "geometry": { "type": "LineString", "coordinates": [ [ 119.84641314467126, -0.896839003523624 ], [ 119.846436022037992, -0.897807895310264 ], [ 119.846449424636248, -0.898246595760706 ], [ 119.846477967594623, -0.898351848054368 ] ] } },
{ "type": "Feature", "properties": { "Id": 0, "Nama_Jalan": "Jl. Mangga Lrg. III", "Armada": 2.0, "kelurahan": "Kamonji" }, "geometry": { "type": "LineString", "coordinates": [ [ 119.854975459877139, -0.900281611401317 ], [ 119.85490942650253, -0.900738786918948 ], [ 119.854902441329131, -0.900918578916426 ] ] } },
{ "type": "Feature", "properties": { "Id": 0, "Nama_Jalan": "Jl. Mangga Lrg. IV", "Armada": 2.0, "kelurahan": "Kamonji" }, "geometry": { "type": "LineString", "coordinates": [ [ 119.854341239159439, -0.900079197692616 ], [ 119.854216494935301, -0.900427815151836 ], [ 119.854212416344112, -0.90068028464949 ], [ 119.853993374755134, -0.900688867916214 ] ] } },
{ "type": "Feature", "properties": { "Id": 0, "Nama_Jalan": "Lrg. Mangga II", "Armada": 2.0, "kelurahan": "Kamonji" }, "geometry": { "type": "LineString", "coordinates": [ [ 119.855577336030677, -0.900491546136844 ], [ 119.855533275364095, -0.900633578550233 ], [ 119.855492168208499, -0.900914766308578 ], [ 119.854902441329131, -0.900918578916426 ], [ 119.853994452139915, -0.900939868080531 ] ] } },
{ "type": "Feature", "properties": { "Id": 0, "Nama_Jalan": "Lrg. Mangga Tenun Indosutra", "Armada": 2.0, "kelurahan": "Kamonji" }, "geometry": { "type": "LineString", "coordinates": [ [ 119.85354561106513, -0.900049891001494 ], [ 119.853519518381887, -0.899344026222036 ] ] } },
{ "type": "Feature", "properties": { "Id": 0, "Nama_Jalan": "Lrg. Mangga", "Armada": 2.0, "kelurahan": "Kamonji" }, "geometry": { "type": "LineString", "coordinates": [ [ 119.852830868806691, -0.900032973871072 ], [ 119.85285185746632, -0.899613754027775 ], [ 119.852970032378551, -0.899480255328563 ] ] } },
{ "type": "Feature", "properties": { "Id": 0, "Nama_Jalan": "Lrg. Mangga III", "Armada": 2.0, "kelurahan": "Kamonji" }, "geometry": { "type": "LineString", "coordinates": [ [ 119.855208872281707, -0.900363025806736 ], [ 119.855373664421151, -0.899862798553855 ], [ 119.856270504641472, -0.900159769718048 ] ] } },
{ "type": "Feature", "properties": { "Id": 0, "Nama_Jalan": "Lrg. Nangka I", "Armada": 2.0, "kelurahan": "Kamonji" }, "geometry": { "type": "LineString", "coordinates": [ [ 119.853772863608285, -0.897599923544849 ], [ 119.853810110163451, -0.897023536843218 ] ] } },
{ "type": "Feature", "properties": { "Id": 0, "Nama_Jalan": "Lrg. Datu Pamusu I", "Armada": 2.0, "kelurahan": "Kamonji" }, "geometry": { "type": "LineString", "coordinates": [ [ 119.852944249394298, -0.896747308314989 ], [ 119.854636153781541, -0.896734122338985 ] ] } },
{ "type": "Feature", "properties": { "Id": 0, "Nama_Jalan": "Jl. Durian Lorong", "Armada": 2.0, "kelurahan": "Kamonji" }, "geometry": { "type": "LineString", "coordinates": [ [ 119.852303163585617, -0.897757241758839 ], [ 119.852268999148549, -0.897244022566419 ], [ 119.852209122217602, -0.896598558071762 ], [ 119.852192509713063, -0.896001831561056 ], [ 119.852166661613509, -0.895649105539606 ] ] } },
{ "type": "Feature", "properties": { "Id": 0, "Nama_Jalan": "Lrg. Nangka II", "Armada": 2.0, "kelurahan": "Kamonji" }, "geometry": { "type": "LineString", "coordinates": [ [ 119.852270262598566, -0.897263002213848 ], [ 119.852959441948983, -0.897193465306792 ] ] } },
{ "type": "Feature", "properties": { "Id": 0, "Nama_Jalan": "Lrg. Datu Pamusu II", "Armada": 2.0, "kelurahan": "Kamonji" }, "geometry": { "type": "LineString", "coordinates": [ [ 119.854620314921604, -0.89804394660985 ], [ 119.855221674121395, -0.898033432203034 ], [ 119.855464651823382, -0.897998480337949 ] ] } },
{ "type": "Feature", "properties": { "Id": 0, "Nama_Jalan": "Lrg. Nenas", "Armada": 2.0, "kelurahan": "Kamonji" }, "geometry": { "type": "LineString", "coordinates": [ [ 119.854184866956828, -0.898711261984585 ], [ 119.854128508995402, -0.899205535023707 ] ] } },
{ "type": "Feature", "properties": { "Id": 0, "Nama_Jalan": "Jl. Nenas Lrg. Cathering", "Armada": 2.0, "kelurahan": "Kamonji" }, "geometry": { "type": "LineString", "coordinates": [ [ 119.852931219899943, -0.898752932243306 ], [ 119.852913612389287, -0.898227227386949 ], [ 119.852920686941516, -0.897703930648854 ] ] } },
{ "type": "Feature", "properties": { "Id": 0, "Nama_Jalan": "Lrg. Nenas II", "Armada": 2.0, "kelurahan": "Kamonji" }, "geometry": { "type": "LineString", "coordinates": [ [ 119.853168414550964, -0.89874162833316 ], [ 119.853172471314139, -0.89911388416163 ], [ 119.853047149264256, -0.899219177210068 ], [ 119.853022507962947, -0.899295701623843 ] ] } }
]
}
