{
"type": "FeatureCollection",
"name": "Kawatuna",
"crs": { "type": "name", "properties": { "name": "urn:ogc:def:crs:OGC:1.3:CRS84" } },
"features": [
{ "type": "Feature", "properties": { "Id": 0, "Nama_Jalan": "BTN Bumi Kawatuna Indah", "Armada": null, "kelurahan": "Kawatuna" }, "geometry": { "type": "LineString", "coordinates": [ [ 119.915226897607894, -0.90363017098078 ], [ 119.915851085351377, -0.903695648216603 ], [ 119.915873896248129, -0.903709973662107 ], [ 119.915876771364836, -0.903741527899453 ], [ 119.915847055472852, -0.904002610771902 ], [ 119.915844231880072, -0.904035604008486 ], [ 119.915798965149563, -0.904451613523186 ] ] } },
{ "type": "Feature", "properties": { "Id": 0, "Nama_Jalan": "BTN Bumi Kawatuna Indah", "Armada": null, "kelurahan": "Kawatuna" }, "geometry": { "type": "LineString", "coordinates": [ [ 119.915178698274502, -0.903942906986872 ], [ 119.915847055472852, -0.904002610771902 ], [ 119.916476934807847, -0.904058042331056 ] ] } },
{ "type": "Feature", "properties": { "Id": 0, "Nama_Jalan": "BTN Bumi Kawatuna Indah", "Armada": null, "kelurahan": "Kawatuna" }, "geometry": { "type": "LineString", "coordinates": [ [ 119.915153285887385, -0.904239846293595 ], [ 119.915813768658879, -0.904315566425151 ], [ 119.916776453537523, -0.904403487476529 ] ] } },
{ "type": "Feature", "properties": { "Id": 0, "Nama_Jalan": "BTN Griya Bukit Mamara", "Armada": null, "kelurahan": "Kawatuna" }, "geometry": { "type": "LineString", "coordinates": [ [ 119.92144217548217, -0.917598591695313 ], [ 119.922364118590451, -0.91758779244579 ], [ 119.922396370205902, -0.917563347565141 ], [ 119.922377663985529, -0.917339599559172 ], [ 119.922347725795092, -0.917322411619901 ], [ 119.922286948135152, -0.91731388920219 ], [ 119.921403472069628, -0.917316050277857 ] ] } },
{ "type": "Feature", "properties": { "Id": 0, "Nama_Jalan": "BTN Griya Bukit Mamara", "Armada": null, "kelurahan": "Kawatuna" }, "geometry": { "type": "LineString", "coordinates": [ [ 119.922218570875998, -0.917314056467974 ], [ 119.922215660404134, -0.917265178894087 ], [ 119.922128539742019, -0.917021405773376 ], [ 119.921552869754734, -0.917040526096553 ] ] } },
{ "type": "Feature", "properties": { "Id": 0, "Nama_Jalan": "Jl. Vatunonju I", "Armada": null, "kelurahan": "Kawatuna" }, "geometry": { "type": "LineString", "coordinates": [ [ 119.922482654831384, -0.907969535073661 ], [ 119.922968850056265, -0.907731988275097 ], [ 119.923324022735613, -0.90758634858656 ], [ 119.923432304135858, -0.907567135359168 ], [ 119.924002248526151, -0.907518858615153 ] ] } },
{ "type": "Feature", "properties": { "Id": 0, "Nama_Jalan": "Jl. Vatunonju II", "Armada": null, "kelurahan": "Kawatuna" }, "geometry": { "type": "LineString", "coordinates": [ [ 119.922991473781494, -0.908616344830953 ], [ 119.923209415086603, -0.908520063745295 ], [ 119.923280649142342, -0.908502793130295 ], [ 119.923920351232553, -0.908373177594196 ], [ 119.923990154512538, -0.908348736257868 ], [ 119.924102684570812, -0.908297006903002 ], [ 119.92419100073748, -0.908258206697384 ] ] } },
{ "type": "Feature", "properties": { "Id": 0, "Nama_Jalan": "Jl. Bandes", "Armada": null, "kelurahan": "Kawatuna" }, "geometry": { "type": "LineString", "coordinates": [ [ 119.918559673096439, -0.913455218577131 ], [ 119.918621711624411, -0.913454838953746 ], [ 119.918775787920907, -0.91341445078091 ], [ 119.91926204288589, -0.913249098651471 ], [ 119.920043653306351, -0.912975926155153 ], [ 119.920438267459119, -0.912850811935856 ], [ 119.920560777235067, -0.912804811443066 ], [ 119.920703220263547, -0.912738713286811 ], [ 119.921157594564306, -0.912504537201094 ], [ 119.921290309920607, -0.912450400236852 ], [ 119.92143039837066, -0.912409644814692 ], [ 119.921501632951603, -0.912392852086443 ], [ 119.921591857366295, -0.912364090642758 ], [ 119.92169988607175, -0.9123257520925 ], [ 119.921823345091838, -0.912279033698463 ], [ 119.922131985339504, -0.912153272863954 ], [ 119.922382470486426, -0.91206580979508 ], [ 119.922435892995082, -0.912049031654081 ], [ 119.922585479092263, -0.912005877875851 ], [ 119.922806303516694, -0.911950712661045 ], [ 119.922904841046119, -0.91192313977021 ], [ 119.923171957284055, -0.91184403037038 ], [ 119.923275238852455, -0.911809281708997 ], [ 119.923398696716475, -0.911761368068078 ], [ 119.923486534451769, -0.911718264834759 ], [ 119.923558933195679, -0.91167278360248 ], [ 119.923750001299794, -0.911531580038973 ], [ 119.923850877005037, -0.911458583271249 ], [ 119.923938699267254, -0.91139635503009 ], [ 119.924170144013729, -0.91125870446959 ], [ 119.924298331372498, -0.911185685408533 ], [ 119.92443720396821, -0.911110266992066 ], [ 119.924788557418083, -0.910941440291551 ] ] } },
{ "type": "Feature", "properties": { "Id": 0, "Nama_Jalan": "BTN Graha Khayangan Kawatuna", "Armada": null, "kelurahan": "Kawatuna" }, "geometry": { "type": "LineString", "coordinates": [ [ 119.935434277140942, -0.917113872400204 ], [ 119.93557962394101, -0.917116621040507 ], [ 119.936089789444608, -0.917159230380398 ], [ 119.936436074417315, -0.917187631440752 ], [ 119.936481665621031, -0.917178987581994 ], [ 119.936508717334831, -0.917151712333941 ], [ 119.93652862677655, -0.917102927552251 ], [ 119.936535552629522, -0.916859080199965 ], [ 119.935529961155382, -0.916792017729169 ], [ 119.935510940057242, -0.916765258647418 ], [ 119.935505202863723, -0.916719363742526 ], [ 119.935537323559316, -0.916500835794894 ], [ 119.935568658332272, -0.916483597557386 ], [ 119.936537647649871, -0.9165157877064 ], [ 119.936551657437491, -0.916221731822022 ], [ 119.935585507594283, -0.91617662980307 ] ] } },
{ "type": "Feature", "properties": { "Id": 0, "Nama_Jalan": "Jl. Raksatama", "Armada": null, "kelurahan": "Kawatuna" }, "geometry": { "type": "LineString", "coordinates": [ [ 119.919629595105505, -0.910737116542636 ], [ 119.919922756709809, -0.910899584952245 ], [ 119.919983321495948, -0.910904316795284 ], [ 119.920534105838726, -0.910654045426546 ], [ 119.920741822316288, -0.910541515887244 ], [ 119.92078693359602, -0.910525939921432 ], [ 119.92084511472676, -0.910519915841018 ], [ 119.920959113596567, -0.910522213434628 ], [ 119.921225360284666, -0.910542316529173 ], [ 119.92175620162098, -0.910595672476693 ], [ 119.921844084791942, -0.910608749216783 ], [ 119.922011542699636, -0.910639690739779 ], [ 119.922088740577209, -0.91065516682834 ], [ 119.922143366945633, -0.910658708170737 ], [ 119.922696487454175, -0.910361817802927 ], [ 119.922755839571167, -0.910335472366163 ], [ 119.922836568963405, -0.910312695426441 ], [ 119.922898294077697, -0.910283957422057 ], [ 119.92353450593788, -0.909948749369727 ], [ 119.923781353242788, -0.909768055141159 ] ] } },
{ "type": "Feature", "properties": { "Id": 0, "Nama_Jalan": "Jl. Togoa", "Armada": null, "kelurahan": "Kawatuna" }, "geometry": { "type": "LineString", "coordinates": [ [ 119.919619365123722, -0.910763306727308 ], [ 119.919497674251019, -0.91073280219944 ], [ 119.919305296437642, -0.910723396606155 ], [ 119.919248306541888, -0.910734200991135 ], [ 119.919096351758768, -0.910785723766593 ], [ 119.918940858605239, -0.910867132462108 ], [ 119.918895748205955, -0.910883903764452 ], [ 119.918844697564595, -0.910897093951113 ], [ 119.91853480526251, -0.910943964330043 ], [ 119.918501568591324, -0.910959530627102 ], [ 119.91845528128917, -0.910989451431342 ], [ 119.918328313333944, -0.91110311058382 ], [ 119.918249986443655, -0.911160549940997 ], [ 119.91818470729261, -0.911200048829502 ], [ 119.918118234890315, -0.911232376763817 ], [ 119.917874869655648, -0.911315052581029 ] ] } },
{ "type": "Feature", "properties": { "Id": 0, "Nama_Jalan": "Jl. Kamategila", "Armada": null, "kelurahan": "Kawatuna" }, "geometry": { "type": "LineString", "coordinates": [ [ 119.91960550862585, -0.91818842436548 ], [ 119.919970176781717, -0.918133598367163 ], [ 119.920652883469899, -0.918023067246652 ], [ 119.921185989818738, -0.917938956245936 ], [ 119.921320171042439, -0.917935259868614 ], [ 119.921400915126995, -0.917930412146129 ], [ 119.921441278429469, -0.917917230426909 ], [ 119.921460254649929, -0.917888527171224 ], [ 119.921463764638119, -0.917823977095414 ], [ 119.921396867459535, -0.917332756299452 ], [ 119.921358620096711, -0.917026786244964 ] ] } },
{ "type": "Feature", "properties": { "Id": 0, "Nama_Jalan": "Lrg. Melati", "Armada": null, "kelurahan": "Kawatuna" }, "geometry": { "type": "LineString", "coordinates": [ [ 119.917789833281361, -0.904217856175774 ], [ 119.917837314864627, -0.904196301930744 ], [ 119.918015423793221, -0.904181813853018 ], [ 119.918832324897991, -0.904084331298678 ], [ 119.919043672256237, -0.904056667752697 ], [ 119.919136281383715, -0.904039858257713 ], [ 119.919176642872515, -0.904024286398846 ], [ 119.919271603994119, -0.903978787303492 ], [ 119.919340461836441, -0.903959606406923 ], [ 119.9197096935237, -0.903870853660515 ], [ 119.92034722184799, -0.903693429979879 ], [ 119.920423203461041, -0.903673048009572 ], [ 119.920458813122337, -0.903655089377109 ], [ 119.920488474941152, -0.903623987049234 ], [ 119.920499131566075, -0.903585728198164 ], [ 119.920497913528791, -0.903547478964216 ], [ 119.920329468076886, -0.903023228676473 ], [ 119.920321124307748, -0.902983789883011 ], [ 119.920310383651454, -0.902916860677984 ], [ 119.920304387137577, -0.902842755715306 ], [ 119.920313045158196, -0.902680902437304 ], [ 119.920315802320658, -0.902564715142885 ], [ 119.920305788673403, -0.902515954203251 ], [ 119.92022586844071, -0.902362539798136 ], [ 119.920190167758207, -0.902266464962912 ], [ 119.920143015907939, -0.902105852111524 ], [ 119.920115800929054, -0.901929444909841 ] ] } },
{ "type": "Feature", "properties": { "Id": 0, "Nama_Jalan": "Jl. Mamara", "Armada": null, "kelurahan": "Kawatuna" }, "geometry": { "type": "LineString", "coordinates": [ [ 119.921165803053057, -0.906751352546855 ], [ 119.921086106558135, -0.90687764298888 ], [ 119.920991222766631, -0.907019245876534 ], [ 119.920915339985342, -0.907162745844739 ], [ 119.920866047265349, -0.907294749143118 ], [ 119.92082819415819, -0.907476468418567 ], [ 119.920807416035188, -0.907627573646405 ], [ 119.920801808332584, -0.907742328836685 ], [ 119.920777262603252, -0.907933599859489 ], [ 119.920754575369727, -0.908073231592844 ], [ 119.920726185233718, -0.908209042952995 ], [ 119.920688284612694, -0.908331474488407 ], [ 119.920623812387348, -0.908488352861663 ], [ 119.920542263694145, -0.908673932822523 ], [ 119.920358263839418, -0.909041284826698 ], [ 119.920170497979484, -0.90945071526499 ], [ 119.91985000809369, -0.910198768680786 ], [ 119.919721056238345, -0.910502963307282 ], [ 119.919225241168448, -0.911772320247427 ], [ 119.91881698515445, -0.912798836905333 ], [ 119.918636262389626, -0.91325320677431 ], [ 119.918576997379347, -0.913387728909533 ], [ 119.918556281772709, -0.913468430052686 ], [ 119.918559334909219, -0.913573018178449 ], [ 119.918687437118535, -0.914128737747963 ], [ 119.918786581229611, -0.91455729873821 ], [ 119.91895440376598, -0.91533172925051 ], [ 119.919169398328236, -0.916288287687748 ], [ 119.919419656958667, -0.917385386447967 ], [ 119.919802177742753, -0.919038199670091 ], [ 119.920177655175323, -0.920787838409484 ], [ 119.920346369421537, -0.92163075800291 ] ] } },
{ "type": "Feature", "properties": { "Id": 0, "Nama_Jalan": "Jl. Uwentumbu", "Armada": null, "kelurahan": "Kawatuna" }, "geometry": { "type": "LineString", "coordinates": [ [ 119.921879799336878, -0.907274142020218 ], [ 119.921915753975838, -0.907094336964378 ], [ 119.921963112916004, -0.906920260170554 ], [ 119.922042772479259, -0.906748069634919 ], [ 119.922103480176531, -0.906635182285213 ], [ 119.922124341207379, -0.906587352619101 ], [ 119.922147039274805, -0.906461108626238 ], [ 119.922184967594916, -0.906373102421404 ], [ 119.922221026655876, -0.906323347902315 ], [ 119.922296983017404, -0.906271648451087 ], [ 119.922450824815854, -0.906204585642514 ], [ 119.922511592347121, -0.906166286102267 ], [ 119.922560954075635, -0.906120345804938 ], [ 119.922614097283684, -0.906051452349383 ], [ 119.922707079492653, -0.905907938744423 ], [ 119.922775408446228, -0.905821820403347 ], [ 119.922841858924244, -0.905762478695406 ], [ 119.923384958876412, -0.90540822378628 ] ] } },
{ "type": "Feature", "properties": { "Id": 0, "Nama_Jalan": "Lrg. Paving", "Armada": null, "kelurahan": "Kawatuna" }, "geometry": { "type": "LineString", "coordinates": [ [ 119.919878401891779, -0.910132494854641 ], [ 119.920218716178951, -0.910280765700936 ], [ 119.920237729537916, -0.910297962792885 ], [ 119.920241551765528, -0.910325691090106 ], [ 119.920243480203425, -0.910361070977815 ], [ 119.920253007672898, -0.910395488409698 ], [ 119.920270141104126, -0.910437549680458 ], [ 119.920388033371779, -0.91072041941696 ] ] } },
{ "type": "Feature", "properties": { "Id": 0, "Nama_Jalan": "BTN Bumi Indah Perintis", "Armada": null, "kelurahan": "Kawatuna" }, "geometry": { "type": "LineString", "coordinates": [ [ 119.926206557745743, -0.913956344971793 ], [ 119.926014245548757, -0.914026787237017 ], [ 119.925943037218047, -0.914075614472278 ], [ 119.925871864904039, -0.914168907347807 ], [ 119.925814967725984, -0.914293744795027 ], [ 119.925763784330826, -0.914435790079917 ], [ 119.925719685048463, -0.914527626382783 ], [ 119.925669869665654, -0.914599386114755 ], [ 119.925292207098693, -0.914539452388658 ], [ 119.924729297510268, -0.914476801883482 ], [ 119.924666597012191, -0.914473984592224 ], [ 119.924648354946413, -0.914822553385486 ], [ 119.924688271225037, -0.914844036277403 ], [ 119.925521939171432, -0.914926545485413 ], [ 119.925543328652594, -0.914945174812519 ], [ 119.925536265498209, -0.915021202580572 ], [ 119.92554059386876, -0.915087180353449 ], [ 119.925554951615851, -0.915220565589699 ], [ 119.92554358685112, -0.915263606229363 ], [ 119.925513680187237, -0.915285146455956 ], [ 119.925452412817222, -0.915292368686171 ], [ 119.925352647151115, -0.915269500635147 ], [ 119.924702817280661, -0.915209790669603 ], [ 119.924652923953985, -0.915185447230926 ], [ 119.924640058627446, -0.915135254573344 ], [ 119.924631449577319, -0.915062108372625 ], [ 119.924637007583783, -0.914887109707093 ] ] } }
]
}
