{
"type": "FeatureCollection",
"name": "Kayumalue Pajeko",
"crs": { "type": "name", "properties": { "name": "urn:ogc:def:crs:OGC:1.3:CRS84" } },
"features": [
{ "type": "Feature", "properties": { "Id": 0, "Nama_Jalan": "Jl. Rendelele", "Armada": null, "kelurahan": "Kayumalue Pajeko" }, "geometry": { "type": "LineString", "coordinates": [ [ 119.866744957007839, -0.763875089371578 ], [ 119.866428070633248, -0.76385583751568 ], [ 119.86465108123825, -0.763616401362232 ], [ 119.86305373506228, -0.763345524245795 ], [ 119.862084661572169, -0.76321707285846 ], [ 119.860733159606411, -0.763002809652268 ], [ 119.859362656393884, -0.762788558226847 ] ] } },
{ "type": "Feature", "properties": { "Id": 0, "Nama_Jalan": "Jl. Datu Pamusu", "Armada": "Kaisar", "kelurahan": "Kayumalue Pajeko" }, "geometry": { "type": "LineString", "coordinates": [ [ 119.863108779457363, -0.7633548586621 ], [ 119.863118185463449, -0.763037102534509 ], [ 119.863170588141031, -0.762550786480869 ], [ 119.863247466077325, -0.761724487796548 ], [ 119.863257793726106, -0.761539435945669 ], [ 119.863254825369609, -0.761360130820801 ], [ 119.863280581593912, -0.76080187079498 ], [ 119.86328590122433, -0.760225215582782 ], [ 119.863276840955777, -0.759450614925483 ], [ 119.863289862483541, -0.759027919615169 ] ] } },
{ "type": "Feature", "properties": { "Id": 0, "Nama_Jalan": "Jl. Rata Lembah", "Armada": null, "kelurahan": "Kayumalue Pajeko" }, "geometry": { "type": "LineString", "coordinates": [ [ 119.865521276844746, -0.759077462339076 ], [ 119.86387173560162, -0.759037214056984 ], [ 119.862306606961084, -0.759000005690487 ], [ 119.861323353668922, -0.758976753482781 ], [ 119.860837893460882, -0.758952691183861 ], [ 119.860147670773813, -0.758913703380082 ] ] } },
{ "type": "Feature", "properties": { "Id": 0, "Nama_Jalan": "Jl. Kayu Rampe", "Armada": "Kaisar", "kelurahan": "Kayumalue Pajeko" }, "geometry": { "type": "LineString", "coordinates": [ [ 119.861290193136085, -0.758976775583353 ], [ 119.861145612774081, -0.760143565711521 ], [ 119.860996258250495, -0.761452012216356 ], [ 119.860963736413638, -0.76303936468154 ] ] } },
{ "type": "Feature", "properties": { "Id": 0, "Nama_Jalan": "Jl. Lamarani", "Armada": null, "kelurahan": "Kayumalue Pajeko" }, "geometry": { "type": "LineString", "coordinates": [ [ 119.865415773269902, -0.756801507163697 ], [ 119.86372171031222, -0.75678414187685 ], [ 119.862422599912165, -0.756779028822933 ], [ 119.861655477705241, -0.756768182606122 ] ] } },
{ "type": "Feature", "properties": { "Id": 0, "Nama_Jalan": "Jl. Pagaru Lembah", "Armada": null, "kelurahan": "Kayumalue Pajeko" }, "geometry": { "type": "LineString", "coordinates": [ [ 119.861290193136085, -0.758976775583353 ], [ 119.861363095445128, -0.75836050719374 ], [ 119.861539177379669, -0.757422731851381 ], [ 119.861664547253, -0.756655212938613 ], [ 119.861724166055282, -0.756303730903974 ], [ 119.861790770780772, -0.755739944369906 ], [ 119.861836506715008, -0.755223030725583 ], [ 119.861833578827415, -0.755103972594569 ], [ 119.861765338480637, -0.754620605235381 ], [ 119.861645115027912, -0.753817387898246 ], [ 119.861536758265402, -0.753000774253745 ] ] } },
{ "type": "Feature", "properties": { "Id": 0, "Nama_Jalan": "Jl. Pua Kodi", "Armada": "Kaisar", "kelurahan": "Kayumalue Pajeko" }, "geometry": { "type": "LineString", "coordinates": [ [ 119.861536758265402, -0.753000774253745 ], [ 119.861505549579206, -0.752917845691606 ], [ 119.861470902007099, -0.752595115284838 ], [ 119.861432846401613, -0.752509072882138 ], [ 119.861151102311922, -0.752033018473649 ], [ 119.860995571027516, -0.751713236642737 ], [ 119.860915623581207, -0.75148521028741 ], [ 119.860851378981664, -0.751300207340041 ], [ 119.86066434809365, -0.750749497988196 ], [ 119.860597260187006, -0.750574538049923 ], [ 119.860424596923011, -0.750204561008381 ], [ 119.860377525012296, -0.750131434519099 ], [ 119.860311927421535, -0.750056885760161 ], [ 119.860209267280723, -0.74996227893997 ], [ 119.859821324548207, -0.749656130521383 ] ] } },
{ "type": "Feature", "properties": { "Id": 0, "Nama_Jalan": "Jl. Datu Masuci", "Armada": null, "kelurahan": "Kayumalue Pajeko" }, "geometry": { "type": "LineString", "coordinates": [ [ 119.860147670773813, -0.758913703380065 ], [ 119.860115516375586, -0.758958442516627 ], [ 119.860090617661527, -0.759017032923078 ], [ 119.860062175509313, -0.759104553988109 ], [ 119.859930102995904, -0.759790314384816 ], [ 119.859677794892747, -0.761102656198112 ], [ 119.859438113149295, -0.762292224110737 ], [ 119.859362656393884, -0.762788558226847 ] ] } },
{ "type": "Feature", "properties": { "Id": 0, "Nama_Jalan": "Jl. Datu Kumbili", "Armada": "Kaisar", "kelurahan": "Kayumalue Pajeko" }, "geometry": { "type": "LineString", "coordinates": [ [ 119.863475617858242, -0.756783173333862 ], [ 119.863358914376846, -0.758264752909101 ], [ 119.863342357184109, -0.758728571638357 ], [ 119.863342330954126, -0.759024628399508 ] ] } },
{ "type": "Feature", "properties": { "Id": 0, "Nama_Jalan": "Jl. Kekentina", "Armada": null, "kelurahan": "Kayumalue Pajeko" }, "geometry": { "type": "LineString", "coordinates": [ [ 119.867781288086761, -0.76882226528929 ], [ 119.867686289566635, -0.76882232956858 ], [ 119.866477757088106, -0.768597459878937 ], [ 119.864897698448971, -0.768252824322767 ], [ 119.864508626262733, -0.76817467022071 ], [ 119.864293430120057, -0.768138954149233 ], [ 119.863657828775999, -0.768050446979431 ], [ 119.862916761139516, -0.767936190547716 ], [ 119.86165503882377, -0.767732392200895 ], [ 119.860062215047265, -0.767486260424391 ] ] } },
{ "type": "Feature", "properties": { "Id": 0, "Nama_Jalan": "Jl. Trans Sulawesi", "Armada": null, "kelurahan": "Kayumalue Pajeko" }, "geometry": { "type": "LineString", "coordinates": [ [ 119.867781288086761, -0.76882226528929 ], [ 119.867675930392977, -0.768222090507788 ], [ 119.867502661088309, -0.766976075655765 ], [ 119.867362991752728, -0.766098715896947 ], [ 119.867233834625694, -0.765398957748542 ], [ 119.866744957007839, -0.763875089371578 ], [ 119.866248566771489, -0.762333477709738 ], [ 119.865941584341314, -0.761407863357592 ], [ 119.865771947767755, -0.760771438120935 ], [ 119.865717769004519, -0.760546743277677 ], [ 119.865639145966583, -0.760169056342324 ], [ 119.865562833394065, -0.759693346786414 ], [ 119.865521276844746, -0.759077462339076 ], [ 119.865463583651348, -0.757745543938014 ], [ 119.865415773269902, -0.756801507163697 ], [ 119.865379100038879, -0.755674606931374 ], [ 119.865265771700436, -0.753977842236007 ], [ 119.865156691469181, -0.752417945249993 ], [ 119.86498837029842, -0.751058910730548 ], [ 119.864945373380792, -0.750678808599277 ], [ 119.864888110499962, -0.750273612888851 ], [ 119.864630616880405, -0.748738915658945 ], [ 119.86438017824598, -0.747093042772502 ], [ 119.86406289867125, -0.74491407347214 ], [ 119.863814880059934, -0.743329161679174 ] ] } },
{ "type": "Feature", "properties": { "Id": 0, "Nama_Jalan": "Jl. Lapaturuki", "Armada": null, "kelurahan": "Kayumalue Pajeko" }, "geometry": { "type": "LineString", "coordinates": [ [ 119.860650253797914, -0.753129109364704 ], [ 119.863982469101614, -0.752633963686905 ], [ 119.86515875606699, -0.75244747023109 ] ] } },
{ "type": "Feature", "properties": { "Id": 0, "Nama_Jalan": "BTN Loji", "Armada": "Kaisar", "kelurahan": "Kayumalue Pajeko" }, "geometry": { "type": "LineString", "coordinates": [ [ 119.864066290633332, -0.750167002673024 ], [ 119.863874909371248, -0.749499150439459 ], [ 119.863816782574204, -0.749225685739633 ], [ 119.86373808740484, -0.74873085012068 ], [ 119.863478776163518, -0.748784095646136 ], [ 119.863557462024417, -0.749264586819203 ], [ 119.863668990654716, -0.749849771602297 ], [ 119.863731886504581, -0.750152400442069 ], [ 119.863766104610633, -0.750181067008504 ], [ 119.863804590179996, -0.750198255109178 ], [ 119.863865868840122, -0.750205386986019 ], [ 119.863931413092757, -0.750198171487727 ], [ 119.864048247156092, -0.750176577610026 ], [ 119.864207554705345, -0.750149542980914 ], [ 119.864259837276947, -0.7502009098344 ], [ 119.864350074088165, -0.750182919632358 ], [ 119.864430802495946, -0.75015178652657 ], [ 119.864569683177848, -0.750068018381683 ], [ 119.864707370919476, -0.749975883384493 ], [ 119.864747731999898, -0.749955535325276 ], [ 119.864831959552987, -0.74993894671772 ] ] } },
{ "type": "Feature", "properties": { "Id": 0, "Nama_Jalan": "Kompleks Lai", "Armada": null, "kelurahan": "Kayumalue Pajeko" }, "geometry": { "type": "LineString", "coordinates": [ [ 119.862760532181582, -0.752815535762658 ], [ 119.862792450294378, -0.753030747023228 ], [ 119.862822047851836, -0.753257371722764 ], [ 119.862864830876205, -0.75403577563523 ], [ 119.862857854176028, -0.754262424530605 ], [ 119.862608480924763, -0.754259720865858 ], [ 119.862474536601113, -0.754265547451292 ], [ 119.862366264408124, -0.75430578401712 ], [ 119.862377771187596, -0.754469304607917 ], [ 119.862369243825654, -0.754503737252519 ], [ 119.862342182343923, -0.754523837601593 ], [ 119.862295170204575, -0.754542516716849 ], [ 119.861767177990629, -0.75463363507058 ] ] } },
{ "type": "Feature", "properties": { "Id": 0, "Nama_Jalan": "Kompleks Lapangan Lai", "Armada": "Kaisar", "kelurahan": "Kayumalue Pajeko" }, "geometry": { "type": "LineString", "coordinates": [ [ 119.862864316930896, -0.754052471895183 ], [ 119.863040363604, -0.754070564467127 ], [ 119.863055512733652, -0.753993093742201 ], [ 119.863130544108415, -0.753966267500853 ], [ 119.86330440462595, -0.753986234711575 ] ] } }
]
}
