{
"type": "FeatureCollection",
"name": "Kayumalue Ngapa",
"crs": { "type": "name", "properties": { "name": "urn:ogc:def:crs:OGC:1.3:CRS84" } },
"features": [
{ "type": "Feature", "properties": { "Id": 0, "Nama_Jalan": "Jl. Ndatengisi", "Armada": "Pick Up", "kelurahan": "Kayumalue Ngapa" }, "geometry": { "type": "LineString", "coordinates": [ [ 119.865157671180171, -0.752431955703276 ], [ 119.866361265667905, -0.752259403192822 ], [ 119.866670468140796, -0.752233378421704 ], [ 119.868316952017622, -0.752303771930959 ], [ 119.869555751708347, -0.752341203350315 ], [ 119.870116124316922, -0.752330337023288 ] ] } },
{ "type": "Feature", "properties": { "Id": 0, "Nama_Jalan": "Jl. Ndatengisi", "Armada": "Kaisar", "kelurahan": "Kayumalue Ngapa" }, "geometry": { "type": "LineString", "coordinates": [ [ 119.870116124316922, -0.752330337023288 ], [ 119.870695083584906, -0.752319496332043 ], [ 119.871474223896598, -0.7523231966233 ], [ 119.872561499077023, -0.752361205662721 ], [ 119.872896370813137, -0.752368155764096 ], [ 119.873662995646413, -0.752357606048404 ], [ 119.875047643388996, -0.752444666199176 ], [ 119.876162998068551, -0.752572068916775 ], [ 119.876529705755914, -0.752598601518771 ], [ 119.876642228587556, -0.75261417111914 ], [ 119.876717292222864, -0.752638028575751 ] ] } },
{ "type": "Feature", "properties": { "Id": 0, "Nama_Jalan": "Jl. Sinombili", "Armada": "Pick Up", "kelurahan": "Kayumalue Ngapa" }, "geometry": { "type": "LineString", "coordinates": [ [ 119.865294557527619, -0.754408830580825 ], [ 119.866061855754893, -0.75436766505339 ], [ 119.866331659785558, -0.754380874250722 ], [ 119.867049835904609, -0.7543636623325 ], [ 119.868142279191588, -0.754307710726429 ], [ 119.86825769726056, -0.754300461839033 ], [ 119.869265633541957, -0.754309355469055 ], [ 119.869441111695792, -0.75430402531695 ] ] } },
{ "type": "Feature", "properties": { "Id": 0, "Nama_Jalan": "Jl. Sarovele", "Armada": "Kaisar", "kelurahan": "Kayumalue Ngapa" }, "geometry": { "type": "LineString", "coordinates": [ [ 119.872479910195167, -0.752358353483837 ], [ 119.872501050060777, -0.752895113410214 ], [ 119.872552466454593, -0.753799257904353 ], [ 119.872547649705254, -0.754421362056396 ], [ 119.872575625999673, -0.755493232593271 ], [ 119.872573068392029, -0.756118413310524 ], [ 119.872578565848357, -0.757254012052193 ], [ 119.872623019066367, -0.758937662290086 ], [ 119.872655239997769, -0.759178627497687 ], [ 119.872671117853855, -0.759246553780503 ] ] } },
{ "type": "Feature", "properties": { "Id": 0, "Nama_Jalan": "Jl. Tandulemba", "Armada": "Pick Up", "kelurahan": "Kayumalue Ngapa" }, "geometry": { "type": "LineString", "coordinates": [ [ 119.865522816160308, -0.759100275693363 ], [ 119.865675706749215, -0.759098421362065 ], [ 119.867040407927021, -0.75917162343273 ], [ 119.868214612351764, -0.7592090909428 ], [ 119.870490317900263, -0.759244387005207 ], [ 119.871549060579937, -0.759227899823293 ], [ 119.872005052104114, -0.759229507297321 ], [ 119.872596299066089, -0.759246877778747 ], [ 119.872671117853855, -0.759246553780503 ] ] } },
{ "type": "Feature", "properties": { "Id": 0, "Nama_Jalan": "Jl. Togolele", "Armada": "Pick Up", "kelurahan": "Kayumalue Ngapa" }, "geometry": { "type": "LineString", "coordinates": [ [ 119.866752367690111, -0.763898189086997 ], [ 119.866926441158029, -0.763888417663353 ], [ 119.867705009894635, -0.763973005088387 ], [ 119.86800072685206, -0.764024685556861 ], [ 119.868629249915003, -0.764188268305037 ], [ 119.869952861343378, -0.7646167558452 ], [ 119.871047505117616, -0.765013838489342 ], [ 119.871443293273884, -0.765195268246216 ], [ 119.873045973294623, -0.766001341188394 ], [ 119.873371511055282, -0.766136795810626 ] ] } },
{ "type": "Feature", "properties": { "Id": 0, "Nama_Jalan": "Jl. Sarovele", "Armada": "Pick Up", "kelurahan": "Kayumalue Ngapa" }, "geometry": { "type": "LineString", "coordinates": [ [ 119.872671117853855, -0.759246553780503 ], [ 119.872707958686135, -0.759650086304686 ], [ 119.872748071160331, -0.759972809545957 ], [ 119.87280485343716, -0.760363657719571 ], [ 119.872958395440975, -0.761262951577457 ], [ 119.873096432749605, -0.762118983195272 ], [ 119.873152770472501, -0.762554538282956 ], [ 119.873268956587367, -0.763704406291084 ], [ 119.873304630740421, -0.764136747653248 ], [ 119.873371806991543, -0.765155157700375 ], [ 119.873391128566013, -0.765638552316277 ], [ 119.873387124520221, -0.766044980841348 ], [ 119.873371511055282, -0.766136795810626 ] ] } },
{ "type": "Feature", "properties": { "Id": 0, "Nama_Jalan": "Jl. Sinombili", "Armada": "Kaisar", "kelurahan": "Kayumalue Ngapa" }, "geometry": { "type": "LineString", "coordinates": [ [ 119.869441111695792, -0.75430402531695 ], [ 119.869738900309642, -0.754295331741504 ], [ 119.870359482403629, -0.754287500551027 ], [ 119.87110617539318, -0.754300870664167 ], [ 119.871255795225636, -0.754297902324648 ], [ 119.871405893634559, -0.754300432374761 ], [ 119.872547719394774, -0.754412361043356 ] ] } },
{ "type": "Feature", "properties": { "Id": 0, "Nama_Jalan": "Jl. Tompoge", "Armada": "Kaisar", "kelurahan": "Kayumalue Ngapa" }, "geometry": { "type": "LineString", "coordinates": [ [ 119.872547719394774, -0.754412361043356 ], [ 119.873688999380917, -0.75452782748729 ], [ 119.874598143106837, -0.754551607936607 ], [ 119.874944414138142, -0.754558549631187 ], [ 119.876145469896855, -0.754632579840114 ], [ 119.876963259967624, -0.754692819410498 ] ] } },
{ "type": "Feature", "properties": { "Id": 0, "Nama_Jalan": "Jl. Penyadaran", "Armada": "Kaisar", "kelurahan": "Kayumalue Ngapa" }, "geometry": { "type": "LineString", "coordinates": [ [ 119.876717292222864, -0.752638028575751 ], [ 119.876752940708769, -0.752675300325109 ], [ 119.876792895123202, -0.752759905724782 ], [ 119.876815735897296, -0.752823005896095 ], [ 119.876831450928421, -0.75288467636161 ], [ 119.87684448639456, -0.753205982204119 ], [ 119.87685890171177, -0.753458434013076 ], [ 119.876878987730748, -0.753666414410493 ], [ 119.87692479753332, -0.753987698411362 ], [ 119.876946266512405, -0.75413160622882 ], [ 119.876961827710645, -0.754320463749568 ], [ 119.876963243854192, -0.75466831441131 ], [ 119.876963259967624, -0.754692819410498 ] ] } },
{ "type": "Feature", "properties": { "Id": 0, "Nama_Jalan": "Jl. Bunga-bunga", "Armada": "Kaisar", "kelurahan": "Kayumalue Ngapa" }, "geometry": { "type": "LineString", "coordinates": [ [ 119.875100432187068, -0.752453461934901 ], [ 119.875104455820178, -0.752794856452275 ], [ 119.875088090983937, -0.75319101238497 ], [ 119.87505059136042, -0.753590290339357 ], [ 119.874944414138142, -0.754558549631187 ] ] } },
{ "type": "Feature", "properties": { "Id": 0, "Nama_Jalan": "Jl. Bunga-bunga", "Armada": "Kaisar", "kelurahan": "Kayumalue Ngapa" }, "geometry": { "type": "LineString", "coordinates": [ [ 119.875093144674892, -0.753068673531158 ], [ 119.875272428708826, -0.753074580554225 ], [ 119.875365057268681, -0.753083603796408 ], [ 119.875975478225513, -0.753177632119817 ], [ 119.876414862697771, -0.753209614911576 ], [ 119.876628614787677, -0.753221426447902 ], [ 119.876845422179287, -0.753222370396177 ] ] } },
{ "type": "Feature", "properties": { "Id": 0, "Nama_Jalan": null, "Armada": "Kaisar", "kelurahan": "Kayumalue Ngapa" }, "geometry": { "type": "LineString", "coordinates": [ [ 119.876320769326, -0.753202765860752 ], [ 119.876336381573452, -0.753044706446566 ], [ 119.876341072638581, -0.75295505080302 ], [ 119.876318695677199, -0.752583334195958 ] ] } },
{ "type": "Feature", "properties": { "Id": 0, "Nama_Jalan": "Jl. Kumbili", "Armada": "Kaisar", "kelurahan": "Kayumalue Ngapa" }, "geometry": { "type": "LineString", "coordinates": [ [ 119.874726218159452, -0.752424456538806 ], [ 119.874732752322259, -0.752031063507824 ], [ 119.874793898036017, -0.751835938776711 ], [ 119.874818065139181, -0.751748421763591 ], [ 119.874829413210804, -0.75166951990924 ], [ 119.87482368425691, -0.751625055996342 ] ] } },
{ "type": "Feature", "properties": { "Id": 0, "Nama_Jalan": "Jl. Tuan Guru", "Armada": "Kaisar", "kelurahan": "Kayumalue Ngapa" }, "geometry": { "type": "LineString", "coordinates": [ [ 119.871658427047947, -0.752329636031388 ], [ 119.871644282954577, -0.75261501860881 ], [ 119.871643518288337, -0.752898083194959 ], [ 119.871652335543317, -0.753306416400666 ], [ 119.871673294593577, -0.753397250752124 ], [ 119.871678127830407, -0.753524435114813 ], [ 119.871675341195541, -0.753621023016351 ], [ 119.871656408693525, -0.753723359428622 ], [ 119.871652685261992, -0.753840030203409 ], [ 119.871648997585453, -0.754011209915795 ], [ 119.871634019639103, -0.754322794699515 ] ] } },
{ "type": "Feature", "properties": { "Id": 0, "Nama_Jalan": null, "Armada": "Kaisar", "kelurahan": "Kayumalue Ngapa" }, "geometry": { "type": "LineString", "coordinates": [ [ 119.870696120055186, -0.75231950125455 ], [ 119.87068934247192, -0.752866600525461 ] ] } },
{ "type": "Feature", "properties": { "Id": 0, "Nama_Jalan": null, "Armada": "Kaisar", "kelurahan": "Kayumalue Ngapa" }, "geometry": { "type": "LineString", "coordinates": [ [ 119.870116124316922, -0.752330337023305 ], [ 119.870119334134102, -0.752835420700874 ] ] } },
{ "type": "Feature", "properties": { "Id": 0, "Nama_Jalan": "Lrg. Lapangan", "Armada": "Kaisar", "kelurahan": "Kayumalue Ngapa" }, "geometry": { "type": "LineString", "coordinates": [ [ 119.870119334134102, -0.752835420700874 ], [ 119.870154974330717, -0.752859782686837 ], [ 119.870689352800028, -0.752882379441689 ], [ 119.871059867181629, -0.752916560396106 ], [ 119.871023095108526, -0.753339746693733 ], [ 119.871014740773305, -0.753638117243622 ], [ 119.871014920341423, -0.753912096527242 ], [ 119.871006395917817, -0.753950832262748 ], [ 119.870982184612913, -0.753970930606884 ], [ 119.870942289245932, -0.753976694898899 ], [ 119.870319572024243, -0.75396850184698 ], [ 119.870285595204223, -0.753945573244139 ], [ 119.870272325416195, -0.753628808107457 ], [ 119.870286209537682, -0.753070559521079 ], [ 119.870297952835642, -0.752869729004641 ] ] } },
{ "type": "Feature", "properties": { "Id": 0, "Nama_Jalan": null, "Armada": "Kaisar", "kelurahan": "Kayumalue Ngapa" }, "geometry": { "type": "LineString", "coordinates": [ [ 119.87027677656998, -0.754288544229528 ], [ 119.870275534113588, -0.753995083326582 ], [ 119.870285595204223, -0.753945573244139 ] ] } },
{ "type": "Feature", "properties": { "Id": 0, "Nama_Jalan": "Jl. Uve Tombua", "Armada": "Kaisar", "kelurahan": "Kayumalue Ngapa" }, "geometry": { "type": "LineString", "coordinates": [ [ 119.870717191915091, -0.752319601330855 ], [ 119.870716963943124, -0.751940526794066 ], [ 119.870727143929841, -0.751164165181105 ] ] } },
{ "type": "Feature", "properties": { "Id": 0, "Nama_Jalan": "Jl. Kolontiigi", "Armada": "Kaisar", "kelurahan": "Kayumalue Ngapa" }, "geometry": { "type": "LineString", "coordinates": [ [ 119.870727143929841, -0.751164165181105 ], [ 119.870777954681373, -0.751144049290543 ], [ 119.870896692187586, -0.751128909013862 ], [ 119.871121116823502, -0.751116806759425 ], [ 119.871236295464698, -0.751107167549158 ], [ 119.871385901437492, -0.751083161084283 ], [ 119.871459515381758, -0.751068767894972 ], [ 119.871525999019582, -0.751046011821067 ], [ 119.871553296056604, -0.75102328168481 ], [ 119.871566342953258, -0.75099984375759 ], [ 119.871599399227847, -0.750704325918886 ], [ 119.871610706570181, -0.750562786393497 ], [ 119.8716144253397, -0.750438465246208 ], [ 119.871612482945508, -0.75037343829416 ], [ 119.871604848175721, -0.75031989067713 ], [ 119.871599117108261, -0.750272079586306 ], [ 119.87158587867043, -0.750001934261552 ], [ 119.871588218530334, -0.749948140973895 ], [ 119.87160476752365, -0.749832178951635 ], [ 119.87164855512944, -0.749603833970962 ], [ 119.871661580697634, -0.74954764288429 ], [ 119.871680457925933, -0.74935995702135 ], [ 119.871679138812766, -0.749157940036022 ] ] } },
{ "type": "Feature", "properties": { "Id": 0, "Nama_Jalan": "Lrg. Madamba", "Armada": "Kaisar", "kelurahan": "Kayumalue Ngapa" }, "geometry": { "type": "LineString", "coordinates": [ [ 119.870359482403629, -0.754287500551027 ], [ 119.870399413923693, -0.754884419515729 ] ] } },
{ "type": "Feature", "properties": { "Id": 0, "Nama_Jalan": null, "Armada": "Kaisar", "kelurahan": "Kayumalue Ngapa" }, "geometry": { "type": "LineString", "coordinates": [ [ 119.869730549739074, -0.754295437117664 ], [ 119.869780663854343, -0.754588736816724 ], [ 119.86978424980029, -0.7546245956507 ], [ 119.869779731232995, -0.754977233956959 ] ] } },
{ "type": "Feature", "properties": { "Id": 0, "Nama_Jalan": null, "Armada": "Kaisar", "kelurahan": "Kayumalue Ngapa" }, "geometry": { "type": "LineString", "coordinates": [ [ 119.869441111695792, -0.75430402531695 ], [ 119.869475009196165, -0.754591330688046 ], [ 119.869489946845647, -0.754915984398307 ], [ 119.869516125429243, -0.754998447813365 ], [ 119.869779731232995, -0.754977233956959 ], [ 119.86997779162995, -0.754961084249098 ], [ 119.870106973880766, -0.754938047173827 ], [ 119.870399413923693, -0.754884419515729 ] ] } },
{ "type": "Feature", "properties": { "Id": 0, "Nama_Jalan": null, "Armada": "Pick Up", "kelurahan": "Kayumalue Ngapa" }, "geometry": { "type": "LineString", "coordinates": [ [ 119.868169854974553, -0.754305978816307 ], [ 119.868178808169532, -0.753940911370736 ], [ 119.868224221935904, -0.753657816301697 ], [ 119.868250664299651, -0.75341776735453 ], [ 119.868266682568475, -0.753216933645943 ], [ 119.868308866393022, -0.75307881590317 ], [ 119.868319522716192, -0.753031471970992 ], [ 119.868324910391763, -0.752554035445625 ], [ 119.868328362993807, -0.752304116725438 ] ] } },
{ "type": "Feature", "properties": { "Id": 0, "Nama_Jalan": null, "Armada": "Pick Up", "kelurahan": "Kayumalue Ngapa" }, "geometry": { "type": "LineString", "coordinates": [ [ 119.868272025544144, -0.752301851161364 ], [ 119.868281722985316, -0.752065155477548 ], [ 119.868288773816147, -0.751951829213344 ], [ 119.868261545716209, -0.751716597333965 ] ] } },
{ "type": "Feature", "properties": { "Id": 0, "Nama_Jalan": null, "Armada": "Pick Up", "kelurahan": "Kayumalue Ngapa" }, "geometry": { "type": "LineString", "coordinates": [ [ 119.865047530794939, -0.751536577473871 ], [ 119.865674801695619, -0.751502661991162 ], [ 119.865769797510467, -0.751498773995477 ], [ 119.866104215202526, -0.751534892437973 ] ] } },
{ "type": "Feature", "properties": { "Id": 0, "Nama_Jalan": null, "Armada": "Pick Up", "kelurahan": "Kayumalue Ngapa" }, "geometry": { "type": "LineString", "coordinates": [ [ 119.865689075727815, -0.751502077782643 ], [ 119.865699121792659, -0.75201307241469 ], [ 119.865729674111975, -0.752349950909718 ] ] } },
{ "type": "Feature", "properties": { "Id": 0, "Nama_Jalan": null, "Armada": "Pick Up", "kelurahan": "Kayumalue Ngapa" }, "geometry": { "type": "LineString", "coordinates": [ [ 119.865224443757015, -0.753039300182722 ], [ 119.865577825193625, -0.753019940117569 ] ] } },
{ "type": "Feature", "properties": { "Id": 0, "Nama_Jalan": "Jl. Trans Sulawesi", "Armada": "Pick Up", "kelurahan": "Kayumalue Ngapa" }, "geometry": { "type": "LineString", "coordinates": [ [ 119.867790043254686, -0.76882075724368 ], [ 119.867688223834151, -0.768208793599329 ], [ 119.867521681466528, -0.767053933677954 ], [ 119.867467778992761, -0.766711136143033 ], [ 119.867344482727773, -0.765943787667345 ], [ 119.867239618153221, -0.765393028837972 ], [ 119.866954984328657, -0.764507446292234 ], [ 119.866760077198734, -0.763897756322272 ], [ 119.866353590274031, -0.7626357222993 ], [ 119.865947966578403, -0.761409417126856 ], [ 119.865724390551421, -0.76055104626207 ], [ 119.865645168014211, -0.760164633469015 ], [ 119.865569453518603, -0.759695498096638 ], [ 119.86552665325496, -0.759100229155272 ], [ 119.865489329321505, -0.758119564738305 ], [ 119.865442915484408, -0.757241948817739 ], [ 119.865388149203156, -0.755759237769728 ], [ 119.865361016049917, -0.755307641784783 ], [ 119.865300646050216, -0.754408503932192 ], [ 119.865212106129377, -0.753039748650073 ], [ 119.865166521222164, -0.752430686923579 ], [ 119.865056282850077, -0.75153610426547 ], [ 119.864949636589728, -0.750663126464997 ], [ 119.864733108805083, -0.749308546082813 ], [ 119.864462064052717, -0.747567295736293 ], [ 119.864288401801417, -0.746386374701292 ], [ 119.863953759540209, -0.744165737454611 ], [ 119.863826159846525, -0.743329532914526 ] ] } },
{ "type": "Feature", "properties": { "Id": 0, "Nama_Jalan": "Jl. Ova (BTN)", "Armada": "Pick Up", "kelurahan": "Kayumalue Ngapa" }, "geometry": { "type": "LineString", "coordinates": [ [ 119.86417421718798, -0.7456286657765 ], [ 119.866443922062601, -0.745300672882855 ], [ 119.866545571918593, -0.744569035296442 ], [ 119.866609402092436, -0.744114750116698 ] ] } },
{ "type": "Feature", "properties": { "Id": 0, "Nama_Jalan": "Jl. Ova (BTN)", "Armada": "Pick Up", "kelurahan": "Kayumalue Ngapa" }, "geometry": { "type": "LineString", "coordinates": [ [ 119.8649713296615, -0.745513475874743 ], [ 119.864896956931872, -0.745058467068244 ] ] } },
{ "type": "Feature", "properties": { "Id": 0, "Nama_Jalan": null, "Armada": "Pick Up", "kelurahan": "Kayumalue Ngapa" }, "geometry": { "type": "LineString", "coordinates": [ [ 119.864574939792632, -0.748292436274922 ], [ 119.864836331985643, -0.748259851659815 ], [ 119.864992129209767, -0.748259749161852 ], [ 119.86511753937819, -0.748278792712704 ], [ 119.865231543530896, -0.748288280731167 ], [ 119.865474736621493, -0.748284295494337 ], [ 119.865592530732982, -0.748278480163005 ] ] } },
{ "type": "Feature", "properties": { "Id": 0, "Nama_Jalan": null, "Armada": "Pick Up", "kelurahan": "Kayumalue Ngapa" }, "geometry": { "type": "LineString", "coordinates": [ [ 119.864798422362, -0.749717143600596 ], [ 119.865306461319619, -0.749621676305898 ] ] } }
]
}
