{
"type": "FeatureCollection",
"name": "Lambara",
"crs": { "type": "name", "properties": { "name": "urn:ogc:def:crs:OGC:1.3:CRS84" } },
"features": [
{ "type": "Feature", "properties": { "Id": 0, "Nama_Jalan": "Jl. Boya Binangga", "Armada": null, "kelurahan": "Lambara" }, "geometry": { "type": "LineString", "coordinates": [ [ 119.867062825672747, -0.73297100553751 ], [ 119.86701599063386, -0.734013404402734 ], [ 119.866994907238208, -0.734470052003694 ], [ 119.866968333457237, -0.734510233842187 ] ] } },
{ "type": "Feature", "properties": { "Id": 0, "Nama_Jalan": "Jl. Dae Salembah", "Armada": null, "kelurahan": "Lambara" }, "geometry": { "type": "LineString", "coordinates": [ [ 119.866968333457237, -0.734510233842187 ], [ 119.866932246067535, -0.734528745661651 ], [ 119.865783198683104, -0.734454418367494 ], [ 119.864320627989542, -0.734335346755068 ], [ 119.863182489769045, -0.73424045082514 ] ] } },
{ "type": "Feature", "properties": { "Id": 0, "Nama_Jalan": "Jl. Yangge Bodu", "Armada": null, "kelurahan": "Lambara" }, "geometry": { "type": "LineString", "coordinates": [ [ 119.863256116080748, -0.733498310888818 ], [ 119.865302476262826, -0.733657650347339 ] ] } },
{ "type": "Feature", "properties": { "Id": 0, "Nama_Jalan": "Jl. Marukaluli", "Armada": null, "kelurahan": "Lambara" }, "geometry": { "type": "LineString", "coordinates": [ [ 119.865302476262826, -0.733657650347339 ], [ 119.865352833706325, -0.733671006100077 ], [ 119.866041585759675, -0.733697338151308 ], [ 119.867028341748622, -0.733738505912548 ] ] } },
{ "type": "Feature", "properties": { "Id": 0, "Nama_Jalan": "Jl. Tadulako Lambara", "Armada": null, "kelurahan": "Lambara" }, "geometry": { "type": "LineString", "coordinates": [ [ 119.867028341748622, -0.733738505912532 ], [ 119.868118054619345, -0.733780869301644 ], [ 119.869064252663563, -0.733813250405391 ], [ 119.869101311808635, -0.73382900540634 ] ] } },
{ "type": "Feature", "properties": { "Id": 0, "Nama_Jalan": "Jl. Parigi - Palu", "Armada": null, "kelurahan": "Lambara" }, "geometry": { "type": "LineString", "coordinates": [ [ 119.863357142298057, -0.732557449244509 ], [ 119.863478874229912, -0.73258195587401 ], [ 119.864601913751201, -0.732837043933179 ], [ 119.864915453339748, -0.732909520969408 ], [ 119.865314497096236, -0.732991505861763 ], [ 119.865384801659133, -0.733001023574518 ], [ 119.865447500299908, -0.733000983159384 ], [ 119.866748950613484, -0.732967629794025 ], [ 119.867062825672747, -0.73297100553751 ], [ 119.868493116712969, -0.732977980304829 ], [ 119.869675374368626, -0.732996223724681 ], [ 119.871442326538286, -0.732992691975053 ], [ 119.872912401765618, -0.732977397697402 ], [ 119.873905111049908, -0.732957630122063 ], [ 119.874370598903639, -0.732959719912964 ], [ 119.875482097533464, -0.733009206562624 ] ] } },
{ "type": "Feature", "properties": { "Id": 0, "Nama_Jalan": null, "Armada": null, "kelurahan": "Lambara" }, "geometry": { "type": "LineString", "coordinates": [ [ 119.867062825672747, -0.73297100553751 ], [ 119.867090406509035, -0.732497865570023 ], [ 119.867194390983855, -0.731690680185599 ], [ 119.86723408836508, -0.731373162579885 ], [ 119.867253046618558, -0.731308121888428 ], [ 119.868212638939823, -0.731489201369447 ], [ 119.869200757804165, -0.731714251743867 ], [ 119.869253977131308, -0.731746731641546 ], [ 119.869188003256454, -0.732571104492204 ], [ 119.869138690066066, -0.732987942189729 ] ] } },
{ "type": "Feature", "properties": { "Id": 0, "Nama_Jalan": null, "Armada": null, "kelurahan": "Lambara" }, "geometry": { "type": "LineString", "coordinates": [ [ 119.865978478215098, -0.733694925457849 ], [ 119.865943034611547, -0.734121928303349 ], [ 119.865913084067955, -0.734462820154056 ] ] } },
{ "type": "Feature", "properties": { "Id": 0, "Nama_Jalan": null, "Armada": null, "kelurahan": "Lambara" }, "geometry": { "type": "LineString", "coordinates": [ [ 119.872105376705761, -0.742197022873154 ], [ 119.871784726585332, -0.742145712105591 ], [ 119.871653623406402, -0.742135756731749 ], [ 119.871613720705156, -0.742130045044095 ], [ 119.871592325874076, -0.7420985012148 ], [ 119.871569217341573, -0.741619411198952 ], [ 119.87157053962359, -0.741460186773965 ], [ 119.871549137414334, -0.74141716736321 ], [ 119.8715106495101, -0.741395675812139 ], [ 119.870972048080219, -0.741450536676967 ], [ 119.870523295963139, -0.741624398004542 ], [ 119.870271131614913, -0.74170919518615 ], [ 119.870134358011939, -0.741745145753654 ], [ 119.870026064292261, -0.741750954300587 ], [ 119.869830843918578, -0.741751081841053 ], [ 119.869708298654984, -0.741754030794992 ], [ 119.869685041771831, -0.741781300516535 ], [ 119.869667966217321, -0.74181860734302 ], [ 119.869650903611429, -0.741875996446947 ], [ 119.869589662415834, -0.741926242173983 ], [ 119.869435785422823, -0.741956466146291 ], [ 119.86923915569389, -0.741980980257003 ], [ 119.869135144183801, -0.74199826160763 ], [ 119.869033990922162, -0.742028451138776 ], [ 119.868885830367347, -0.742084491483224 ], [ 119.868713460137002, -0.742163498857065 ], [ 119.868623709354452, -0.742197984304525 ], [ 119.86855817099817, -0.742213806080764 ], [ 119.86831023947002, -0.742234050383287 ], [ 119.868059466271873, -0.742267206595431 ], [ 119.867689010404078, -0.742323392219007 ], [ 119.867317104471809, -0.742340848594856 ], [ 119.867260118628124, -0.742360968146908 ], [ 119.867218818546377, -0.742398290877349 ], [ 119.867187540418442, -0.742508764116069 ], [ 119.867156217901325, -0.742550383690555 ], [ 119.867102085689581, -0.742576239197852 ], [ 119.867035121344685, -0.742590627473799 ], [ 119.866871261791275, -0.742609382417087 ], [ 119.866158789342521, -0.74262993021625 ], [ 119.866131705641976, -0.742615603374468 ], [ 119.866116005068434, -0.742575448935709 ], [ 119.866103146118121, -0.742522382559255 ], [ 119.866094503846881, -0.742378942863401 ], [ 119.866087317987834, -0.742284273630438 ], [ 119.866064424187101, -0.742137974326781 ], [ 119.866051458090183, -0.74191851141139 ], [ 119.866052786076423, -0.741767892931618 ], [ 119.866039914236836, -0.741694744202521 ], [ 119.866017087919289, -0.741653159942229 ], [ 119.865971477762258, -0.741635976252469 ], [ 119.865921594537099, -0.741621664255358 ], [ 119.865866007731867, -0.741601618161859 ], [ 119.865838919427986, -0.741580119024381 ], [ 119.865821796691151, -0.741544268848555 ], [ 119.865761610122803, -0.741019298000297 ], [ 119.865674466444005, -0.740676520300981 ], [ 119.865661866135412, -0.740656207077714 ], [ 119.865617933363438, -0.740662212586156 ], [ 119.865109778772393, -0.740795230611523 ], [ 119.86493762691758, -0.740845548664261 ], [ 119.864866387525836, -0.740859939617305 ], [ 119.864812947221665, -0.740853997530842 ], [ 119.864744061262172, -0.740834916331689 ], [ 119.864622918623155, -0.740803915369507 ], [ 119.864562349604412, -0.740792001021529 ], [ 119.864492288446769, -0.740792046648217 ], [ 119.864419860780274, -0.740805242990536 ], [ 119.864374749699024, -0.740825593821916 ], [ 119.864277414957726, -0.74088542619631 ], [ 119.864194313038197, -0.740918950952482 ], [ 119.864018603979559, -0.740977639005301 ], [ 119.863809647043411, -0.741038739483914 ], [ 119.863524696062441, -0.741107061752488 ] ] } },
{ "type": "Feature", "properties": { "Id": 0, "Nama_Jalan": "Jl. Trans Sulawesi", "Armada": null, "kelurahan": "Lambara" }, "geometry": { "type": "LineString", "coordinates": [ [ 119.863669155262144, -0.742310715715673 ], [ 119.86349918602086, -0.741139353642229 ], [ 119.863366506594318, -0.74009979413057 ], [ 119.863308191773839, -0.739585483031101 ], [ 119.863284920507056, -0.73940547380667 ], [ 119.863257751281267, -0.739257742389014 ], [ 119.863237755672998, -0.739186032527147 ], [ 119.863233152620879, -0.738673934357922 ], [ 119.863188411876621, -0.737788903375084 ], [ 119.863142734372175, -0.736923477173848 ], [ 119.863087275514275, -0.735615766247984 ], [ 119.86309651159192, -0.735202158447097 ], [ 119.863182489769045, -0.73424045082514 ], [ 119.863252121407044, -0.733416158921663 ], [ 119.863357142298057, -0.732557449244509 ] ] } },
{ "type": "Feature", "properties": { "Id": 0, "Nama_Jalan": null, "Armada": null, "kelurahan": "Lambara" }, "geometry": { "type": "LineString", "coordinates": [ [ 119.863166851431416, -0.737380411224081 ], [ 119.86334256963066, -0.73738250148543 ], [ 119.863899545410803, -0.737458644874052 ], [ 119.863979123954778, -0.737486087034847 ], [ 119.864173942808677, -0.737599521834891 ], [ 119.864254712642079, -0.737632940100758 ], [ 119.864317655024266, -0.737642462326092 ], [ 119.864397215955719, -0.737642410736071 ], [ 119.864475583285667, -0.737632796882171 ], [ 119.864532572210294, -0.737617219993738 ], [ 119.864597858167784, -0.737577730137304 ], [ 119.864722487337303, -0.737490386633306 ], [ 119.864913602913035, -0.737383873973372 ], [ 119.865272114283215, -0.737217483881809 ], [ 119.865584364475637, -0.737130018826284 ], [ 119.865738712531012, -0.737092862040484 ], [ 119.865845563099228, -0.737058126806318 ], [ 119.865925104031078, -0.737026995413662 ], [ 119.865996330340167, -0.736992283279864 ], [ 119.866063991926893, -0.736953987326314 ], [ 119.866088909013044, -0.736922891350116 ], [ 119.86609837822563, -0.736875070098028 ], [ 119.866106489505853, -0.736560680466978 ], [ 119.866109758546827, -0.736101653256665 ], [ 119.866110842158733, -0.735939081168115 ], [ 119.866104869662493, -0.735884097653134 ], [ 119.866081073602331, -0.735811195005384 ], [ 119.865988309386736, -0.735590110117417 ], [ 119.86597283787691, -0.735536328117798 ], [ 119.865951411447213, -0.735455056274549 ], [ 119.865920428009275, -0.735284137255937 ], [ 119.86591203254261, -0.735153846477195 ], [ 119.865915543101849, -0.735072558499594 ], [ 119.865950942396566, -0.734719899097688 ], [ 119.865966077949821, -0.734466248123298 ] ] } },
{ "type": "Feature", "properties": { "Id": 0, "Nama_Jalan": "Jl. Boya Peramba", "Armada": null, "kelurahan": "Lambara" }, "geometry": { "type": "LineString", "coordinates": [ [ 119.86471326392801, -0.73436731231195 ], [ 119.864701962339225, -0.735102510202692 ], [ 119.864688791927648, -0.735305255050953 ], [ 119.864667909438296, -0.735332045048265 ], [ 119.864620412851437, -0.735335900967428 ], [ 119.86413781774317, -0.73532856249123 ], [ 119.863856634321209, -0.735345957700567 ], [ 119.863664753958972, -0.735370945621859 ], [ 119.86356975825764, -0.735374832232443 ], [ 119.863092825578988, -0.735367223801595 ] ] } },
{ "type": "Feature", "properties": { "Id": 0, "Nama_Jalan": null, "Armada": null, "kelurahan": "Lambara" }, "geometry": { "type": "LineString", "coordinates": [ [ 119.865228350566937, -0.734409246842221 ], [ 119.865242704610708, -0.734303838946087 ], [ 119.865302185125785, -0.733725715398379 ], [ 119.865309473343075, -0.73365950610632 ] ] } },
{ "type": "Feature", "properties": { "Id": 0, "Nama_Jalan": null, "Armada": null, "kelurahan": "Lambara" }, "geometry": { "type": "LineString", "coordinates": [ [ 119.866968333457237, -0.734510233842187 ], [ 119.867029010006902, -0.734563946742057 ], [ 119.867049752556426, -0.73469016513221 ], [ 119.867063347859741, -0.734781244059397 ], [ 119.8670819003529, -0.734824982856537 ], [ 119.867115415922697, -0.734870146428913 ], [ 119.867124702010912, -0.734907436179968 ], [ 119.867132573660299, -0.734961223044571 ], [ 119.867138306487647, -0.735012859613523 ], [ 119.867129865639711, -0.735183564876451 ], [ 119.867160579829047, -0.735304756209189 ], [ 119.86718982601252, -0.735358529238533 ], [ 119.867286815414744, -0.735501911672152 ], [ 119.867426564853048, -0.735662479818651 ], [ 119.867561337462604, -0.735839547337153 ], [ 119.867601318728191, -0.735893791529164 ] ] } }
]
}
