{
"type": "FeatureCollection",
"name": "Lasoani",
"crs": { "type": "name", "properties": { "name": "urn:ogc:def:crs:OGC:1.3:CRS84" } },
"features": [
{ "type": "Feature", "properties": { "Id": 0, "Nama_Jalan": "Jl. Veteran Lrg I", "Armada": 2.0, "panjang": 509.236030572, "kelurahan": "Lasoani" }, "geometry": { "type": "LineString", "coordinates": [ [ 119.898650324371488, -0.899680421688244 ], [ 119.898683041102927, -0.900208258832406 ], [ 119.898765237771755, -0.900837421348738 ], [ 119.898713962469202, -0.900868063210963 ], [ 119.898704548785204, -0.900977086004993 ], [ 119.898809566876409, -0.901633005819093 ], [ 119.898804894137527, -0.9017305495186 ], [ 119.898833719858999, -0.902142202355927 ], [ 119.898884218992265, -0.902331025935238 ], [ 119.899276094125142, -0.903234389920491 ], [ 119.899263094323246, -0.903313292943011 ], [ 119.899246661028357, -0.90355476524786 ], [ 119.89927353131138, -0.903895655194386 ], [ 119.899315525254934, -0.904140427460334 ] ] } },
{ "type": "Feature", "properties": { "Id": 0, "Nama_Jalan": "Jl. Veteran Lrg II", "Armada": 2.0, "panjang": 503.37897993199999, "kelurahan": "Lasoani" }, "geometry": { "type": "LineString", "coordinates": [ [ 119.899415988575981, -0.899644426712874 ], [ 119.899494850199801, -0.900261159961773 ], [ 119.899571146201609, -0.900636436147434 ], [ 119.899871096848443, -0.901525529758933 ], [ 119.899925693735952, -0.901790612667476 ], [ 119.900002155625288, -0.901775011865887 ], [ 119.900049895646021, -0.90207859022103 ], [ 119.900140377316362, -0.90267164584157 ], [ 119.900132211818644, -0.90285693027627 ], [ 119.900115687478873, -0.902983649715636 ], [ 119.900156282050858, -0.903260936226172 ], [ 119.900319077437487, -0.9039972548913 ] ] } },
{ "type": "Feature", "properties": { "Id": 0, "Nama_Jalan": "Jl. Veteran Lrg III", "Armada": 2.0, "panjang": 522.88983857400001, "kelurahan": "Lasoani" }, "geometry": { "type": "LineString", "coordinates": [ [ 119.900450695655849, -0.89925571019444 ], [ 119.90046356130027, -0.899307338618472 ], [ 119.90049361817087, -0.899474662264439 ], [ 119.900636498210986, -0.89995746547014 ], [ 119.900945857316628, -0.900731798122354 ], [ 119.901031512234795, -0.900928721497318 ], [ 119.901060080032522, -0.901014763074064 ], [ 119.901073470728903, -0.901129504985254 ], [ 119.901084962974153, -0.901246160961089 ], [ 119.901263022446201, -0.901915408445234 ], [ 119.901403555189106, -0.902431682374406 ], [ 119.901472704340918, -0.902778275323954 ], [ 119.901508497746917, -0.902991017010895 ], [ 119.901513311815748, -0.903071818100911 ], [ 119.901473489685216, -0.903169389842125 ], [ 119.901409426895952, -0.903246899377933 ], [ 119.901473976727189, -0.903782837782414 ] ] } },
{ "type": "Feature", "properties": { "Id": 0, "Nama_Jalan": "Lrg. Kasuari", "Armada": 2.0, "panjang": 212.818542576, "kelurahan": "Lasoani" }, "geometry": { "type": "LineString", "coordinates": [ [ 119.90034132010102, -0.904043377153007 ], [ 119.900362730195894, -0.904087826605508 ], [ 119.900530685325577, -0.905040138911013 ], [ 119.900571195833379, -0.905211039987962 ], [ 119.90072318953473, -0.905204940810403 ], [ 119.900817085681439, -0.905311250441386 ], [ 119.900856302251469, -0.905348274386139 ], [ 119.901234623351201, -0.905332340380442 ] ] } },
{ "type": "Feature", "properties": { "Id": 0, "Nama_Jalan": "Lrg. Camar", "Armada": 2.0, "panjang": 106.983195963, "kelurahan": "Lasoani" }, "geometry": { "type": "LineString", "coordinates": [ [ 119.899245302303498, -0.904236708987642 ], [ 119.899266323607179, -0.904389695856344 ], [ 119.899312567470162, -0.90520057864958 ] ] } },
{ "type": "Feature", "properties": { "Id": 0, "Nama_Jalan": "Lrg. Kutilang", "Armada": 2.0, "panjang": 304.94587287000002, "kelurahan": "Lasoani" }, "geometry": { "type": "LineString", "coordinates": [ [ 119.898646338811346, -0.908423759058588 ], [ 119.899544053106709, -0.908387173259738 ], [ 119.899605802591594, -0.908387123346494 ], [ 119.899650143307937, -0.90840924974818 ], [ 119.899787561035993, -0.908477822373115 ], [ 119.899832692327493, -0.908486153276012 ], [ 119.899966889164716, -0.908499193532335 ], [ 119.900014383029372, -0.908491983084601 ], [ 119.90006837327077, -0.908441137431657 ], [ 119.900097450074128, -0.908420195452979 ], [ 119.900137813272849, -0.908405818726255 ], [ 119.900216777506927, -0.908400973519429 ], [ 119.900264270406097, -0.908392567733975 ], [ 119.900400805921649, -0.908360183138348 ], [ 119.900443545040474, -0.908346999834047 ], [ 119.900527807170022, -0.908284773989748 ], [ 119.900589534662188, -0.908257231248876 ], [ 119.900652461084732, -0.908244031627203 ], [ 119.901294852333876, -0.908193307927685 ] ] } },
{ "type": "Feature", "properties": { "Id": 0, "Nama_Jalan": "Jl. Elang II", "Armada": 2.0, "panjang": 276.85527786599999, "kelurahan": "Lasoani" }, "geometry": { "type": "LineString", "coordinates": [ [ 119.898613408569588, -0.907781886630952 ], [ 119.899527205156247, -0.907660658165856 ], [ 119.899705789903152, -0.907643301007572 ], [ 119.899764680244061, -0.907631778163469 ], [ 119.899798850979423, -0.907595412183327 ], [ 119.899810209719249, -0.907543764258688 ], [ 119.899810150269673, -0.907469175000482 ], [ 119.899834821090835, -0.907432816697898 ], [ 119.899891805343216, -0.907413645218541 ], [ 119.900932936138119, -0.907338215080922 ] ] } },
{ "type": "Feature", "properties": { "Id": 0, "Nama_Jalan": "Lrg. Gatari", "Armada": 2.0, "panjang": 426.77229246100001, "kelurahan": "Lasoani" }, "geometry": { "type": "LineString", "coordinates": [ [ 119.898403688312129, -0.906278912224785 ], [ 119.899167489644114, -0.9062878591682 ], [ 119.899699567171908, -0.90639070760667 ], [ 119.899938989352449, -0.906421115224035 ], [ 119.900220194342126, -0.906430451101414 ], [ 119.900273402974662, -0.906441883447749 ], [ 119.90033803433947, -0.906481994757672 ], [ 119.900392679186254, -0.906507530961642 ], [ 119.90047343983197, -0.906521809886047 ], [ 119.900553008224534, -0.906530113065302 ], [ 119.901036301639905, -0.906511792942597 ], [ 119.901138664809181, -0.906513861940296 ], [ 119.901356713834161, -0.90654667732775 ], [ 119.901408027010007, -0.906563848800956 ], [ 119.901590521083918, -0.906684191713173 ], [ 119.901663239887469, -0.906740074889405 ], [ 119.901760207437903, -0.906826061028141 ], [ 119.901848585068322, -0.906861849837157 ], [ 119.901942648912865, -0.906880421161669 ], [ 119.902022427463166, -0.906854537404144 ], [ 119.90208366634846, -0.906810021332916 ] ] } },
{ "type": "Feature", "properties": { "Id": 0, "Nama_Jalan": "Lrg. Bunto", "Armada": 2.0, "panjang": 220.92922413700001, "kelurahan": "Lasoani" }, "geometry": { "type": "LineString", "coordinates": [ [ 119.901966821122315, -0.903680239633111 ], [ 119.901954176064507, -0.903308499323265 ], [ 119.902035869019315, -0.903300783433348 ], [ 119.902073575561317, -0.902931632397488 ], [ 119.902052654563875, -0.902904873625771 ], [ 119.902069054385123, -0.9026213260117 ], [ 119.902045789378391, -0.902034672287032 ], [ 119.902048428984315, -0.90176930488802 ] ] } },
{ "type": "Feature", "properties": { "Id": 0, "Nama_Jalan": "Lrg. Bumi Bakti", "Armada": 2.0, "panjang": 160.56558083799999, "kelurahan": "Lasoani" }, "geometry": { "type": "LineString", "coordinates": [ [ 119.901989338950955, -0.903773816565971 ], [ 119.902005216611812, -0.904029128224098 ], [ 119.902006749878751, -0.904165395649997 ], [ 119.901962784024562, -0.904427927534841 ], [ 119.901961425177234, -0.904511124235721 ], [ 119.901968883149877, -0.904929965070825 ], [ 119.901957644159069, -0.9051322255166 ], [ 119.90196483868958, -0.905219718544083 ] ] } },
{ "type": "Feature", "properties": { "Id": 0, "Nama_Jalan": "Lrg. Pelangi", "Armada": 2.0, "panjang": 156.738813244, "kelurahan": "Lasoani" }, "geometry": { "type": "LineString", "coordinates": [ [ 119.901116661421156, -0.903931975036721 ], [ 119.901233189325325, -0.904723674436613 ], [ 119.901240895680473, -0.904857546302 ], [ 119.90121433702555, -0.904909206385149 ], [ 119.901234623351201, -0.905332340380459 ] ] } },
{ "type": "Feature", "properties": { "Id": 0, "Nama_Jalan": "Lrg. Gang Jaya", "Armada": 2.0, "panjang": 170.23971244699999, "kelurahan": "Lasoani" }, "geometry": { "type": "LineString", "coordinates": [ [ 119.898972719499056, -0.899068656379385 ], [ 119.898774671442098, -0.899100371829476 ], [ 119.898672017004003, -0.899030167784101 ], [ 119.898620468498819, -0.898714638522567 ], [ 119.898601893892902, -0.898651539273524 ], [ 119.898391033353505, -0.89869904340968 ], [ 119.898334040708079, -0.898707695437616 ], [ 119.898277031085982, -0.898694831302974 ], [ 119.897791895486051, -0.898750620871627 ] ] } },
{ "type": "Feature", "properties": { "Id": 0, "Nama_Jalan": "Lrg. Kaluku Dasa", "Armada": 2.0, "panjang": 721.77661406599998, "kelurahan": "Lasoani" }, "geometry": { "type": "LineString", "coordinates": [ [ 119.899061360948537, -0.899589224777344 ], [ 119.898984916235619, -0.899025084363444 ], [ 119.898773461595255, -0.898319523218355 ], [ 119.898727732361365, -0.898155080614618 ], [ 119.89875048537516, -0.898095773441435 ], [ 119.898872073544993, -0.898082288462409 ], [ 119.899196866017689, -0.897950063179845 ], [ 119.899755336146228, -0.897792788147259 ], [ 119.900146612478622, -0.89764138439889 ], [ 119.900452436445534, -0.897549337883787 ], [ 119.90067680844011, -0.897469548939565 ], [ 119.900852497829817, -0.897395297471343 ], [ 119.900964057345419, -0.897313925207299 ], [ 119.90108270595195, -0.897187124367706 ], [ 119.901134893094948, -0.897108190235957 ], [ 119.901426822106103, -0.896864107741519 ], [ 119.901543146583279, -0.896801857183411 ], [ 119.901813811942347, -0.896698841846609 ], [ 119.902037019333235, -0.896648459356763 ], [ 119.902174776852888, -0.896660302737112 ], [ 119.902295894514737, -0.896653033977038 ], [ 119.902342719843745, -0.896651602018731 ], [ 119.90285178911607, -0.896343873951593 ], [ 119.902982838970942, -0.896282567992914 ], [ 119.90315568668224, -0.896219316128431 ], [ 119.903218608080039, -0.896200020946684 ] ] } },
{ "type": "Feature", "properties": { "Id": 0, "Nama_Jalan": "Lrg. Maju", "Armada": 2.0, "panjang": 257.29412854899999, "kelurahan": "Lasoani" }, "geometry": { "type": "LineString", "coordinates": [ [ 119.897885420754136, -0.899477205786379 ], [ 119.897899609474948, -0.899399736176585 ], [ 119.897896651941139, -0.899263469380898 ], [ 119.897786502424694, -0.898724218420104 ], [ 119.897708097391472, -0.898233472949403 ], [ 119.89779670635744, -0.898234923845859 ], [ 119.89811256699187, -0.898220327404369 ], [ 119.898693153442593, -0.898099133934092 ], [ 119.89875048537516, -0.898095773441435 ] ] } },
{ "type": "Feature", "properties": { "Id": 0, "Nama_Jalan": "Jl. Lengaru", "Armada": 2.0, "panjang": 221.65700454200001, "kelurahan": "Lasoani" }, "geometry": { "type": "LineString", "coordinates": [ [ 119.902050623139601, -0.89848883243361 ], [ 119.901817291222287, -0.897747908736325 ], [ 119.901814402027242, -0.897698184928703 ], [ 119.901835737135528, -0.89764796362051 ], [ 119.901997973370044, -0.89737959981788 ], [ 119.90218151608812, -0.897024676519511 ], [ 119.902342719843745, -0.896651602018748 ] ] } },
{ "type": "Feature", "properties": { "Id": 0, "Nama_Jalan": "Jl. Lengaru Virgin", "Armada": 2.0, "panjang": 80.277317260100006, "kelurahan": "Lasoani" }, "geometry": { "type": "LineString", "coordinates": [ [ 119.90219561028124, -0.896992058261568 ], [ 119.902338441137417, -0.897249274839842 ], [ 119.902478167127697, -0.897488516299667 ], [ 119.902619285427832, -0.897545779731866 ] ] } },
{ "type": "Feature", "properties": { "Id": 0, "Nama_Jalan": "BTN The Virgin", "Armada": 2.0, "panjang": 102.512717008, "kelurahan": "Lasoani" }, "geometry": { "type": "LineString", "coordinates": [ [ 119.906225582557454, -0.898648293824546 ], [ 119.906293640597525, -0.899118005768209 ], [ 119.906390175649307, -0.899559006776031 ] ] } },
{ "type": "Feature", "properties": { "Id": 0, "Nama_Jalan": "Perumahan Bukit Permata Hijau", "Armada": 2.0, "panjang": 96.138826789299998, "kelurahan": "Lasoani" }, "geometry": { "type": "LineString", "coordinates": [ [ 119.908301136826395, -0.897845756950068 ], [ 119.907860522076831, -0.898069876332343 ], [ 119.907961503141763, -0.898427438978977 ] ] } },
{ "type": "Feature", "properties": { "Id": 0, "Nama_Jalan": "Jl. Mantikulore", "Armada": 2.0, "panjang": 498.61839127600001, "kelurahan": "Lasoani" }, "geometry": { "type": "LineString", "coordinates": [ [ 119.903256937275671, -0.898123288908372 ], [ 119.903218608080039, -0.896200020946684 ], [ 119.903283755719869, -0.895991980148815 ], [ 119.904067922298623, -0.895027912452924 ], [ 119.90439542424825, -0.894719254349602 ], [ 119.904916905145242, -0.894309494549253 ] ] } },
{ "type": "Feature", "properties": { "Id": 0, "Nama_Jalan": "Lrg. Mantikulore II", "Armada": 2.0, "panjang": 72.634824047500004, "kelurahan": "Lasoani" }, "geometry": { "type": "LineString", "coordinates": [ [ 119.903584601538256, -0.895622115077449 ], [ 119.903845937794415, -0.896027271890383 ], [ 119.903998347116456, -0.895946823538935 ] ] } },
{ "type": "Feature", "properties": { "Id": 0, "Nama_Jalan": "Blok Kemuning", "Armada": 2.0, "panjang": 92.671738455699995, "kelurahan": "Lasoani" }, "geometry": { "type": "LineString", "coordinates": [ [ 119.900270421056021, -0.894109149404814 ], [ 119.900296369138076, -0.894320420225466 ], [ 119.900427899582311, -0.894930690938732 ] ] } },
{ "type": "Feature", "properties": { "Id": 0, "Nama_Jalan": "Blok Mawar", "Armada": 2.0, "panjang": 131.103267974, "kelurahan": "Lasoani" }, "geometry": { "type": "LineString", "coordinates": [ [ 119.900333513752699, -0.894493761530192 ], [ 119.901475288815632, -0.894206844872813 ] ] } },
{ "type": "Feature", "properties": { "Id": 0, "Nama_Jalan": "Blok Seroja", "Armada": 2.0, "panjang": 76.258714329699998, "kelurahan": "Lasoani" }, "geometry": { "type": "LineString", "coordinates": [ [ 119.901618417399817, -0.894492508096735 ], [ 119.901830494782786, -0.895147648110071 ] ] } },
{ "type": "Feature", "properties": { "Id": 0, "Nama_Jalan": "Blok Quinji", "Armada": 2.0, "panjang": 173.10774443899999, "kelurahan": "Lasoani" }, "geometry": { "type": "MultiLineString", "coordinates": [ [ [ 119.900634570687373, -0.895891983594723 ], [ 119.901057859304501, -0.895749418973632 ] ], [ [ 119.901057859304501, -0.895749418973632 ], [ 119.901071828150293, -0.895788920762011 ] ], [ [ 119.900700425085276, -0.894738647134675 ], [ 119.901057859304501, -0.895749418973632 ] ] ] } },
{ "type": "Feature", "properties": { "Id": 0, "Nama_Jalan": "Blok Melati", "Armada": 2.0, "panjang": 131.518251373, "kelurahan": "Lasoani" }, "geometry": { "type": "LineString", "coordinates": [ [ 119.901545478636208, -0.894518289902774 ], [ 119.900402460383745, -0.894815511661368 ] ] } },
{ "type": "Feature", "properties": { "Id": 0, "Nama_Jalan": "Jl. Tekukur", "Armada": 1.0, "panjang": 397.96178880299999, "kelurahan": "Lasoani" }, "geometry": { "type": "LineString", "coordinates": [ [ 119.908229671947836, -0.901798073605889 ], [ 119.908332505700074, -0.902692099470125 ], [ 119.90842074421532, -0.903151035979431 ], [ 119.908480472015583, -0.903595651421879 ], [ 119.90852830045965, -0.904009197780567 ], [ 119.908537322418113, -0.904093695611023 ], [ 119.908684019081051, -0.904132089712326 ], [ 119.909028066855782, -0.904324977620847 ], [ 119.909157400177264, -0.904495088409899 ], [ 119.909450331842976, -0.904917520959035 ] ] } },
{ "type": "Feature", "properties": { "Id": 0, "Nama_Jalan": "Lrg. Kersen", "Armada": 1.0, "panjang": 75.876276877099997, "kelurahan": "Lasoani" }, "geometry": { "type": "LineString", "coordinates": [ [ 119.910212422985623, -0.905020445921979 ], [ 119.910220610031402, -0.904676499648837 ], [ 119.910168174224779, -0.904442257251881 ], [ 119.910137267409795, -0.904401640981218 ], [ 119.910092126109049, -0.904380161492872 ] ] } },
{ "type": "Feature", "properties": { "Id": 0, "Nama_Jalan": "Jl. Valengapa", "Armada": 1.0, "panjang": 560.47707289300001, "kelurahan": "Lasoani" }, "geometry": { "type": "LineString", "coordinates": [ [ 119.901257867386803, -0.901896032863127 ], [ 119.901999595169244, -0.901743793732601 ], [ 119.902396107204396, -0.901607206665325 ], [ 119.903089440512773, -0.901407745563635 ], [ 119.903180643836066, -0.901413409940508 ], [ 119.905073730639671, -0.900964355329945 ], [ 119.905775297661066, -0.900667946292284 ], [ 119.906034056690572, -0.900526688943244 ], [ 119.906071803417632, -0.90050753327109 ] ] } },
{ "type": "Feature", "properties": { "Id": 0, "Nama_Jalan": "Jl. Bulumasomba II", "Armada": 1.0, "panjang": 272.36426203799999, "kelurahan": "Lasoani" }, "geometry": { "type": "LineString", "coordinates": [ [ 119.90695602010598, -0.901428903589504 ], [ 119.907449788556022, -0.901147364078218 ], [ 119.907886610910012, -0.900932809169132 ], [ 119.908118343024157, -0.900852296498863 ], [ 119.908222828995861, -0.90083691223637 ], [ 119.908293582983276, -0.900811992434867 ], [ 119.908322032387517, -0.900748856010133 ], [ 119.908300549668866, -0.900612605383142 ], [ 119.908318894564857, -0.900385955610533 ], [ 119.908283091636136, -0.900160783747216 ], [ 119.90821445390921, -0.899859376026086 ] ] } },
{ "type": "Feature", "properties": { "Id": 0, "Nama_Jalan": "Jl. Bulumasomba I", "Armada": 1.0, "panjang": 425.94110710299998, "kelurahan": "Lasoani" }, "geometry": { "type": "LineString", "coordinates": [ [ 119.906071803417632, -0.90050753327109 ], [ 119.906544695514967, -0.900254698850727 ], [ 119.906890374463998, -0.900109068642067 ], [ 119.907076524274245, -0.900049630609253 ], [ 119.907310171703131, -0.899988241913197 ], [ 119.90821445390921, -0.899859376026086 ], [ 119.90856185198335, -0.899785942678095 ], [ 119.909696750403569, -0.89936905583193 ] ] } },
{ "type": "Feature", "properties": { "Id": 0, "Nama_Jalan": "Jl. Maleo Atas", "Armada": 1.0, "panjang": 118.42949722900001, "kelurahan": "Lasoani" }, "geometry": { "type": "LineString", "coordinates": [ [ 119.907074885715147, -0.901726565633701 ], [ 119.90708986209053, -0.90189390030682 ], [ 119.906900565601092, -0.902775611382242 ] ] } },
{ "type": "Feature", "properties": { "Id": 0, "Nama_Jalan": "Kos Pelangi", "Armada": 1.0, "panjang": 36.1078429704, "kelurahan": "Lasoani" }, "geometry": { "type": "LineString", "coordinates": [ [ 119.901217990316795, -0.90498540731058 ], [ 119.901537819340902, -0.904932533782556 ] ] } },
{ "type": "Feature", "properties": { "Id": 0, "Nama_Jalan": "Perumahan Permata Garuda", "Armada": 2.0, "panjang": 386.64662058499999, "kelurahan": "Lasoani" }, "geometry": { "type": "MultiLineString", "coordinates": [ [ [ 119.897592686295852, -0.901018099832809 ], [ 119.89801207802229, -0.900922240290463 ] ], [ [ 119.89801207802229, -0.900922240290463 ], [ 119.898027229207059, -0.900918777213634 ], [ 119.897926309742147, -0.90040327717053 ] ], [ [ 119.897926309742147, -0.90040327717053 ], [ 119.898234405407706, -0.900416567083735 ], [ 119.898446585756844, -0.901437220011943 ], [ 119.898144070262788, -0.901509183157956 ], [ 119.89801207802229, -0.900922240290463 ] ], [ [ 119.897926309742147, -0.90040327717053 ], [ 119.897877952772831, -0.900156267642904 ] ] ] } },
{ "type": "Feature", "properties": { "Id": 0, "Nama_Jalan": "Perumahan Jl. Bouraq", "Armada": 2.0, "panjang": 830.15024527000003, "kelurahan": "Lasoani" }, "geometry": { "type": "MultiLineString", "coordinates": [ [ [ 119.900714292722938, -0.910982744879706 ], [ 119.900721524433294, -0.911116139010436 ] ], [ [ 119.900714292722938, -0.910982744879706 ], [ 119.901175936971555, -0.910917822122745 ], [ 119.901125306276995, -0.910586151956057 ] ], [ [ 119.898834644231272, -0.910913710154016 ], [ 119.899725688691362, -0.910851786492343 ], [ 119.899845339068577, -0.910850129038698 ], [ 119.900184924991933, -0.91080443080037 ], [ 119.900283548103147, -0.910797464330481 ] ], [ [ 119.900283548103147, -0.910797464330481 ], [ 119.900325993372903, -0.911094306139609 ] ], [ [ 119.900283548103147, -0.910797464330481 ], [ 119.900677943285046, -0.910769605300003 ] ], [ [ 119.900677943285046, -0.910769605300003 ], [ 119.900714292722938, -0.910982744879706 ] ], [ [ 119.900677943285046, -0.910769605300003 ], [ 119.900659173379722, -0.910650799716807 ] ], [ [ 119.900659173379722, -0.910650799716807 ], [ 119.900607629349565, -0.910324547293352 ] ], [ [ 119.901125306276995, -0.910586151956057 ], [ 119.900659173379722, -0.910650799716807 ] ], [ [ 119.901125306276995, -0.910586151956057 ], [ 119.901075662250051, -0.910260944535383 ], [ 119.900607629349565, -0.910324547293352 ] ], [ [ 119.900607629349565, -0.910324547293352 ], [ 119.900550712745854, -0.909964287923289 ], [ 119.900550725220441, -0.909947230548909 ] ], [ [ 119.900550725220441, -0.909947230548909 ], [ 119.900801755438508, -0.909914036218003 ] ], [ [ 119.900550725220441, -0.909947230548909 ], [ 119.900550939725221, -0.909653977307605 ], [ 119.900505334015165, -0.909646364054587 ], [ 119.900150069185571, -0.90968681515436 ], [ 119.900173139533749, -0.910025317060591 ], [ 119.900283548103147, -0.910797464330481 ] ] ] } },
{ "type": "Feature", "properties": { "Id": 0, "Nama_Jalan": "Lrg. Kapurung", "Armada": 2.0, "panjang": 270.78670672200002, "kelurahan": "Lasoani" }, "geometry": { "type": "LineString", "coordinates": [ [ 119.89965859844591, -0.908413468935082 ], [ 119.899670211069079, -0.908595026549196 ], [ 119.899724289583645, -0.90910109042879 ], [ 119.899730085742888, -0.909221576165215 ], [ 119.899794644454445, -0.909765165222611 ], [ 119.899812017139638, -0.910106540670527 ], [ 119.899843675373347, -0.91049237123273 ], [ 119.899833752071444, -0.910556927709144 ], [ 119.899845339068577, -0.910850129038698 ] ] } },
{ "type": "Feature", "properties": { "Id": 0, "Nama_Jalan": "Kompleks Toraja", "Armada": 2.0, "panjang": 110.223976607, "kelurahan": "Lasoani" }, "geometry": { "type": "LineString", "coordinates": [ [ 119.90196483868958, -0.905219718544083 ], [ 119.902268938434901, -0.905200791920175 ], [ 119.902527546648585, -0.905167592067933 ], [ 119.902735323373804, -0.905125587694518 ], [ 119.902901572309148, -0.905126648983044 ], [ 119.902938362481194, -0.905099126540376 ] ] } },
{ "type": "Feature", "properties": { "Id": 0, "Nama_Jalan": "Jl. Kadia", "Armada": 2.0, "panjang": 94.532613950200002, "kelurahan": "Lasoani" }, "geometry": { "type": "LineString", "coordinates": [ [ 119.902836383705903, -0.904176107863264 ], [ 119.901991562525069, -0.904256083366797 ] ] } },
{ "type": "Feature", "properties": { "Id": 0, "Nama_Jalan": "Lrg. Maleo Permai", "Armada": 2.0, "panjang": 168.494870873, "kelurahan": "Lasoani" }, "geometry": { "type": "LineString", "coordinates": [ [ 119.902938362481194, -0.905099126540376 ], [ 119.902956351955297, -0.905023327598679 ], [ 119.902910560792805, -0.904782384345153 ], [ 119.902836383705903, -0.904176107863247 ], [ 119.902793987056981, -0.903933309987251 ], [ 119.902694928432581, -0.90360634516795 ] ] } },
{ "type": "Feature", "properties": { "Id": 0, "Nama_Jalan": "BTN Kaluku Dasa", "Armada": 2.0, "panjang": 60.767597651700001, "kelurahan": "Lasoani" }, "geometry": { "type": "LineString", "coordinates": [ [ 119.899384694181734, -0.897897167459629 ], [ 119.89925867505211, -0.897362947941792 ] ] } },
{ "type": "Feature", "properties": { "Id": 0, "Nama_Jalan": "MTs. Al Istiqomah Lasoani", "Armada": 2.0, "panjang": 44.390764904000001, "kelurahan": "Lasoani" }, "geometry": { "type": "LineString", "coordinates": [ [ 119.902286945063281, -0.89715653828846 ], [ 119.902488317527101, -0.897108868630993 ], [ 119.902678295239113, -0.897083853777323 ] ] } },
{ "type": "Feature", "properties": { "Id": 0, "Nama_Jalan": "Jl. Taipa Losi", "Armada": 2.0, "panjang": 153.301083379, "kelurahan": "Lasoani" }, "geometry": { "type": "LineString", "coordinates": [ [ 119.89700984871962, -0.895602087798237 ], [ 119.897592163319516, -0.895563851224179 ], [ 119.897597829442262, -0.895520814333069 ], [ 119.897627733848438, -0.895494971092612 ], [ 119.897962602024407, -0.895490401180604 ], [ 119.898166391793396, -0.89551175505491 ], [ 119.898253309103083, -0.895503079355521 ], [ 119.898327378993031, -0.895465725654485 ] ] } },
{ "type": "Feature", "properties": { "Id": 0, "Nama_Jalan": "Jl. Suralele", "Armada": 2.0, "panjang": 438.216409731, "kelurahan": "Lasoani" }, "geometry": { "type": "LineString", "coordinates": [ [ 119.898434152146677, -0.893825390984371 ], [ 119.898704923443333, -0.893856254607199 ], [ 119.899182199025518, -0.893736340850838 ], [ 119.900222725157619, -0.894103678350304 ], [ 119.900367611435399, -0.894120297821219 ], [ 119.900951750437926, -0.893988345457785 ], [ 119.901310237214432, -0.893818321856703 ], [ 119.901898907824872, -0.893409047286695 ], [ 119.902038906896024, -0.893251151129185 ] ] } },
{ "type": "Feature", "properties": { "Id": 0, "Nama_Jalan": "BTN Mahkota Indah", "Armada": 2.0, "panjang": 2473.01726775, "kelurahan": "Lasoani" }, "geometry": { "type": "MultiLineString", "coordinates": [ [ [ 119.900533517686711, -0.895592750862781 ], [ 119.900646296774099, -0.89555201937256 ] ], [ [ 119.900646296774099, -0.89555201937256 ], [ 119.900949823471677, -0.895443909760124 ], [ 119.901200692152443, -0.895348369564513 ], [ 119.901238763586662, -0.89533702699779 ] ], [ [ 119.898295551098698, -0.895481776571325 ], [ 119.898363122595384, -0.894811127333946 ] ], [ [ 119.898327378993031, -0.895465725654485 ], [ 119.898406717350454, -0.895433388201303 ], [ 119.89857962598721, -0.895446638319581 ], [ 119.898632793829023, -0.895406432452666 ], [ 119.898650256756099, -0.895223048106264 ] ], [ [ 119.901238763586662, -0.89533702699779 ], [ 119.901536410421031, -0.89524834950996 ] ], [ [ 119.901536410421031, -0.89524834950996 ], [ 119.901552698857017, -0.895243496719861 ], [ 119.901830494782786, -0.895147648110071 ] ], [ [ 119.898650256756099, -0.895223048106264 ], [ 119.89934318277362, -0.895147672677821 ], [ 119.899407620613943, -0.89512366452059 ] ], [ [ 119.898650256756099, -0.895223048106264 ], [ 119.898681788974187, -0.894891917926453 ] ], [ [ 119.899407620613943, -0.89512366452059 ], [ 119.899466645234952, -0.895101673212871 ], [ 119.899698412390848, -0.89506323767787 ], [ 119.899717081213197, -0.895061792870937 ] ], [ [ 119.899717081213197, -0.895061792870937 ], [ 119.900047987060773, -0.895036183580956 ], [ 119.900066000347962, -0.89503118172105 ] ], [ [ 119.899717081213197, -0.895061792870937 ], [ 119.899621869720747, -0.894244975856604 ] ], [ [ 119.900066000347962, -0.89503118172105 ], [ 119.900427899582311, -0.894930690938732 ], [ 119.900646296774099, -0.89555201937256 ] ], [ [ 119.900066000347962, -0.89503118172105 ], [ 119.899990538365984, -0.894464378056663 ], [ 119.899969572519481, -0.894380242716018 ], [ 119.899914429640873, -0.894324822766556 ], [ 119.899621869720747, -0.894244975856604 ] ], [ [ 119.90175843459275, -0.894925043150207 ], [ 119.902077969849074, -0.89478966192609 ], [ 119.902060688549355, -0.8947098270449 ], [ 119.902054942007936, -0.894650542803543 ], [ 119.902123288391621, -0.894583549359125 ], [ 119.902600003974541, -0.894357489593061 ] ], [ [ 119.898681788974187, -0.894891917926453 ], [ 119.898687709290073, -0.894853191464722 ] ], [ [ 119.898681788974187, -0.894891917926453 ], [ 119.899365141046843, -0.894813144495396 ] ], [ [ 119.898687709290073, -0.894853191464722 ], [ 119.898731920189675, -0.894563995709702 ] ], [ [ 119.899365141046843, -0.894813144495396 ], [ 119.899407620613943, -0.89512366452059 ] ], [ [ 119.898363122595384, -0.894811127333946 ], [ 119.898687709290073, -0.894853191464722 ] ], [ [ 119.898363122595384, -0.894811127333946 ], [ 119.898376850484254, -0.894651113488465 ] ], [ [ 119.90102995065952, -0.894653640993891 ], [ 119.901238763586662, -0.89533702699779 ] ], [ [ 119.898376850484254, -0.894651113488465 ], [ 119.898046976628194, -0.894613191010435 ] ], [ [ 119.898376850484254, -0.894651113488465 ], [ 119.898415177244772, -0.89420437369928 ] ], [ [ 119.898046976628194, -0.894613191010435 ], [ 119.897568195182757, -0.894630784871144 ] ], [ [ 119.898046976628194, -0.894613191010435 ], [ 119.898095895684804, -0.89400113630145 ] ], [ [ 119.901336239631249, -0.894574629082173 ], [ 119.901536410421031, -0.89524834950996 ] ], [ [ 119.898731920189675, -0.894563995709702 ], [ 119.898734716457682, -0.894545704560219 ], [ 119.898736362640804, -0.894222482597166 ] ], [ [ 119.899320543191521, -0.894487139327041 ], [ 119.898731920189675, -0.894563995709702 ] ], [ [ 119.899320543191521, -0.894487139327041 ], [ 119.899365141046843, -0.894813144495396 ] ], [ [ 119.902600003974541, -0.894357489593061 ], [ 119.902708056827095, -0.894573699997306 ] ], [ [ 119.902600003974541, -0.894357489593061 ], [ 119.903183493087923, -0.894004639079019 ] ], [ [ 119.899621869720747, -0.894244975856604 ], [ 119.899336237430617, -0.894167019622396 ], [ 119.899276540745149, -0.894165485790814 ] ], [ [ 119.898736362640804, -0.894222482597166 ], [ 119.898415177244772, -0.89420437369928 ] ], [ [ 119.898415177244772, -0.89420437369928 ], [ 119.89841901669061, -0.894159620918157 ], [ 119.898434152146677, -0.893825390984371 ] ], [ [ 119.899276540745149, -0.894165485790814 ], [ 119.899320543191521, -0.894487139327041 ] ], [ [ 119.899276540745149, -0.894165485790814 ], [ 119.89922793647348, -0.894164236964177 ], [ 119.898736362640804, -0.894222482597166 ] ], [ [ 119.901310237214432, -0.893818321856703 ], [ 119.901373986572338, -0.89388919960032 ], [ 119.901419641525138, -0.893959927378704 ], [ 119.901545478636208, -0.894518289902774 ] ], [ [ 119.902410866938737, -0.893760702604954 ], [ 119.901712266526403, -0.894238543235822 ], [ 119.9016909245194, -0.894280158045728 ], [ 119.90171376365609, -0.894330344116104 ], [ 119.901725245800776, -0.894435046709534 ], [ 119.901706742484492, -0.894462315187734 ], [ 119.901618417399817, -0.894492508096735 ] ], [ [ 119.902410866938737, -0.893760702604954 ], [ 119.902545702447313, -0.894012677666809 ], [ 119.901923332656878, -0.894453536220873 ], [ 119.901657509710617, -0.894615134954626 ] ], [ [ 119.902256889926335, -0.893507138247781 ], [ 119.90161656858298, -0.893953172346645 ] ], [ [ 119.902256889926335, -0.893507138247781 ], [ 119.902402994922525, -0.89374599169892 ], [ 119.902410866938737, -0.893760702604954 ] ], [ [ 119.902038906896024, -0.893251151129185 ], [ 119.902091973240346, -0.893267147374949 ], [ 119.90212762024062, -0.893295807152684 ], [ 119.902256889926335, -0.893507138247781 ] ] ] } },
{ "type": "Feature", "properties": { "Id": 0, "Nama_Jalan": "Lrg. Posirempe", "Armada": 1.0, "panjang": 119.225066947, "kelurahan": "Lasoani" }, "geometry": { "type": "LineString", "coordinates": [ [ 119.909450331842976, -0.904917520959035 ], [ 119.90996375617263, -0.904962417049404 ], [ 119.910251654574949, -0.905029601000328 ], [ 119.91050770773262, -0.905070752443132 ] ] } },
{ "type": "Feature", "properties": { "Id": 0, "Nama_Jalan": "Lrg. Juventus", "Armada": 1.0, "panjang": 401.52493255299999, "kelurahan": "Lasoani" }, "geometry": { "type": "LineString", "coordinates": [ [ 119.90968069234961, -0.902700150176645 ], [ 119.909886180607089, -0.902740077125581 ], [ 119.910845747509029, -0.90284688311138 ], [ 119.910808007097017, -0.903172043241735 ], [ 119.909760570515701, -0.903070089704605 ], [ 119.909689312345904, -0.903058193858176 ], [ 119.909665060025134, -0.903023309750489 ], [ 119.909670536223118, -0.902742163491697 ], [ 119.909698511035472, -0.902626438814119 ], [ 119.909600208344514, -0.902092234952015 ] ] } },
{ "type": "Feature", "properties": { "Id": 0, "Nama_Jalan": "Lrg. Mebere II", "Armada": 1.0, "panjang": 179.37519951199999, "kelurahan": "Lasoani" }, "geometry": { "type": "LineString", "coordinates": [ [ 119.90841031791409, -0.903096807900822 ], [ 119.907996759680401, -0.903102214889904 ], [ 119.907966975722772, -0.902980314950565 ], [ 119.907936082244461, -0.902956433189277 ], [ 119.907894513807989, -0.902948099355208 ], [ 119.907613129603021, -0.903009288071676 ], [ 119.907273536550932, -0.903042552893221 ], [ 119.906912556195152, -0.903060056525632 ] ] } },
{ "type": "Feature", "properties": { "Id": 0, "Nama_Jalan": "Lrg. Mebere III", "Armada": 1.0, "panjang": 310.65977424599998, "kelurahan": "Lasoani" }, "geometry": { "type": "LineString", "coordinates": [ [ 119.908478625779537, -0.903581908009525 ], [ 119.90890899950827, -0.90357232073692 ], [ 119.909514886926402, -0.903617015477124 ], [ 119.909838462132683, -0.903750153305802 ], [ 119.910263197785426, -0.903867431004484 ], [ 119.910398580475544, -0.903880231277909 ], [ 119.910454144119754, -0.903867276854693 ], [ 119.910501132783907, -0.90382277264074 ], [ 119.910375243980425, -0.903206083879332 ], [ 119.910363904153741, -0.903128815981253 ] ] } },
{ "type": "Feature", "properties": { "Id": 0, "Nama_Jalan": "Jl. Bangau", "Armada": 1.0, "panjang": 195.714635061, "kelurahan": "Lasoani" }, "geometry": { "type": "LineString", "coordinates": [ [ 119.908537322418113, -0.904093695611023 ], [ 119.90815293923049, -0.904030025695402 ], [ 119.908078824511733, -0.90401000390368 ], [ 119.907689811814919, -0.904017489731732 ], [ 119.906792141587744, -0.904099974605798 ] ] } },
{ "type": "Feature", "properties": { "Id": 0, "Nama_Jalan": "Komplek Perumahan Hasanah Land", "Armada": 1.0, "panjang": 83.290776938899995, "kelurahan": "Lasoani" }, "geometry": { "type": "LineString", "coordinates": [ [ 119.906785847712868, -0.904447742197116 ], [ 119.907082709401536, -0.90443674466793 ], [ 119.907104098335196, -0.904454657414733 ], [ 119.90710681225319, -0.90488019401881 ] ] } },
{ "type": "Feature", "properties": { "Id": 0, "Nama_Jalan": "Panti Asuhan Al Hidayah", "Armada": 1.0, "panjang": 37.807586628700001, "kelurahan": "Lasoani" }, "geometry": { "type": "LineString", "coordinates": [ [ 119.907603576414203, -0.904892099706608 ], [ 119.90763163713369, -0.904976592276447 ], [ 119.907675469032725, -0.905142947245905 ], [ 119.907679333002022, -0.90522327050788 ] ] } },
{ "type": "Feature", "properties": { "Id": 0, "Nama_Jalan": "Lrg. Kramat Jaya", "Armada": 1.0, "panjang": 226.11533756700001, "kelurahan": "Lasoani" }, "geometry": { "type": "LineString", "coordinates": [ [ 119.903124967347011, -0.901409952033761 ], [ 119.903197771289115, -0.901795713569439 ], [ 119.903228619588091, -0.902062010053821 ], [ 119.903252555127793, -0.902296277027272 ], [ 119.903331308732518, -0.902774587871803 ], [ 119.903426827674451, -0.903429556053542 ] ] } },
{ "type": "Feature", "properties": { "Id": 0, "Nama_Jalan": "Jl. Daeng Manessa", "Armada": 1.0, "panjang": 140.30644427499999, "kelurahan": "Lasoani" }, "geometry": { "type": "LineString", "coordinates": [ [ 119.902943520992935, -0.900645509244544 ], [ 119.903365218303065, -0.900522768285043 ], [ 119.903445205017334, -0.900759859087251 ], [ 119.903598092045939, -0.901314388071357 ] ] } },
{ "type": "Feature", "properties": { "Id": 0, "Nama_Jalan": "Jl. Mapane", "Armada": 1.0, "panjang": 251.59971262799999, "kelurahan": "Lasoani" }, "geometry": { "type": "LineString", "coordinates": [ [ 119.905943876186257, -0.902987081423547 ], [ 119.905899932194231, -0.902679198518137 ], [ 119.905939547494285, -0.902321522412047 ], [ 119.905931870157005, -0.902223989257543 ], [ 119.905792572730221, -0.901468649546737 ], [ 119.905761498718462, -0.901217176012912 ], [ 119.906234726419285, -0.901137839833644 ] ] } },
{ "type": "Feature", "properties": { "Id": 0, "Nama_Jalan": "SMA IT Al Fahmi", "Armada": 1.0, "panjang": 50.547630309799999, "kelurahan": "Lasoani" }, "geometry": { "type": "LineString", "coordinates": [ [ 119.911989742169993, -0.905287757314016 ], [ 119.912179342344913, -0.905386577100668 ], [ 119.912212307993386, -0.905626094205282 ] ] } },
{ "type": "Feature", "properties": { "Id": 0, "Nama_Jalan": "Lrg. Puyuh", "Armada": 1.0, "panjang": 58.061696748300001, "kelurahan": "Lasoani" }, "geometry": { "type": "LineString", "coordinates": [ [ 119.905761498718462, -0.901217176012912 ], [ 119.905776747700742, -0.901029671459249 ], [ 119.905684944967831, -0.900706119913225 ] ] } },
{ "type": "Feature", "properties": { "Id": 0, "Nama_Jalan": "BTN Lasoani Bawah", "Armada": 1.0, "panjang": 5872.8132796399996, "kelurahan": "Lasoani" }, "geometry": { "type": "MultiLineString", "coordinates": [ [ [ 119.912942367865597, -0.905733532582965 ], [ 119.91291599520487, -0.906020725751783 ] ], [ [ 119.912942367865597, -0.905733532582965 ], [ 119.913756871853025, -0.905804736401955 ], [ 119.913779673371948, -0.905489113531524 ] ], [ [ 119.912583623366814, -0.905702171115515 ], [ 119.912942367865597, -0.905733532582965 ] ], [ [ 119.913779673371948, -0.905489113531524 ], [ 119.91381843091888, -0.905493184448449 ], [ 119.91437184146406, -0.905552502601289 ] ], [ [ 119.912972597211734, -0.905404341783364 ], [ 119.912942367865597, -0.905733532582965 ] ], [ [ 119.912972597211734, -0.905404341783364 ], [ 119.913779673371948, -0.905489113531524 ] ], [ [ 119.912621355223919, -0.905367448784815 ], [ 119.912972597211734, -0.905404341783364 ] ], [ [ 119.911989742169993, -0.905287757313999 ], [ 119.911399035415741, -0.905242788744119 ] ], [ [ 119.911399035415741, -0.905242788744119 ], [ 119.911180522536824, -0.905221449545021 ], [ 119.911040301060197, -0.905097248676611 ], [ 119.91050770773262, -0.905070752443132 ] ], [ [ 119.913803028004295, -0.905165835572587 ], [ 119.913779673371948, -0.905489113531524 ] ], [ [ 119.913803028004295, -0.905165835572587 ], [ 119.913865673929962, -0.905172798700032 ], [ 119.914430961030561, -0.905234498037644 ] ], [ [ 119.913002698610072, -0.905076878407989 ], [ 119.913001344647483, -0.905091289573205 ], [ 119.912972597211734, -0.905404341783364 ] ], [ [ 119.913002698610072, -0.905076878407989 ], [ 119.913803028004295, -0.905165835572587 ] ], [ [ 119.912206563992186, -0.904988387250589 ], [ 119.913002698610072, -0.905076878407989 ] ], [ [ 119.91142990889729, -0.904913624766246 ], [ 119.911399035415741, -0.905242788744119 ] ], [ [ 119.91142990889729, -0.904913624766246 ], [ 119.911482444228767, -0.904918448439946 ], [ 119.912206563992186, -0.904988387250589 ] ], [ [ 119.911095298260491, -0.904882901561047 ], [ 119.91142990889729, -0.904913624766246 ] ], [ [ 119.91382647523767, -0.904841277049807 ], [ 119.913803028004295, -0.905165835572587 ] ], [ [ 119.91382647523767, -0.904841277049807 ], [ 119.913878713576764, -0.904847181217168 ], [ 119.914448756224274, -0.904916048822749 ] ], [ [ 119.913033257018512, -0.904751624507514 ], [ 119.913002698610072, -0.905076878407989 ] ], [ [ 119.913033257018512, -0.904751624507514 ], [ 119.91382647523767, -0.904841277049807 ] ], [ [ 119.912234980973523, -0.904662410466585 ], [ 119.912206563992186, -0.904988387250589 ] ], [ [ 119.912234980973523, -0.904662410466585 ], [ 119.912282602674765, -0.904666782471901 ], [ 119.913033257018512, -0.904751624507514 ] ], [ [ 119.911460143352556, -0.904591274836135 ], [ 119.91142990889729, -0.904913624766246 ] ], [ [ 119.911460143352556, -0.904591274836135 ], [ 119.912234980973523, -0.904662410466585 ] ], [ [ 119.910914529102143, -0.904541183417443 ], [ 119.911460143352556, -0.904591274836135 ] ], [ [ 119.913844905129665, -0.904518660252874 ], [ 119.913844958432421, -0.904585432026663 ], [ 119.91382647523767, -0.904841277049807 ] ], [ [ 119.913844905129665, -0.904518660252874 ], [ 119.914365363904182, -0.904579034401028 ] ], [ [ 119.913063602856269, -0.904428634074734 ], [ 119.913033257018512, -0.904751624507514 ] ], [ [ 119.913063602856269, -0.904428634074734 ], [ 119.913137401488328, -0.904436588396195 ], [ 119.913844905129665, -0.904518660252874 ] ], [ [ 119.912262884103811, -0.904342329165716 ], [ 119.912234980973523, -0.904662410466585 ] ], [ [ 119.912262884103811, -0.904342329165716 ], [ 119.913063602856269, -0.904428634074734 ] ], [ [ 119.911491293451931, -0.904259163576942 ], [ 119.911460143352556, -0.904591274836135 ] ], [ [ 119.911491293451931, -0.904259163576942 ], [ 119.912262884103811, -0.904342329165716 ] ], [ [ 119.910826390869687, -0.904208952973082 ], [ 119.911090016410014, -0.904215912002171 ], [ 119.911491293451931, -0.904259163576942 ] ], [ [ 119.913844649347595, -0.904198176187924 ], [ 119.913844905129665, -0.904518660252874 ] ], [ [ 119.913844649347595, -0.904198176187924 ], [ 119.914599660793399, -0.904291966670566 ] ], [ [ 119.913093643691354, -0.904106318191829 ], [ 119.913092598800617, -0.904120012302208 ], [ 119.913063602856269, -0.904428634074734 ] ], [ [ 119.913093643691354, -0.904106318191829 ], [ 119.913165643377297, -0.904113827209127 ], [ 119.913844649347595, -0.904198176187924 ] ], [ [ 119.912290758085149, -0.904022583222908 ], [ 119.912262884103811, -0.904342329165716 ] ], [ [ 119.912290758085149, -0.904022583222908 ], [ 119.913093643691354, -0.904106318191829 ] ], [ [ 119.914679755743578, -0.903957031415081 ], [ 119.914642685691064, -0.904265634705237 ] ], [ [ 119.911521013086386, -0.903942304342838 ], [ 119.911491293451931, -0.904259163576942 ] ], [ [ 119.911521013086386, -0.903942304342838 ], [ 119.912290758085149, -0.904022583222908 ] ], [ [ 119.913883413315276, -0.90386862912035 ], [ 119.913844632155076, -0.904176630627216 ], [ 119.913844649347595, -0.904198176187924 ] ], [ [ 119.913883413315276, -0.90386862912035 ], [ 119.913928612293375, -0.903873965843477 ], [ 119.914679755743578, -0.903957031415081 ] ], [ [ 119.91048279104939, -0.90384014458526 ], [ 119.911521013086386, -0.903942304342838 ] ], [ [ 119.913118541520234, -0.903780013280971 ], [ 119.913093643691354, -0.904106318191829 ] ], [ [ 119.913118541520234, -0.903780013280971 ], [ 119.913174494927588, -0.90378492577003 ], [ 119.913883413315276, -0.90386862912035 ] ], [ [ 119.912318124865706, -0.903709355567123 ], [ 119.912291286917423, -0.904016516930931 ], [ 119.912290758085149, -0.904022583222908 ] ], [ [ 119.912318124865706, -0.903709355567123 ], [ 119.912331328381896, -0.903710898944722 ], [ 119.913118541520234, -0.903780013280971 ] ], [ [ 119.914705296145669, -0.903626433627945 ], [ 119.914679755743578, -0.903957031415081 ] ], [ [ 119.914705296145669, -0.903626433627945 ], [ 119.915004854849272, -0.90365766826932 ] ], [ [ 119.911551212835334, -0.903620327231746 ], [ 119.911521013086386, -0.903942304342838 ] ], [ [ 119.911551212835334, -0.903620327231746 ], [ 119.911613313385459, -0.903626969063163 ], [ 119.912318124865706, -0.903709355567123 ] ], [ [ 119.913924164065165, -0.903544985725154 ], [ 119.913883413315276, -0.90386862912035 ] ], [ [ 119.913924164065165, -0.903544985725154 ], [ 119.914705296145669, -0.903626433627945 ] ], [ [ 119.914716866982843, -0.903476659826493 ], [ 119.914705296145669, -0.903626433627945 ] ], [ [ 119.913143229169449, -0.903456464098607 ], [ 119.913118541520234, -0.903780013280971 ] ], [ [ 119.913143229169449, -0.903456464098607 ], [ 119.913924164065165, -0.903544985725154 ] ], [ [ 119.913143229169449, -0.903456464098607 ], [ 119.913172512126451, -0.903072691645742 ], [ 119.912380424693225, -0.902996335111226 ] ], [ [ 119.912348086980273, -0.903366439070238 ], [ 119.912318124865706, -0.903709355567123 ] ], [ [ 119.912348086980273, -0.903366439070238 ], [ 119.912353586619233, -0.903366955189581 ], [ 119.913143229169449, -0.903456464098607 ] ], [ [ 119.91158184336571, -0.903294530033943 ], [ 119.911580757773493, -0.903305332335953 ], [ 119.911551212835334, -0.903620327231746 ] ], [ [ 119.91158184336571, -0.903294530033943 ], [ 119.912348086980273, -0.903366439070238 ] ], [ [ 119.910804102456723, -0.903221541800042 ], [ 119.910779158472465, -0.903537753687184 ], [ 119.911551212835334, -0.903620327231746 ] ], [ [ 119.910804102456723, -0.903221541800042 ], [ 119.91158184336571, -0.903294530033943 ] ], [ [ 119.910808007097017, -0.903172043241735 ], [ 119.910804102456723, -0.903221541800042 ] ], [ [ 119.912380424693225, -0.902996335111226 ], [ 119.912348086980273, -0.903366439070238 ] ], [ [ 119.912380424693225, -0.902996335111226 ], [ 119.911619185659504, -0.902922952116876 ] ], [ [ 119.911619185659504, -0.902922952116876 ], [ 119.91158184336571, -0.903294530033943 ] ], [ [ 119.911619185659504, -0.902922952116876 ], [ 119.910845747509029, -0.90284688311138 ], [ 119.910882469583115, -0.902453377673045 ] ], [ [ 119.912421647609605, -0.902607657756142 ], [ 119.912381337151515, -0.902985892078106 ], [ 119.912380424693225, -0.902996335111226 ] ], [ [ 119.911658626705261, -0.902530491621599 ], [ 119.911619185659504, -0.902922952116876 ] ], [ [ 119.911658626705261, -0.902530491621599 ], [ 119.91168095932376, -0.902532710442733 ], [ 119.912421647609605, -0.902607657756142 ] ], [ [ 119.910882469583115, -0.902453377673045 ], [ 119.911658626705261, -0.902530491621599 ] ], [ [ 119.910882469583115, -0.902453377673045 ], [ 119.910912004584674, -0.902136888286697 ] ], [ [ 119.912447226796573, -0.902282466279456 ], [ 119.912421647609605, -0.902607657756142 ] ], [ [ 119.911688942204833, -0.902210599334375 ], [ 119.911658626705261, -0.902530491621599 ] ], [ [ 119.911688942204833, -0.902210599334375 ], [ 119.912447226796573, -0.902282466279456 ] ], [ [ 119.910912004584674, -0.902136888286697 ], [ 119.910925707326243, -0.902138263008939 ], [ 119.911688942204833, -0.902210599334375 ] ], [ [ 119.910912004584674, -0.902136888286697 ], [ 119.910943546478691, -0.901798894555611 ], [ 119.911720537469847, -0.901877203791529 ] ], [ [ 119.909931898152493, -0.902038559307336 ], [ 119.910015081550185, -0.902351167955831 ], [ 119.910045971164251, -0.902370268352533 ], [ 119.910882469583115, -0.902453377673045 ] ], [ [ 119.909931898152493, -0.902038559307336 ], [ 119.910912004584674, -0.902136888286697 ] ], [ [ 119.911720537469847, -0.901877203791529 ], [ 119.911688942204833, -0.902210599334375 ] ], [ [ 119.911720537469847, -0.901877203791529 ], [ 119.912473138029569, -0.901953054616445 ], [ 119.912447226796573, -0.902282466279456 ] ], [ [ 119.913283040832823, -0.901860480950659 ], [ 119.912840680732472, -0.901827966095577 ], [ 119.91281401249833, -0.901890742294101 ], [ 119.912713978875132, -0.903023395954017 ] ], [ [ 119.909489548409212, -0.901510915008645 ], [ 119.909600208344514, -0.902092234952015 ], [ 119.909873755977273, -0.902032726194096 ], [ 119.909931898152493, -0.902038559307336 ] ] ] } }
]
}
