{
"type": "FeatureCollection",
"name": "Layana Indah",
"crs": { "type": "name", "properties": { "name": "urn:ogc:def:crs:OGC:1.3:CRS84" } },
"features": [
{ "type": "Feature", "properties": { "Id": 0, "Nama_Jalan": "Jl. RE. Martadinata", "kelurahan": "Layana Indah" }, "geometry": { "type": "LineString", "coordinates": [ [ 119.882713453145215, -0.825651232276292 ], [ 119.882988621339734, -0.824371996424783 ], [ 119.883344932562821, -0.822813585674651 ], [ 119.883357885779404, -0.822661765613531 ], [ 119.883348245119478, -0.82246573370594 ], [ 119.883309979662826, -0.822095200157971 ], [ 119.883272296378905, -0.821873847012101 ], [ 119.883196091779979, -0.821587016158193 ], [ 119.883116160020279, -0.821401554462453 ], [ 119.882963981483428, -0.821149205088347 ], [ 119.882125797184713, -0.820071001012421 ], [ 119.88122963259022, -0.818948011086256 ], [ 119.880322793370539, -0.817816495674821 ] ] } },
{ "type": "Feature", "properties": { "Id": 0, "Nama_Jalan": "Jl. Dupa I", "kelurahan": "Layana Indah" }, "geometry": { "type": "LineString", "coordinates": [ [ 119.881535057562687, -0.819330741537626 ], [ 119.881906410307209, -0.819103196776954 ], [ 119.882084935649203, -0.81900265714656 ], [ 119.882214095950388, -0.818949967718029 ], [ 119.882774693069351, -0.818766193377613 ], [ 119.883046339919289, -0.818698100169661 ], [ 119.883137519897375, -0.818672214354284 ], [ 119.883210643343403, -0.818636778744838 ], [ 119.883447093529796, -0.818502727230807 ], [ 119.883569595579559, -0.818438567253614 ], [ 119.883702552898015, -0.818382050011567 ], [ 119.883860213858355, -0.818331252609053 ], [ 119.884400675429816, -0.818220888186614 ], [ 119.885284746691113, -0.818045964673443 ], [ 119.885904522415402, -0.817923589310506 ], [ 119.886017257897848, -0.817921204281627 ] ] } },
{ "type": "Feature", "properties": { "Id": 0, "Nama_Jalan": "Jl. LIK Layana Indah", "kelurahan": "Layana Indah" }, "geometry": { "type": "LineString", "coordinates": [ [ 119.880322793370539, -0.817816495674787 ], [ 119.880411146809664, -0.817792728077264 ], [ 119.880730456670037, -0.817620365091437 ], [ 119.881124562418009, -0.817426431606439 ], [ 119.881860565266422, -0.817095979973865 ], [ 119.881921102898417, -0.817062466122052 ], [ 119.881955509140568, -0.817019408269706 ], [ 119.881976848837425, -0.816970383057406 ], [ 119.881986310323455, -0.816916584986266 ], [ 119.88197557442011, -0.816848457178875 ], [ 119.881961288863238, -0.816798262346332 ], [ 119.881785195900093, -0.816313072996825 ], [ 119.881755433952932, -0.816207902713964 ], [ 119.881694645147348, -0.81588878518538 ], [ 119.881698166733145, -0.815831405312695 ], [ 119.881717130671021, -0.815781186465809 ], [ 119.88175747180648, -0.815734538281604 ], [ 119.88182156935153, -0.815697435850006 ], [ 119.882066117033872, -0.815594458403957 ], [ 119.882458119822104, -0.815449537008074 ], [ 119.882595838144539, -0.815408317273937 ], [ 119.882711714322738, -0.815377632468879 ], [ 119.883021370012429, -0.815322900684979 ], [ 119.883206595061054, -0.815292404932056 ], [ 119.883309176860237, -0.815269380028239 ], [ 119.883422201650191, -0.81523678471819 ], [ 119.883548508482363, -0.815179316359925 ], [ 119.883682395416685, -0.815094110214124 ], [ 119.883756452513438, -0.815035723278306 ], [ 119.884110563745139, -0.81470937403137 ], [ 119.884326075560665, -0.814520830149093 ], [ 119.884727662096338, -0.81416121600729 ], [ 119.884890245197766, -0.814018851249924 ], [ 119.885433788759855, -0.813567809844173 ], [ 119.885493734608019, -0.81353728505149 ] ] } },
{ "type": "Feature", "properties": { "Id": 0, "Nama_Jalan": "Jl. Dupa II", "kelurahan": "Layana Indah" }, "geometry": { "type": "LineString", "coordinates": [ [ 119.882898305814919, -0.818735207602231 ], [ 119.882577295150824, -0.818047327238894 ], [ 119.882288543893083, -0.817443640095076 ], [ 119.882243093962629, -0.817320072683326 ], [ 119.882203855098368, -0.817247184058232 ], [ 119.882121820058757, -0.817108581526378 ], [ 119.882055254670988, -0.81701539150076 ], [ 119.882010109110738, -0.816985540105702 ], [ 119.881976848837425, -0.816970383057406 ] ] } },
{ "type": "Feature", "properties": { "Id": 0, "Nama_Jalan": "Jl. Soekarno Hatta", "kelurahan": "Layana Indah" }, "geometry": { "type": "LineString", "coordinates": [ [ 119.885611620380928, -0.824240412508097 ], [ 119.885470499819135, -0.822066891760184 ], [ 119.88544155139553, -0.821441741074616 ], [ 119.885444892485324, -0.821133336515013 ], [ 119.885469644271424, -0.820875121391053 ], [ 119.885540669165295, -0.82056308158702 ], [ 119.885750302580803, -0.819795510203612 ], [ 119.885808863054777, -0.819488858690159 ], [ 119.885941696970391, -0.818430871712715 ], [ 119.886119554675957, -0.81723120264714 ], [ 119.886188065486181, -0.816723126618005 ], [ 119.886235134568295, -0.816120633004447 ], [ 119.886234086699474, -0.815983406861217 ], [ 119.886210212039288, -0.815807945811588 ], [ 119.886155434751586, -0.815592821248445 ], [ 119.885829325574804, -0.814553096479453 ], [ 119.885493734608019, -0.81353728505149 ] ] } },
{ "type": "Feature", "properties": { "Id": 0, "Nama_Jalan": "Jl. Uwe Vune", "kelurahan": "Layana Indah" }, "geometry": { "type": "LineString", "coordinates": [ [ 119.88608259675712, -0.817480487070888 ], [ 119.886498835740397, -0.817482012613789 ], [ 119.886679350826341, -0.817508179714761 ], [ 119.886825417139761, -0.817517636771252 ], [ 119.887142242698829, -0.817527448273585 ], [ 119.887307527930815, -0.817511549855346 ], [ 119.887407252228471, -0.817478485815659 ] ] } },
{ "type": "Feature", "properties": { "Id": 0, "Nama_Jalan": "BTN Layana View Residence", "kelurahan": "Layana Indah" }, "geometry": { "type": "MultiLineString", "coordinates": [ [ [ 119.893078970924961, -0.820247249764776 ], [ 119.892211106667602, -0.820196874080916 ] ], [ [ 119.893078970924961, -0.820247249764776 ], [ 119.893099377469568, -0.819930786790135 ] ], [ [ 119.892211106667602, -0.820196874080916 ], [ 119.892179529026734, -0.820542901621835 ], [ 119.892981351524597, -0.820601606883105 ], [ 119.893028829688291, -0.820572883914647 ], [ 119.893055391883337, -0.820521225484653 ], [ 119.893066731094677, -0.820437064653076 ], [ 119.893078970924961, -0.820247249764776 ] ], [ [ 119.893099377469568, -0.819930786790135 ], [ 119.892311591429817, -0.819875979540571 ], [ 119.89226260793653, -0.819875537047973 ], [ 119.892236082393936, -0.819923191045163 ] ], [ [ 119.893099377469568, -0.819930786790135 ], [ 119.893121035800348, -0.819594912660783 ] ], [ [ 119.892236082393936, -0.819923191045163 ], [ 119.892211106667602, -0.820196874080916 ] ], [ [ 119.891148270452618, -0.819800622346824 ], [ 119.892133434129519, -0.819852501027806 ], [ 119.892209444597654, -0.819869658754481 ], [ 119.892236082393936, -0.819923191045163 ] ], [ [ 119.893121035800348, -0.819594912660783 ], [ 119.893142126742518, -0.819267838932837 ], [ 119.893091648573659, -0.819252933788855 ], [ 119.892314873446381, -0.819182136349482 ], [ 119.892162871778183, -0.819174596632322 ], [ 119.891178627436318, -0.819079684062268 ], [ 119.891212858157786, -0.819123648101139 ], [ 119.891229989295397, -0.819167624565862 ], [ 119.89122623877708, -0.819236479508092 ], [ 119.891194087751003, -0.819443059533123 ], [ 119.892235314297096, -0.819514979612277 ], [ 119.89236642610814, -0.819535922393943 ], [ 119.893027646356657, -0.819587080406316 ], [ 119.893121035800348, -0.819594912660783 ] ] ] } },
{ "type": "Feature", "properties": { "Id": 0, "Nama_Jalan": "BTN Belona Land", "kelurahan": "Layana Indah" }, "geometry": { "type": "MultiLineString", "coordinates": [ [ [ 119.889007994431708, -0.823085674687403 ], [ 119.888628998494653, -0.823149902669557 ] ], [ [ 119.889007994431708, -0.823085674687403 ], [ 119.889055108652997, -0.823375752540893 ], [ 119.888647611681108, -0.823437730255615 ] ], [ [ 119.889007994431708, -0.823085674687403 ], [ 119.889258754624606, -0.823037677562538 ], [ 119.889273896448088, -0.822957338788838 ], [ 119.888976917802665, -0.822144715213228 ], [ 119.888942001409845, -0.8221382857561 ], [ 119.888889755110483, -0.822141909898668 ], [ 119.888674642964318, -0.82222836227258 ] ], [ [ 119.888356490475289, -0.822679610180961 ], [ 119.888786352296719, -0.822515109666791 ] ], [ [ 119.888786352296719, -0.822515109666791 ], [ 119.889007994431708, -0.823085674687403 ] ], [ [ 119.888674642964318, -0.82222836227258 ], [ 119.888293814687117, -0.822381415045901 ] ], [ [ 119.888674642964318, -0.82222836227258 ], [ 119.888678215224331, -0.822236736093511 ], [ 119.888786352296719, -0.822515109666791 ] ], [ [ 119.888541187040488, -0.821915524870862 ], [ 119.888674642964318, -0.82222836227258 ] ] ] } },
{ "type": "Feature", "properties": { "Id": 0, "Nama_Jalan": "BTN Polda Layana", "kelurahan": "Layana Indah" }, "geometry": { "type": "LineString", "coordinates": [ [ 119.886315315029222, -0.812542565135042 ], [ 119.886375918678553, -0.812602289322671 ], [ 119.886722959302574, -0.81302160938076 ], [ 119.886743159108136, -0.813039525167658 ], [ 119.886769282689073, -0.8130383109953 ], [ 119.886972233683892, -0.81288755001097 ], [ 119.88703632668458, -0.812844471053846 ], [ 119.887283253233946, -0.81274866479734 ], [ 119.88731176109269, -0.812760597818307 ], [ 119.887511637371304, -0.813295972877899 ], [ 119.887718170745316, -0.813841144844171 ], [ 119.887838069227158, -0.814123640191093 ] ] } },
{ "type": "Feature", "properties": { "Id": 0, "Nama_Jalan": "BTN Polda Layana", "kelurahan": "Layana Indah" }, "geometry": { "type": "LineString", "coordinates": [ [ 119.886987188717697, -0.812877498253952 ], [ 119.887023326664604, -0.812931980435727 ], [ 119.887300774982307, -0.813676247783977 ], [ 119.887514919463769, -0.81423695391513 ] ] } },
{ "type": "Feature", "properties": { "Id": 0, "Nama_Jalan": "BTN Polda Layana", "kelurahan": "Layana Indah" }, "geometry": { "type": "MultiLineString", "coordinates": [ [ [ 119.887949637576853, -0.813547040228499 ], [ 119.887654813711436, -0.813673905732511 ], [ 119.887343087016077, -0.813787035759754 ] ], [ [ 119.887949637576853, -0.813547040228499 ], [ 119.888213171495977, -0.813427314781393 ], [ 119.888283364232748, -0.813612544060198 ], [ 119.888342852728826, -0.813773873955156 ], [ 119.888403551702439, -0.813967477516463 ], [ 119.888496443599223, -0.814345142320837 ] ], [ [ 119.887798561489717, -0.8131718078029 ], [ 119.887879438893805, -0.813353443407402 ], [ 119.887949637576853, -0.813547040228499 ] ] ] } },
{ "type": "Feature", "properties": { "Id": 0, "Nama_Jalan": "BTN Polda Layana", "kelurahan": "Layana Indah" }, "geometry": { "type": "LineString", "coordinates": [ [ 119.887942539150274, -0.813550094748605 ], [ 119.888081315947261, -0.813863236037162 ], [ 119.888122711660557, -0.813963855006949 ], [ 119.888211953438159, -0.814218401065067 ] ] } },
{ "type": "Feature", "properties": { "Id": 0, "Nama_Jalan": "BTN Griya Layana Harmoni", "kelurahan": "Layana Indah" }, "geometry": { "type": "LineString", "coordinates": [ [ 119.892209667533422, -0.814934666324574 ], [ 119.89217918861327, -0.814157232740519 ], [ 119.892189112205259, -0.814085504570682 ], [ 119.892226135656941, -0.814049617319954 ], [ 119.892287396763777, -0.814032360016645 ], [ 119.892442726850007, -0.814045157555536 ], [ 119.892465555908643, -0.814086739227985 ], [ 119.892488705262721, -0.81457729399872 ], [ 119.892497488461146, -0.81490433531105 ] ] } },
{ "type": "Feature", "properties": { "Id": 0, "Nama_Jalan": "Kompleks Pergudangan IA", "kelurahan": "Layana Indah" }, "geometry": { "type": "MultiLineString", "coordinates": [ [ [ 119.885479795930209, -0.822212610253627 ], [ 119.88467593533494, -0.822151936214004 ] ], [ [ 119.88467593533494, -0.822151936214004 ], [ 119.884529957412198, -0.823432661709818 ] ], [ [ 119.88467593533494, -0.822151936214004 ], [ 119.883301983805708, -0.822048232190936 ] ] ] } },
{ "type": "Feature", "properties": { "Id": 0, "Nama_Jalan": "Kompleks Pergudangan IB", "kelurahan": "Layana Indah" }, "geometry": { "type": "LineString", "coordinates": [ [ 119.885584505113073, -0.82385392777739 ], [ 119.883186309435885, -0.823507360093734 ] ] } },
{ "type": "Feature", "properties": { "Id": 0, "Nama_Jalan": "Kompleks Pergudangan", "kelurahan": "Layana Indah" }, "geometry": { "type": "MultiLineString", "coordinates": [ [ [ 119.885611620380928, -0.82424041250808 ], [ 119.885762958903882, -0.824230738975821 ] ], [ [ 119.885762958903882, -0.824230738975821 ], [ 119.886708800133476, -0.824170280864658 ] ], [ [ 119.886748547653511, -0.823300032894123 ], [ 119.885736899249295, -0.823415524890927 ], [ 119.885767830461916, -0.823494395879688 ], [ 119.885774993186899, -0.823546986352029 ], [ 119.885739508235588, -0.823740660029298 ], [ 119.885731947961816, -0.823795651956282 ], [ 119.885733918158707, -0.823893191631561 ], [ 119.885762958903882, -0.824230738975821 ] ] ] } },
{ "type": "Feature", "properties": { "Id": 0, "Nama_Jalan": "Kompleks Pergudangan IA", "kelurahan": "Layana Indah" }, "geometry": { "type": "LineString", "coordinates": [ [ 119.885444856164753, -0.821513109031592 ], [ 119.884870546784569, -0.821477644992661 ], [ 119.884854011317415, -0.82160197422099 ] ] } },
{ "type": "Feature", "properties": { "Id": 0, "Nama_Jalan": "Kompleks Pergudangan IB", "kelurahan": "Layana Indah" }, "geometry": { "type": "MultiLineString", "coordinates": [ [ [ 119.882926786221219, -0.82465946262061 ], [ 119.883710074159225, -0.824687788446186 ] ], [ [ 119.883057637318302, -0.824070138181967 ], [ 119.883225399304678, -0.82410456768009 ], [ 119.883157271583997, -0.824481394671523 ], [ 119.883261797471079, -0.824519569917175 ], [ 119.883343508566583, -0.824536723475754 ], [ 119.883406202057969, -0.824529027434259 ], [ 119.883512587958194, -0.824511736640074 ], [ 119.883599978286469, -0.824500197429634 ], [ 119.88365318155715, -0.824505896332855 ], [ 119.883928671549825, -0.824498045012794 ], [ 119.884196594660523, -0.824536100961922 ] ] ] } },
{ "type": "Feature", "properties": { "Id": 0, "Nama_Jalan": null, "kelurahan": "Layana Indah" }, "geometry": { "type": "LineString", "coordinates": [ [ 119.885493734608019, -0.81353728505149 ], [ 119.886315315029222, -0.812542565135025 ] ] } },
{ "type": "Feature", "properties": { "Id": 0, "Nama_Jalan": null, "kelurahan": "Layana Indah" }, "geometry": { "type": "LineString", "coordinates": [ [ 119.892209667533422, -0.814934666324574 ], [ 119.892171082640999, -0.814951477136859 ], [ 119.891947366535177, -0.814955942215172 ], [ 119.89172224589737, -0.81498909670974 ], [ 119.89150992633779, -0.814989250267453 ], [ 119.891373126750707, -0.814985045937193 ], [ 119.891274812434091, -0.814996592403414 ], [ 119.891195025712008, -0.815012428734713 ], [ 119.891108127470915, -0.815046917686775 ], [ 119.891044028650796, -0.815081390154299 ], [ 119.890991327494163, -0.815112985539039 ], [ 119.89092863622831, -0.815123071827354 ], [ 119.89018625238711, -0.81515564407558 ], [ 119.890057058250193, -0.815159562611606 ], [ 119.889986777688847, -0.815184476751734 ], [ 119.889931691298472, -0.815201729653093 ], [ 119.889179339176877, -0.815244349968046 ], [ 119.889110936682357, -0.815238661716949 ], [ 119.889008314516346, -0.815204309717931 ], [ 119.888953210339778, -0.81519669928374 ], [ 119.888888622750343, -0.815212046488667 ], [ 119.888827836433308, -0.815229303512576 ], [ 119.888265610239344, -0.815455392683406 ], [ 119.887509616641083, -0.815721785989795 ], [ 119.88731208096182, -0.815806081777029 ], [ 119.886898046738523, -0.81602632648023 ], [ 119.886787868171041, -0.816053182102574 ], [ 119.886234812733491, -0.816078486597914 ] ] } },
{ "type": "Feature", "properties": { "Id": 0, "Nama_Jalan": null, "kelurahan": "Layana Indah" }, "geometry": { "type": "LineString", "coordinates": [ [ 119.88547703236047, -0.822167506583936 ], [ 119.886551844668986, -0.822143561691394 ], [ 119.887315630998174, -0.82214491791605 ], [ 119.887955880854975, -0.822092812131025 ], [ 119.888121156805795, -0.822064003202848 ], [ 119.888299714573932, -0.822010321233877 ], [ 119.888531428555439, -0.82189731099291 ], [ 119.88906118534085, -0.821655583160458 ], [ 119.889213157967859, -0.821622002557596 ], [ 119.890329051266576, -0.821159783614618 ], [ 119.89045726910075, -0.821119048259627 ], [ 119.891055578117545, -0.820872370079093 ], [ 119.891202793692244, -0.820829230221083 ], [ 119.891551857053713, -0.820754864238876 ], [ 119.891713347988301, -0.820747574512981 ], [ 119.891974605362705, -0.820766509814666 ], [ 119.892067222932482, -0.820759270245431 ], [ 119.892121820807617, -0.820723369971506 ], [ 119.892157396808472, -0.820656404456918 ], [ 119.892179529026734, -0.820542901621835 ] ] } }
]
}
