{
"type": "FeatureCollection",
"name": "Lere",
"crs": { "type": "name", "properties": { "name": "urn:ogc:def:crs:OGC:1.3:CRS84" } },
"features": [
{ "type": "Feature", "properties": { "Id": 0, "Nama_Jalan": "Jl. W.R. Supratman", "Armada_": "1", "panjang": 0.38178043830500002, "kelurahan": "Lere" }, "geometry": { "type": "LineString", "coordinates": [ [ 119.853037617893833, -0.890667702068741 ], [ 119.851689104980295, -0.892954604999861 ], [ 119.851611310593412, -0.893112803798173 ], [ 119.851605382133911, -0.893726600237132 ] ] } },
{ "type": "Feature", "properties": { "Id": 0, "Nama_Jalan": "Jl. Asam I", "Armada_": "1", "panjang": 0.470769555437, "kelurahan": "Lere" }, "geometry": { "type": "LineString", "coordinates": [ [ 119.851605382133911, -0.893726600237132 ], [ 119.847382002106855, -0.893874440346957 ] ] } },
{ "type": "Feature", "properties": { "Id": 0, "Nama_Jalan": "Jl. Asam II", "Armada_": "1", "panjang": 0.66605818487400004, "kelurahan": "Lere" }, "geometry": { "type": "LineString", "coordinates": [ [ 119.847382002106855, -0.893874440346957 ], [ 119.846501506671331, -0.893905915709193 ], [ 119.846287740063474, -0.893894128643949 ], [ 119.845729551820568, -0.893837782996941 ], [ 119.845408927010226, -0.893852975741539 ], [ 119.844776609001173, -0.893916227687136 ], [ 119.844568825821355, -0.893964205820381 ], [ 119.844450103736349, -0.894006137459512 ], [ 119.842897491249701, -0.894138842908466 ], [ 119.841428486575623, -0.894166542010755 ] ] } },
{ "type": "Feature", "properties": { "Id": 0, "Nama_Jalan": "Jl. Asam III", "Armada_": "1", "panjang": 0.57533356358499999, "kelurahan": "Lere" }, "geometry": { "type": "LineString", "coordinates": [ [ 119.841428486575623, -0.894166542010755 ], [ 119.841070450403137, -0.894175427075322 ], [ 119.840411277243092, -0.894174088027277 ], [ 119.83995198577729, -0.894231701867013 ], [ 119.839783361043033, -0.894256474553576 ], [ 119.839680511237304, -0.894282000887519 ], [ 119.83908311460786, -0.894451072742411 ], [ 119.838840610363675, -0.894503237403421 ], [ 119.83832641364414, -0.894541853364312 ], [ 119.8377115082302, -0.894636937590035 ], [ 119.83723379856103, -0.894705423368313 ], [ 119.837012828756485, -0.894755308847609 ], [ 119.836758641220385, -0.894816654129214 ], [ 119.836632268430378, -0.894850281254295 ], [ 119.83647341341738, -0.894922241051768 ], [ 119.836363654192311, -0.894985620814535 ] ] } },
{ "type": "Feature", "properties": { "Id": 0, "Nama_Jalan": "Jl. Kelapa II", "Armada_": "1", "panjang": 0.61259084082600002, "kelurahan": "Lere" }, "geometry": { "type": "LineString", "coordinates": [ [ 119.843907381613292, -0.889242678146956 ], [ 119.843650300093046, -0.889672925299793 ], [ 119.843438734055795, -0.8902085096095 ], [ 119.843188269760049, -0.890658414072074 ], [ 119.842519470843683, -0.891930602225811 ], [ 119.841733254886705, -0.893397255667222 ], [ 119.841492766968997, -0.893847870837996 ], [ 119.841458644537639, -0.893950463005972 ], [ 119.841454333197987, -0.894166054659553 ] ] } },
{ "type": "Feature", "properties": { "Id": 0, "Nama_Jalan": "Jl. Lasoso", "Armada_": "1", "panjang": 0.98667503944799995, "kelurahan": "Lere" }, "geometry": { "type": "LineString", "coordinates": [ [ 119.847324258201994, -0.891287708732851 ], [ 119.846419893129138, -0.89074148260361 ], [ 119.844789245986391, -0.889768500411346 ], [ 119.843262556219273, -0.888858192655849 ], [ 119.842490323974303, -0.888428446805619 ], [ 119.841813704980837, -0.888030090999863 ], [ 119.83971590232305, -0.886724953297979 ] ] } },
{ "type": "Feature", "properties": { "Id": 0, "Nama_Jalan": "Jl. Datu Adam", "Armada_": "1", "panjang": 0.38630960364400002, "kelurahan": "Lere" }, "geometry": { "type": "LineString", "coordinates": [ [ 119.847321506338858, -0.890384482987732 ], [ 119.847324682237584, -0.891426866557809 ], [ 119.84735566946361, -0.893114742698548 ], [ 119.847382002106855, -0.893874440346957 ] ] } },
{ "type": "Feature", "properties": { "Id": 0, "Nama_Jalan": "Jl. Samudra I", "Armada_": "1", "panjang": 0.27546119054399998, "kelurahan": "Lere" }, "geometry": { "type": "LineString", "coordinates": [ [ 119.843321388779742, -0.885405667884508 ], [ 119.845431674222169, -0.886626423491493 ], [ 119.845464537733051, -0.886647173231702 ] ] } },
{ "type": "Feature", "properties": { "Id": 0, "Nama_Jalan": "Jl. Samudra II", "Armada_": "1", "panjang": 0.41301619939799999, "kelurahan": "Lere" }, "geometry": { "type": "LineString", "coordinates": [ [ 119.843681930178235, -0.884807456087931 ], [ 119.842864089630325, -0.886158976254647 ], [ 119.842471575504405, -0.886896244968811 ], [ 119.841813704980837, -0.888030090999863 ] ] } },
{ "type": "Feature", "properties": { "Id": 0, "Nama_Jalan": "Jl. Tomampe", "Armada_": "1", "panjang": 0.40463591120100001, "kelurahan": "Lere" }, "geometry": { "type": "LineString", "coordinates": [ [ 119.845794972418631, -0.886118930424602 ], [ 119.844893558314226, -0.887585024399956 ], [ 119.843913860783445, -0.889246541433586 ] ] } },
{ "type": "Feature", "properties": { "Id": 0, "Nama_Jalan": "Jl. Marjun Habi", "Armada_": "1", "panjang": 0.33247474957000001, "kelurahan": "Lere" }, "geometry": { "type": "LineString", "coordinates": [ [ 119.845296889694168, -0.886922540146994 ], [ 119.846272435565027, -0.887512709940475 ], [ 119.847849159303394, -0.888479758320679 ] ] } },
{ "type": "Feature", "properties": { "Id": 0, "Nama_Jalan": "Jl. Mokolembake", "Armada_": "1", "panjang": 0.39996303444999998, "kelurahan": "Lere" }, "geometry": { "type": "LineString", "coordinates": [ [ 119.848300971317784, -0.887697612373549 ], [ 119.847849159303394, -0.888479758320679 ], [ 119.847406319838257, -0.889246231934579 ], [ 119.846940437585104, -0.890006627476919 ], [ 119.846839616000253, -0.890162107526091 ], [ 119.846300033085939, -0.890669964056418 ] ] } },
{ "type": "Feature", "properties": { "Id": 0, "Nama_Jalan": "Jl. Abd. Raqie", "Armada_": "2", "panjang": 0.36911382420900002, "kelurahan": "Lere" }, "geometry": { "type": "LineString", "coordinates": [ [ 119.846687152234935, -0.886680969950581 ], [ 119.847377601465269, -0.885548055175997 ], [ 119.847777884184239, -0.884878323440051 ], [ 119.847813457830753, -0.884809560639805 ], [ 119.848135233214762, -0.883709151073354 ] ] } },
{ "type": "Feature", "properties": { "Id": 0, "Nama_Jalan": "Jl. Tanjambulu", "Armada_": "1", "panjang": 0.30012307034199998, "kelurahan": "Lere" }, "geometry": { "type": "LineString", "coordinates": [ [ 119.851509913650602, -0.889711588795069 ], [ 119.850148958004183, -0.8920520401898 ] ] } },
{ "type": "Feature", "properties": { "Id": 0, "Nama_Jalan": "Jl.  Cumi-cumi", "Armada_": "2", "panjang": 1.6236457072, "kelurahan": "Lere" }, "geometry": { "type": "LineString", "coordinates": [ [ 119.857029428231897, -0.886262189133056 ], [ 119.856984856988433, -0.886211419829579 ], [ 119.856788850757056, -0.886127895031732 ], [ 119.8559425238996, -0.885850624738975 ], [ 119.855606971471985, -0.885752265716242 ], [ 119.854959555209675, -0.885474840276615 ], [ 119.854380456024771, -0.885242188541593 ], [ 119.853831086076966, -0.885063305989372 ], [ 119.851989985168217, -0.884505886855845 ], [ 119.851710862543214, -0.884437367867736 ], [ 119.850187641167636, -0.884163605934388 ], [ 119.848397119990295, -0.883755567148435 ], [ 119.847863250101952, -0.883660945519348 ], [ 119.847444604767148, -0.883610464443394 ], [ 119.847079418953982, -0.883586838449155 ], [ 119.845826582573864, -0.883608724896017 ], [ 119.84543172371464, -0.883606041081102 ], [ 119.844701350719518, -0.883558788556145 ], [ 119.844466797987479, -0.883541038467812 ], [ 119.844255991461182, -0.883517293044445 ], [ 119.843804623849593, -0.883383158536704 ], [ 119.843329466651099, -0.883198237657867 ], [ 119.84294799825345, -0.883019453588391 ] ] } },
{ "type": "Feature", "properties": { "Id": 0, "Nama_Jalan": "Jl. Pangeran Hidayat", "Armada_": "2", "panjang": 0.59576054517900001, "kelurahan": "Lere" }, "geometry": { "type": "LineString", "coordinates": [ [ 119.857029428231897, -0.886262189133056 ], [ 119.856991565965117, -0.886442961029745 ], [ 119.856920329968659, -0.887391914449991 ], [ 119.856845101400751, -0.888398488741402 ], [ 119.85685241588078, -0.888644732742105 ], [ 119.856869210417287, -0.888864670840626 ], [ 119.856907301433722, -0.888981789065429 ], [ 119.857050071567102, -0.889328339923136 ], [ 119.857490250559337, -0.890358419583189 ], [ 119.857854318412421, -0.891302001997758 ], [ 119.85790429420571, -0.891431064594654 ] ] } },
{ "type": "Feature", "properties": { "Id": 0, "Nama_Jalan": "Jl. Selar", "Armada_": "2", "panjang": 1.16662382126, "kelurahan": "Lere" }, "geometry": { "type": "MultiLineString", "coordinates": [ [ [ 119.855155257977216, -0.888413910102466 ], [ 119.855679179161314, -0.888700395381343 ] ], [ [ 119.855155257977216, -0.888413910102466 ], [ 119.853779560393818, -0.887715677504522 ], [ 119.852222117376158, -0.886949446486963 ], [ 119.850832154108616, -0.886233289388587 ], [ 119.849520600340142, -0.885560103508382 ], [ 119.848487047127477, -0.885040906624802 ], [ 119.847992864395763, -0.884821694640556 ], [ 119.847813457830753, -0.884809560639805 ] ], [ [ 119.856847757100866, -0.888362954715889 ], [ 119.855678950422259, -0.888402743919783 ], [ 119.855155257977216, -0.888413910102466 ] ] ] } },
{ "type": "Feature", "properties": { "Id": 0, "Nama_Jalan": "Jl. Tompi", "Armada_": "2", "panjang": 0.201264437583, "kelurahan": "Lere" }, "geometry": { "type": "LineString", "coordinates": [ [ 119.855200851996614, -0.892216720180305 ], [ 119.856588856726802, -0.891052567330345 ] ] } },
{ "type": "Feature", "properties": { "Id": 0, "Nama_Jalan": "Jl. Pimpilido", "Armada_": "2", "panjang": 0.068063033993200003, "kelurahan": "Lere" }, "geometry": { "type": "LineString", "coordinates": [ [ 119.857219369803119, -0.891934361366627 ], [ 119.857269901357995, -0.891321452825889 ] ] } },
{ "type": "Feature", "properties": { "Id": 0, "Nama_Jalan": "Jl. Lamotu", "Armada_": "2", "panjang": 0.62818250734699999, "kelurahan": "Lere" }, "geometry": { "type": "LineString", "coordinates": [ [ 119.85790429420571, -0.891431064594654 ], [ 119.857783600383726, -0.89142940572021 ], [ 119.857711388321917, -0.891416073850638 ], [ 119.857608778474713, -0.891406590975781 ], [ 119.85741494427738, -0.891368490132404 ], [ 119.857269901357995, -0.891321452825889 ], [ 119.856610959046876, -0.891024846968995 ], [ 119.854834126470209, -0.889882247170338 ], [ 119.853301440975869, -0.888882302134263 ], [ 119.85301926201916, -0.888700224638464 ] ] } },
{ "type": "Feature", "properties": { "Id": 0, "Nama_Jalan": "Jl. Tembang", "Armada_": "2", "panjang": 0.59983283371499996, "kelurahan": "Lere" }, "geometry": { "type": "LineString", "coordinates": [ [ 119.854887195982457, -0.885445770141405 ], [ 119.854767886899353, -0.885685606560629 ], [ 119.854142868040086, -0.886742815996902 ], [ 119.853613544558101, -0.887634001120483 ], [ 119.853226714916644, -0.888327420095567 ], [ 119.852989525073156, -0.888740014447834 ], [ 119.852200814366753, -0.890040616594684 ], [ 119.852155770455326, -0.890115503969779 ] ] } },
{ "type": "Feature", "properties": { "Id": 0, "Nama_Jalan": "Jl. Rono", "Armada_": "2", "panjang": 0.52251532079899998, "kelurahan": "Lere" }, "geometry": { "type": "LineString", "coordinates": [ [ 119.851892649258389, -0.884481992853193 ], [ 119.851403606405313, -0.886174889661496 ], [ 119.85134203032699, -0.886404452800152 ], [ 119.850658893236215, -0.88755734180185 ], [ 119.849985212733301, -0.888652845782454 ], [ 119.849930456005538, -0.888723802773742 ] ] } },
{ "type": "Feature", "properties": { "Id": 0, "Nama_Jalan": "Jl. Diponegoro", "Armada_": "2", "panjang": 1.6996893639699999, "kelurahan": "Lere" }, "geometry": { "type": "LineString", "coordinates": [ [ 119.855200851996614, -0.892216720180305 ], [ 119.854918421635205, -0.891886679283582 ], [ 119.853006964025695, -0.890647834797166 ], [ 119.849860859122074, -0.888680277110606 ], [ 119.8457785094527, -0.886108559369634 ], [ 119.843708833342845, -0.884823909314106 ], [ 119.842341314375389, -0.883987571697408 ] ] } },
{ "type": "Feature", "properties": { "Id": 0, "Nama_Jalan": "Jl. Selar Lorong", "Armada_": "2", "panjang": 0.16052865382500001, "kelurahan": "Lere" }, "geometry": { "type": "LineString", "coordinates": [ [ 119.855418349951847, -0.888408300457883 ], [ 119.855591870331708, -0.888044003991731 ], [ 119.855635989147558, -0.887969377436417 ], [ 119.855657122365272, -0.887653778522957 ], [ 119.855022919801797, -0.8875739416808 ] ] } },
{ "type": "Feature", "properties": { "Id": 0, "Nama_Jalan": "Jl. Tembang Lrg I", "Armada_": "2", "panjang": 0.30048255191399997, "kelurahan": "Lere" }, "geometry": { "type": "LineString", "coordinates": [ [ 119.853206630517363, -0.888362357120905 ], [ 119.852624146629267, -0.888247377136513 ], [ 119.852101602724559, -0.888209530880825 ], [ 119.851951940499688, -0.888166613113682 ], [ 119.850679611822429, -0.887522376275406 ] ] } },
{ "type": "Feature", "properties": { "Id": 0, "Nama_Jalan": "Jl. KH. Mas Mansyur", "Armada_": "2", "panjang": 0.25836222901700001, "kelurahan": "Lere" }, "geometry": { "type": "LineString", "coordinates": [ [ 119.859807559353968, -0.892677001873945 ], [ 119.859736617129187, -0.892587905068191 ], [ 119.859308773927921, -0.892156706458259 ], [ 119.859170922893213, -0.892030103620421 ], [ 119.858980820662381, -0.891903541634923 ], [ 119.858190196141493, -0.891483384549097 ], [ 119.85810229692396, -0.89145476402652 ], [ 119.85790429420571, -0.891431064594654 ] ] } },
{ "type": "Feature", "properties": { "Id": 0, "Nama_Jalan": "Jl. Bluntas", "Armada_": "2", "panjang": 0.15080004554500001, "kelurahan": "Lere" }, "geometry": { "type": "LineString", "coordinates": [ [ 119.854763658953104, -0.888215154976371 ], [ 119.854093852482094, -0.889399282654333 ] ] } },
{ "type": "Feature", "properties": { "Id": 0, "Nama_Jalan": "Lrg. Mas Mansyur", "Armada_": "2", "panjang": 0.329268194929, "kelurahan": "Lere" }, "geometry": { "type": "LineString", "coordinates": [ [ 119.859807559353968, -0.892677001873945 ], [ 119.859918876379552, -0.892275265757224 ], [ 119.859977981139323, -0.8919237766963 ], [ 119.859987300366214, -0.891689474219364 ], [ 119.8599773710568, -0.891595166224778 ], [ 119.859739307729924, -0.890872384359839 ], [ 119.85966692316903, -0.890635276781436 ], [ 119.859524509723585, -0.890135717546792 ], [ 119.859383190862999, -0.889823474034134 ] ] } },
{ "type": "Feature", "properties": { "Id": 0, "Nama_Jalan": "Jl. Samudra II Lrg. III", "Armada_": "R3", "panjang": 0.168221048668, "kelurahan": "Lere" }, "geometry": { "type": "LineString", "coordinates": [ [ 119.842857875429516, -0.886170648531179 ], [ 119.843182759324336, -0.886408619814982 ], [ 119.843494994263423, -0.886603467738348 ], [ 119.843804824884245, -0.886760064572539 ], [ 119.844135601491828, -0.886975936930603 ] ] } },
{ "type": "Feature", "properties": { "Id": 0, "Nama_Jalan": "Jl. Samudra II Lrg. II", "Armada_": "R3", "panjang": 0.17965348483499999, "kelurahan": "Lere" }, "geometry": { "type": "LineString", "coordinates": [ [ 119.842864089630325, -0.886158976254647 ], [ 119.842283234414055, -0.885837076403837 ], [ 119.841447332821943, -0.885383469037086 ] ] } },
{ "type": "Feature", "properties": { "Id": 0, "Nama_Jalan": "Jl. Samudra II Lrg. I", "Armada_": "R3", "panjang": 0.19605084866, "kelurahan": "Lere" }, "geometry": { "type": "LineString", "coordinates": [ [ 119.843321388779742, -0.885405667884508 ], [ 119.842985216677036, -0.885247559680425 ], [ 119.842801100298999, -0.885185540992847 ], [ 119.842682326048376, -0.885159333874391 ], [ 119.842554062380373, -0.885147478895732 ], [ 119.842181110293367, -0.885064088688081 ], [ 119.841620556344509, -0.885020291463931 ] ] } },
{ "type": "Feature", "properties": { "Id": 0, "Nama_Jalan": "Jl. Samudra II Lrg. IV", "Armada_": "R3", "panjang": 0.120170379285, "kelurahan": "Lere" }, "geometry": { "type": "LineString", "coordinates": [ [ 119.842498341516716, -0.886845969699496 ], [ 119.84286554043031, -0.887022444809796 ], [ 119.843531818269639, -0.887109193409944 ] ] } },
{ "type": "Feature", "properties": { "Id": 0, "Nama_Jalan": "Jl. Diponegoro Lrg. I", "Armada_": "R3", "panjang": 0.28376433240100002, "kelurahan": "Lere" }, "geometry": { "type": "LineString", "coordinates": [ [ 119.848282201593918, -0.887685788205992 ], [ 119.848696595388162, -0.886752400952927 ], [ 119.848736476125509, -0.886725593180475 ], [ 119.848783498174825, -0.886719818831512 ], [ 119.849079954396288, -0.886781271390279 ], [ 119.849184007794022, -0.886814183612379 ], [ 119.849219608624338, -0.886781163109069 ], [ 119.849253683434938, -0.886616172200141 ], [ 119.849279311160842, -0.886586028383173 ], [ 119.8493306006322, -0.886570209411498 ], [ 119.850043173423984, -0.886637077166487 ] ] } },
{ "type": "Feature", "properties": { "Id": 0, "Nama_Jalan": "Jl. Mokololembake Lrg. I", "Armada_": "R3", "panjang": 0.394460923204, "kelurahan": "Lere" }, "geometry": { "type": "LineString", "coordinates": [ [ 119.847808176952356, -0.888550691194328 ], [ 119.849002444221, -0.889253118191757 ], [ 119.849133599654593, -0.889319958337123 ], [ 119.849211543529933, -0.889373929577971 ], [ 119.849262879243668, -0.889418358344397 ], [ 119.84929141645641, -0.889465673784881 ], [ 119.849298583516699, -0.889520178212799 ], [ 119.848767712015473, -0.890393229672675 ], [ 119.84865621572888, -0.890565453404659 ], [ 119.848592281590214, -0.890816536236127 ], [ 119.848476082957291, -0.891050924265412 ] ] } },
{ "type": "Feature", "properties": { "Id": 0, "Nama_Jalan": "Jl. Lasoso Lrg. I", "Armada_": "R3", "panjang": 0.27105925471300002, "kelurahan": "Lere" }, "geometry": { "type": "LineString", "coordinates": [ [ 119.845641021546342, -0.890276742239829 ], [ 119.845566300585702, -0.890493982038275 ], [ 119.845552255985766, -0.890762240425047 ], [ 119.845515445906031, -0.891076419842242 ], [ 119.845489819252563, -0.891107998309555 ], [ 119.84544849942985, -0.891116637332882 ], [ 119.845077949074152, -0.891068153363082 ], [ 119.845052305886057, -0.891078214666332 ], [ 119.845029520506941, -0.891098315100012 ], [ 119.844993892055385, -0.891095473860448 ], [ 119.844067664121141, -0.890548701026595 ] ] } },
{ "type": "Feature", "properties": { "Id": 0, "Nama_Jalan": "Lrg. Kelapa II", "Armada_": "R3", "panjang": 0.103787833174, "kelurahan": "Lere" }, "geometry": { "type": "LineString", "coordinates": [ [ 119.844067664121141, -0.890548701026595 ], [ 119.844077680047391, -0.890911138589992 ], [ 119.84411540953279, -0.891485140420547 ] ] } },
{ "type": "Feature", "properties": { "Id": 0, "Nama_Jalan": "Jl. Kelapa II Lrg. II", "Armada_": "R3", "panjang": 0.14244399356199999, "kelurahan": "Lere" }, "geometry": { "type": "LineString", "coordinates": [ [ 119.84411540953279, -0.891485140420547 ], [ 119.843697344506879, -0.891420435892743 ], [ 119.843467412282493, -0.891389534330436 ], [ 119.843084051214845, -0.891361142867297 ], [ 119.842853339266171, -0.89129708259389 ] ] } },
{ "type": "Feature", "properties": { "Id": 0, "Nama_Jalan": "Jl. Kelapa II Lrg. I", "Armada_": "R3", "panjang": 0.15045499070500001, "kelurahan": "Lere" }, "geometry": { "type": "LineString", "coordinates": [ [ 119.843178363543245, -0.890654075212517 ], [ 119.842903737147566, -0.890586686447879 ], [ 119.842717866387687, -0.890560532022715 ], [ 119.842574174491546, -0.89056183905516 ], [ 119.84256894367121, -0.890686419049561 ], [ 119.842546374214919, -0.890701423814664 ], [ 119.84196124363605, -0.890677199912832 ] ] } },
{ "type": "Feature", "properties": { "Id": 0, "Nama_Jalan": "Jl. Datu Adam Lrg. I", "Armada_": "R3", "panjang": 0.111866746738, "kelurahan": "Lere" }, "geometry": { "type": "LineString", "coordinates": [ [ 119.847332641584202, -0.891860425590394 ], [ 119.846328776541043, -0.891886151354322 ] ] } },
{ "type": "Feature", "properties": { "Id": 0, "Nama_Jalan": "Jl. Lasoso Lrg. VI", "Armada_": "R3", "panjang": 0.156071703236, "kelurahan": "Lere" }, "geometry": { "type": "LineString", "coordinates": [ [ 119.83972220911032, -0.886728877043077 ], [ 119.83981595452164, -0.88649320655472 ], [ 119.839886527008829, -0.886223946913492 ], [ 119.839912754913087, -0.885734288936709 ], [ 119.839896515423661, -0.885617629982587 ], [ 119.839903435307477, -0.885347941363563 ] ] } }
]
}
