{
"type": "FeatureCollection",
"name": "Lolu Utara",
"crs": { "type": "name", "properties": { "name": "urn:ogc:def:crs:OGC:1.3:CRS84" } },
"features": [
{ "type": "Feature", "properties": { "Id": 0, "Nama_Jalan": "Jl. Una - Una", "Armada": 2.0, "panjang": 0.29691151266499999, "kelurahan": "Lolu Utara" }, "geometry": { "type": "LineString", "coordinates": [ [ 119.869373490793819, -0.897394485055068 ], [ 119.869364665980441, -0.897499087227355 ], [ 119.869394433191104, -0.897600670464214 ], [ 119.869474681596515, -0.897717155959882 ], [ 119.86952521873927, -0.897803780589888 ], [ 119.869531298581165, -0.897986070245438 ], [ 119.869496655569861, -0.899244228308332 ], [ 119.869418776140265, -0.900029043561742 ] ] } },
{ "type": "Feature", "properties": { "Id": 0, "Nama_Jalan": "Jl. G. Watukanjai", "Armada": 2.0, "panjang": 0.36993665511000001, "kelurahan": "Lolu Utara" }, "geometry": { "type": "LineString", "coordinates": [ [ 119.874832539864499, -0.900476607180303 ], [ 119.875780127477398, -0.900414890549148 ], [ 119.877201480630234, -0.900288247436459 ], [ 119.878145537422668, -0.900269566395974 ] ] } },
{ "type": "Feature", "properties": { "Id": 0, "Nama_Jalan": "Jl. Gn. Bosa", "Armada": 2.0, "panjang": 0.26576045638000001, "kelurahan": "Lolu Utara" }, "geometry": { "type": "LineString", "coordinates": [ [ 119.878087186020309, -0.899134586351613 ], [ 119.878101223493402, -0.899790260475553 ], [ 119.878145537422668, -0.900269566395957 ], [ 119.878323459297732, -0.901520971276305 ] ] } },
{ "type": "Feature", "properties": { "Id": 0, "Nama_Jalan": "Jl. Kesehatan", "Armada": 2.0, "panjang": 0.096582170482599997, "kelurahan": "Lolu Utara" }, "geometry": { "type": "LineString", "coordinates": [ [ 119.876759212586634, -0.901902940615543 ], [ 119.876556668976008, -0.901054391945953 ] ] } },
{ "type": "Feature", "properties": { "Id": 0, "Nama_Jalan": "Jl. P. Samosir", "Armada": 2.0, "panjang": 0.11161992006800001, "kelurahan": "Lolu Utara" }, "geometry": { "type": "LineString", "coordinates": [ [ 119.871645588648576, -0.90123910790223 ], [ 119.871633205883271, -0.902247612461976 ] ] } },
{ "type": "Feature", "properties": { "Id": 0, "Nama_Jalan": "Jl. Sulawesi Lrg. PLN", "Armada": 2.0, "panjang": 0.41315338689600001, "kelurahan": "Lolu Utara" }, "geometry": { "type": "LineString", "coordinates": [ [ 119.871707035021316, -0.900372342182507 ], [ 119.871656442659145, -0.899456727927998 ], [ 119.871646826583515, -0.899308509510305 ], [ 119.871506464069725, -0.899007387145374 ], [ 119.871356650088984, -0.898768431507945 ], [ 119.870907490386955, -0.89841256632152 ], [ 119.870753032870269, -0.898309886563376 ], [ 119.870399509358634, -0.898158593075959 ], [ 119.86985216383566, -0.897983067141672 ], [ 119.869745745800969, -0.897962112731639 ], [ 119.869530516246698, -0.897962613848861 ] ] } },
{ "type": "Feature", "properties": { "Id": 0, "Nama_Jalan": "Jl. Sulawesi", "Armada": 2.0, "panjang": 0.97757988525499995, "kelurahan": "Lolu Utara" }, "geometry": { "type": "LineString", "coordinates": [ [ 119.872887549104846, -0.899466868818057 ], [ 119.872451773501425, -0.90028006626212 ], [ 119.872365748806857, -0.900369787319878 ], [ 119.872252981584921, -0.900429645348682 ], [ 119.872030322266909, -0.900429822061298 ], [ 119.871682950240739, -0.900400213443121 ], [ 119.87020133773207, -0.900165900345931 ], [ 119.86889488735514, -0.899937424120884 ], [ 119.868415084478201, -0.899880426258508 ], [ 119.868286802400178, -0.899842275878081 ], [ 119.866989870835368, -0.899640088944001 ], [ 119.866643093965379, -0.899614065125888 ], [ 119.866474489271567, -0.898949694666751 ], [ 119.866266431504371, -0.898335913584326 ], [ 119.866176915122622, -0.898060569444853 ], [ 119.866155962555524, -0.897993644879399 ], [ 119.866142622058589, -0.897942015126151 ], [ 119.866161567250586, -0.897871233840831 ], [ 119.866204559980261, -0.897755140135632 ] ] } },
{ "type": "Feature", "properties": { "Id": 0, "Nama_Jalan": "Lrg. Sintuwu II", "Armada": 2.0, "panjang": 0.16516035765100001, "kelurahan": "Lolu Utara" }, "geometry": { "type": "LineString", "coordinates": [ [ 119.868092912984906, -0.898515873958768 ], [ 119.867713015492697, -0.89865579422803 ], [ 119.86764304126973, -0.899074709144175 ], [ 119.867578894701779, -0.899731915721354 ] ] } },
{ "type": "Feature", "properties": { "Id": 0, "Nama_Jalan": "Jl. Togian", "Armada": 2.0, "panjang": 0.119529354268, "kelurahan": "Lolu Utara" }, "geometry": { "type": "LineString", "coordinates": [ [ 119.868079377506888, -0.898214411075824 ], [ 119.868195053439877, -0.898076851507059 ], [ 119.868574477014491, -0.897329442477238 ] ] } },
{ "type": "Feature", "properties": { "Id": 0, "Nama_Jalan": "Jl. Patimura", "Armada": 2.0, "panjang": 0.24020395263, "kelurahan": "Lolu Utara" }, "geometry": { "type": "LineString", "coordinates": [ [ 119.868665846088831, -0.899910215327793 ], [ 119.869246158538758, -0.901306518209029 ], [ 119.86947853423527, -0.901920343160107 ] ] } },
{ "type": "Feature", "properties": { "Id": 0, "Nama_Jalan": "Jl. Nusa Kambangan", "Armada": 2.0, "panjang": 0.61262703435099997, "kelurahan": "Lolu Utara" }, "geometry": { "type": "MultiLineString", "coordinates": [ [ [ 119.869270253346514, -0.901370165171693 ], [ 119.869745920046157, -0.901222612778465 ], [ 119.870038025367364, -0.901191301231003 ], [ 119.870106972626559, -0.901282094845082 ], [ 119.870557117274259, -0.901272764628916 ] ], [ [ 119.870557117274259, -0.901272764628916 ], [ 119.870586722614206, -0.90127215099273 ], [ 119.872552016774151, -0.901210821583235 ], [ 119.872555888673816, -0.90160529071346 ], [ 119.872474732125781, -0.90232619035648 ] ], [ [ 119.870557117274259, -0.901272764628916 ], [ 119.870613085468278, -0.900817290874975 ], [ 119.870633676022862, -0.900234273600704 ] ] ] } },
{ "type": "Feature", "properties": { "Id": 0, "Nama_Jalan": "Jl. Cut Nyak Dien", "Armada": 1.0, "panjang": 0.31916490373, "kelurahan": "Lolu Utara" }, "geometry": { "type": "LineString", "coordinates": [ [ 119.86635742397732, -0.895853530015297 ], [ 119.866480554763029, -0.89582189192451 ], [ 119.868390614492696, -0.896052989281624 ], [ 119.869198296573444, -0.896155692199945 ] ] } },
{ "type": "Feature", "properties": { "Id": 0, "Nama_Jalan": "Jl. G. Bale", "Armada": 1.0, "panjang": 0.34841336498100001, "kelurahan": "Lolu Utara" }, "geometry": { "type": "LineString", "coordinates": [ [ 119.886786232784459, -0.899308869468803 ], [ 119.886815913096711, -0.898997575308813 ], [ 119.887182151722541, -0.899014496713874 ], [ 119.88717636246642, -0.899957875405196 ], [ 119.887217639785405, -0.901480308328604 ] ] } },
{ "type": "Feature", "properties": { "Id": 0, "Nama_Jalan": "Jl. Dr. Wahidin Lrg I Masjid", "Armada": 1.0, "panjang": 0.027360837130900002, "kelurahan": "Lolu Utara" }, "geometry": { "type": "LineString", "coordinates": [ [ 119.866394946226791, -0.896386032893339 ], [ 119.866627162811653, -0.896305520476769 ] ] } },
{ "type": "Feature", "properties": { "Id": 0, "Nama_Jalan": "Jl. Teluk Tomini", "Armada": 1.0, "panjang": 0.77706808948100003, "kelurahan": "Lolu Utara" }, "geometry": { "type": "LineString", "coordinates": [ [ 119.8848225492777, -0.899712003767945 ], [ 119.884840065343425, -0.900392028618479 ], [ 119.885782968693249, -0.90042474685987 ], [ 119.886421844613565, -0.900424237352829 ], [ 119.886504954651727, -0.900405045374292 ], [ 119.886527241662819, -0.900356735232906 ], [ 119.88648911848091, -0.899596519466607 ], [ 119.886456395863647, -0.898756808195122 ], [ 119.886420358469266, -0.898383049159224 ], [ 119.886370507093787, -0.898337605543633 ], [ 119.886047497831754, -0.898326387139523 ], [ 119.885756785514573, -0.898311317866176 ], [ 119.885604770311261, -0.898292313092026 ], [ 119.88552115368374, -0.898271341329418 ], [ 119.884673459358837, -0.898201489423994 ], [ 119.883830545673362, -0.898171438850895 ] ] } },
{ "type": "Feature", "properties": { "Id": 0, "Nama_Jalan": "Jl. Teluk Tomini Lrg", "Armada": 1.0, "panjang": 0.095417858057499999, "kelurahan": "Lolu Utara" }, "geometry": { "type": "LineString", "coordinates": [ [ 119.885621996265741, -0.898294466662442 ], [ 119.885626416604651, -0.898713360212714 ], [ 119.885670708848465, -0.898862505451771 ], [ 119.885650984225464, -0.899149406714438 ] ] } },
{ "type": "Feature", "properties": { "Id": 0, "Nama_Jalan": "Jl. Teluk Tomini Lrg", "Armada": 1.0, "panjang": 0.088777520054600004, "kelurahan": "Lolu Utara" }, "geometry": { "type": "LineString", "coordinates": [ [ 119.884704264313527, -0.89820402782549 ], [ 119.884704225610207, -0.898304917176231 ], [ 119.884748048798812, -0.898461713225455 ], [ 119.884755955151604, -0.898851871610567 ], [ 119.884784569374688, -0.898997204303787 ] ] } },
{ "type": "Feature", "properties": { "Id": 0, "Nama_Jalan": "Jl. Juanda Lrg I", "Armada": 1.0, "panjang": 0.22852876822599999, "kelurahan": "Lolu Utara" }, "geometry": { "type": "LineString", "coordinates": [ [ 119.879897473276429, -0.897045734186837 ], [ 119.879896251433152, -0.897899580820171 ], [ 119.879889626476043, -0.898537909707055 ], [ 119.879890990391701, -0.899110634982794 ] ] } },
{ "type": "Feature", "properties": { "Id": 0, "Nama_Jalan": "Jl. Juanda Lrg III", "Armada": 1.0, "panjang": 0.17092164637000001, "kelurahan": "Lolu Utara" }, "geometry": { "type": "LineString", "coordinates": [ [ 119.879891157506393, -0.898390388613334 ], [ 119.88022830376454, -0.898386331788423 ], [ 119.88029661587457, -0.898425126813209 ], [ 119.881003187102735, -0.898430542440953 ], [ 119.881216009226534, -0.898457149474232 ], [ 119.881413608743117, -0.898455079915452 ] ] } },
{ "type": "Feature", "properties": { "Id": 0, "Nama_Jalan": "Jl. Teluk Tolo", "Armada": 1.0, "panjang": 0.44179729609899998, "kelurahan": "Lolu Utara" }, "geometry": { "type": "LineString", "coordinates": [ [ 119.879895826187663, -0.897940553117906 ], [ 119.880358531860963, -0.897927032247415 ], [ 119.880699344428436, -0.897924371002048 ], [ 119.881528286481171, -0.89800380207139 ], [ 119.88193446490321, -0.898069224326982 ], [ 119.882812035688389, -0.898074503990921 ], [ 119.883105085138496, -0.898115736000905 ], [ 119.883847488834533, -0.898172042890838 ] ] } },
{ "type": "Feature", "properties": { "Id": 0, "Nama_Jalan": "Jl. KH Ahmad Dahlan", "Armada": 2.0, "panjang": 0.15052717416, "kelurahan": "Lolu Utara" }, "geometry": { "type": "LineString", "coordinates": [ [ 119.870997847816611, -0.896258240020381 ], [ 119.870851976000154, -0.897001410758644 ], [ 119.870655292107656, -0.89757056342217 ] ] } },
{ "type": "Feature", "properties": { "Id": 0, "Nama_Jalan": "Jl. Gn Loli Lrg. I", "Armada": 1.0, "panjang": 0.13425227152800001, "kelurahan": "Lolu Utara" }, "geometry": { "type": "LineString", "coordinates": [ [ 119.883172261433799, -0.899114876781255 ], [ 119.883148928866717, -0.899731489181055 ], [ 119.8830866388749, -0.899800271922962 ], [ 119.883116721062535, -0.900302298830818 ] ] } },
{ "type": "Feature", "properties": { "Id": 0, "Nama_Jalan": "Jl. Gn Loli Lrg. III", "Armada": 1.0, "panjang": 0.129838593424, "kelurahan": "Lolu Utara" }, "geometry": { "type": "LineString", "coordinates": [ [ 119.881810169913933, -0.899137218450671 ], [ 119.881785778776077, -0.89956510407538 ], [ 119.881812444984604, -0.899649236244679 ], [ 119.881793960183018, -0.900305264839042 ] ] } },
{ "type": "Feature", "properties": { "Id": 0, "Nama_Jalan": "Jl. Gn Loli Lrg. II", "Armada": 1.0, "panjang": 0.12819448671600001, "kelurahan": "Lolu Utara" }, "geometry": { "type": "LineString", "coordinates": [ [ 119.880906811383568, -0.899133195086315 ], [ 119.880879969103574, -0.899440311617077 ], [ 119.880891572952791, -0.899699934915711 ], [ 119.880902523916106, -0.899732918183125 ], [ 119.880905810049356, -0.9002882805314 ] ] } },
{ "type": "Feature", "properties": { "Id": 0, "Nama_Jalan": "Jl. Masjid Raya Lrg. Tinoor", "Armada": 1.0, "panjang": 0.0695900827906, "kelurahan": "Lolu Utara" }, "geometry": { "type": "LineString", "coordinates": [ [ 119.874468129323631, -0.898842460799357 ], [ 119.875092755593258, -0.898834793279706 ] ] } },
{ "type": "Feature", "properties": { "Id": 0, "Nama_Jalan": "Jl. Watu Mapida", "Armada": 1.0, "panjang": 0.35044278701100001, "kelurahan": "Lolu Utara" }, "geometry": { "type": "LineString", "coordinates": [ [ 119.875671063864544, -0.898821185565293 ], [ 119.876587845335465, -0.898849147041135 ], [ 119.876901438126097, -0.898963653309778 ], [ 119.877172248637663, -0.899037551024641 ], [ 119.878087186020309, -0.899134586351613 ], [ 119.878647242713214, -0.899172651346332 ], [ 119.878780241854571, -0.899170154970315 ] ] } },
{ "type": "Feature", "properties": { "Id": 0, "Nama_Jalan": "Sebagian Pertokoan Hasanuddin, Bank BNI", "Armada": 1.0, "panjang": 0.16009293109, "kelurahan": "Lolu Utara" }, "geometry": { "type": "LineString", "coordinates": [ [ 119.868447197306367, -0.896058877309883 ], [ 119.86839800078242, -0.896539119624608 ], [ 119.868523896413237, -0.896562927759169 ], [ 119.868870504301327, -0.896779788228875 ], [ 119.868989432907611, -0.896575567046863 ], [ 119.868875366568503, -0.89651722612696 ] ] } },
{ "type": "Feature", "properties": { "Id": 0, "Nama_Jalan": "Jl. Rajawali Mas Lrg. I", "Armada": 1.0, "panjang": 0.122229285023, "kelurahan": "Lolu Utara" }, "geometry": { "type": "LineString", "coordinates": [ [ 119.875721739054782, -0.897975867445868 ], [ 119.87608845461348, -0.897990877508285 ], [ 119.876306922286858, -0.897946714864276 ], [ 119.876814231445493, -0.897952050487782 ] ] } },
{ "type": "Feature", "properties": { "Id": 0, "Nama_Jalan": "Jl. Gn Loli Lrg. V", "Armada": 1.0, "panjang": 0.081271035315199996, "kelurahan": "Lolu Utara" }, "geometry": { "type": "LineString", "coordinates": [ [ 119.881413608743117, -0.898455079915452 ], [ 119.881470730619171, -0.89846228615934 ], [ 119.881404726809933, -0.899135412722659 ] ] } },
{ "type": "Feature", "properties": { "Id": 0, "Nama_Jalan": "Jl. Sultan Hasanuddin (sebagian)", "Armada": 2.0, "panjang": 0.32626019683399998, "kelurahan": "Lolu Utara" }, "geometry": { "type": "LineString", "coordinates": [ [ 119.866204559980261, -0.897755140135632 ], [ 119.867408426822735, -0.897395576574444 ], [ 119.867828722298484, -0.897284074752341 ], [ 119.868499391869065, -0.897270562072252 ], [ 119.868556088055144, -0.897255880850408 ], [ 119.868606178809728, -0.897226913222507 ], [ 119.86867713187965, -0.897149157841899 ] ] } },
{ "type": "Feature", "properties": { "Id": 0, "Nama_Jalan": "Rutan Maesa", "Armada": 2.0, "panjang": 0.11125873921899999, "kelurahan": "Lolu Utara" }, "geometry": { "type": "LineString", "coordinates": [ [ 119.869806155046234, -0.90209043506134 ], [ 119.869844046202005, -0.901950785371336 ], [ 119.869972260040157, -0.901901912302519 ], [ 119.869996319019208, -0.901689594943911 ], [ 119.869812843968731, -0.901215439026351 ] ] } },
{ "type": "Feature", "properties": { "Id": 0, "Nama_Jalan": "Lrg. Sintuwu I", "Armada": 2.0, "panjang": 0.221045274101, "kelurahan": "Lolu Utara" }, "geometry": { "type": "LineString", "coordinates": [ [ 119.867146084011623, -0.899664442050817 ], [ 119.867146663466997, -0.898986482705041 ], [ 119.867116127447062, -0.898812938254918 ], [ 119.867120342069683, -0.898735474553496 ], [ 119.867061695537856, -0.898452934014407 ], [ 119.867057334298252, -0.898342484708154 ], [ 119.866974479221057, -0.898081480031482 ], [ 119.867330611300375, -0.897921974554562 ] ] } },
{ "type": "Feature", "properties": { "Id": 0, "Nama_Jalan": "Lrg. Tarakan", "Armada": 2.0, "panjang": 0.37809411787300001, "kelurahan": "Lolu Utara" }, "geometry": { "type": "LineString", "coordinates": [ [ 119.869361607200346, -0.901611478260142 ], [ 119.868702828211198, -0.901867538166966 ], [ 119.868044377122288, -0.901602089937459 ], [ 119.867918959917006, -0.901583063456026 ], [ 119.867851421973455, -0.901533006914723 ], [ 119.867827593499342, -0.90112994526998 ], [ 119.867794054806311, -0.900761796264686 ], [ 119.867788936348845, -0.900290822436836 ], [ 119.867776971413718, -0.900176075882532 ], [ 119.867748392412608, -0.900075686990508 ], [ 119.867765012143138, -0.899760930753731 ] ] } },
{ "type": "Feature", "properties": { "Id": 0, "Nama_Jalan": "Lrg. Una-Una I", "Armada": 2.0, "panjang": 0.13708839944699999, "kelurahan": "Lolu Utara" }, "geometry": { "type": "LineString", "coordinates": [ [ 119.87011331887031, -0.899290485054624 ], [ 119.870126242410009, -0.898808500468105 ], [ 119.870225812747165, -0.898576519319836 ], [ 119.870275700817842, -0.898592258754027 ], [ 119.870399509358634, -0.898158593075959 ] ] } },
{ "type": "Feature", "properties": { "Id": 0, "Nama_Jalan": "Lrg. Una-Una III", "Armada": 2.0, "panjang": 0.211795940598, "kelurahan": "Lolu Utara" }, "geometry": { "type": "LineString", "coordinates": [ [ 119.870633676022862, -0.900234273600704 ], [ 119.870655516001761, -0.900019113135103 ], [ 119.870662896151686, -0.899737955713197 ], [ 119.870656847558024, -0.899292325702432 ], [ 119.870749276311741, -0.898431584465492 ], [ 119.870793114457101, -0.898336531871503 ] ] } },
{ "type": "Feature", "properties": { "Id": 0, "Nama_Jalan": "Lrg. Una-Una II", "Armada": 2.0, "panjang": 0.12965530800200001, "kelurahan": "Lolu Utara" }, "geometry": { "type": "LineString", "coordinates": [ [ 119.870657041865215, -0.899306641478365 ], [ 119.87011331887031, -0.899290485054624 ], [ 119.869976515186536, -0.899288561277396 ], [ 119.869497073778049, -0.899229039613418 ] ] } }
]
}
