{
"type": "FeatureCollection",
"name": "Lolu Selatan",
"crs": { "type": "name", "properties": { "name": "urn:ogc:def:crs:OGC:1.3:CRS84" } },
"features": [
{ "type": "Feature", "properties": { "Id": 0, "Nama_Jalan": "Jl. Gunung Silamolo", "Armada": 2.0, "panjang": 0.31090132389899999, "kelurahan": "Lolu Selatan" }, "geometry": { "type": "LineString", "coordinates": [ [ 119.87641879342948, -0.905641002719307 ], [ 119.877867598692617, -0.905690049529501 ], [ 119.877867364712714, -0.905393599270749 ], [ 119.878148092131056, -0.90539289664072 ], [ 119.878124887492731, -0.904880342928998 ], [ 119.878063889308052, -0.904629843281441 ] ] } },
{ "type": "Feature", "properties": { "Id": 0, "Nama_Jalan": "Jl. Tj. Pesik", "Armada": 2.0, "panjang": 0.426313391421, "kelurahan": "Lolu Selatan" }, "geometry": { "type": "LineString", "coordinates": [ [ 119.87625044985451, -0.905097006505018 ], [ 119.878224854212945, -0.904551537840836 ], [ 119.878531158570112, -0.904458054707681 ], [ 119.878702097927686, -0.904379024115458 ], [ 119.878834999220231, -0.904252209380894 ], [ 119.879185976548001, -0.903584916245957 ], [ 119.879378132776409, -0.903305047857382 ] ] } },
{ "type": "Feature", "properties": { "Id": 0, "Nama_Jalan": "Jl. Tj. Seng", "Armada": 2.0, "panjang": 0.43285797048399999, "kelurahan": "Lolu Selatan" }, "geometry": { "type": "LineString", "coordinates": [ [ 119.875706412631516, -0.903391652405126 ], [ 119.876822706845488, -0.903431404709689 ], [ 119.877551748897432, -0.903316068114688 ], [ 119.87756670218856, -0.903605812669526 ], [ 119.877663979792658, -0.904083881015142 ], [ 119.877717252659806, -0.904175642503431 ], [ 119.878541816788385, -0.904119519108566 ], [ 119.878851139001426, -0.904221523722729 ] ] } },
{ "type": "Feature", "properties": { "Id": 0, "Nama_Jalan": "Jl. Pasoso", "Armada": 2.0, "panjang": 0.20098336335399999, "kelurahan": "Lolu Selatan" }, "geometry": { "type": "LineString", "coordinates": [ [ 119.869809382521552, -0.903259693904544 ], [ 119.870554139077058, -0.903188335332798 ], [ 119.870605400846699, -0.903138567056248 ], [ 119.870570095634278, -0.902147905871906 ] ] } },
{ "type": "Feature", "properties": { "Id": 0, "Nama_Jalan": "Jl. P. Halmahera", "Armada": 2.0, "panjang": 0.54382591137299996, "kelurahan": "Lolu Selatan" }, "geometry": { "type": "LineString", "coordinates": [ [ 119.867897718358989, -0.901603228681336 ], [ 119.867887800799735, -0.901980018824503 ], [ 119.867853842964863, -0.902289887050535 ], [ 119.867855819447087, -0.902387428102577 ], [ 119.868085622891186, -0.903470135820005 ], [ 119.868130387174219, -0.903765955528164 ], [ 119.868025739146233, -0.905846589086513 ], [ 119.868011620566946, -0.906013952854459 ], [ 119.868038251174767, -0.906052183620431 ], [ 119.868106669025849, -0.906073167659165 ], [ 119.868455572091023, -0.906084364990355 ] ] } },
{ "type": "Feature", "properties": { "Id": 0, "Nama_Jalan": "Lrg. Pancasila", "Armada": 2.0, "panjang": 0.220686511191, "kelurahan": "Lolu Selatan" }, "geometry": { "type": "LineString", "coordinates": [ [ 119.868078777769895, -0.904792055224353 ], [ 119.868753922507324, -0.904807805945543 ], [ 119.869200409385897, -0.904780673889893 ], [ 119.869397985769723, -0.904746089722443 ], [ 119.869484005872778, -0.904801486522658 ], [ 119.870018269297759, -0.904647574913801 ] ] } },
{ "type": "Feature", "properties": { "Id": 0, "Nama_Jalan": "Jl. Miangas I Lorong", "Armada": 2.0, "panjang": 0.069737977189900005, "kelurahan": "Lolu Selatan" }, "geometry": { "type": "LineString", "coordinates": [ [ 119.86905131190403, -0.904789734230985 ], [ 119.869030427005725, -0.904568510878819 ], [ 119.869412702513955, -0.904433129185282 ] ] } },
{ "type": "Feature", "properties": { "Id": 0, "Nama_Jalan": "Jl. Miangas Lrg. III B", "Armada": 2.0, "panjang": 0.0965974930131, "kelurahan": "Lolu Selatan" }, "geometry": { "type": "LineString", "coordinates": [ [ 119.868066927334596, -0.906903606457529 ], [ 119.8688910131781, -0.906833616865396 ], [ 119.868926876411464, -0.906815566118216 ] ] } },
{ "type": "Feature", "properties": { "Id": 0, "Nama_Jalan": "Jl. Tj. Lombongan", "Armada": 2.0, "panjang": 0.25973684685199999, "kelurahan": "Lolu Selatan" }, "geometry": { "type": "LineString", "coordinates": [ [ 119.878288550800875, -0.901616650029397 ], [ 119.878242231482773, -0.902304792893997 ], [ 119.878149673820772, -0.902391530580722 ], [ 119.87752268867817, -0.902418328290957 ], [ 119.877551748897432, -0.903316068114671 ] ] } },
{ "type": "Feature", "properties": { "Id": 0, "Nama_Jalan": "Jl. Wolter Monginsidi Lrg V", "Armada": 2.0, "panjang": 0.25197395128799999, "kelurahan": "Lolu Selatan" }, "geometry": { "type": "LineString", "coordinates": [ [ 119.874810633479555, -0.905421101071605 ], [ 119.874586830661443, -0.905476864454877 ], [ 119.874113750038944, -0.90550975633563 ], [ 119.87344871227819, -0.905473948191844 ], [ 119.873063944204091, -0.905458237436085 ], [ 119.873067958646317, -0.90573030038904 ], [ 119.873303556740964, -0.90572341816952 ] ] } },
{ "type": "Feature", "properties": { "Id": 0, "Nama_Jalan": "Jl. Miangas II Lrg", "Armada": 2.0, "panjang": 0.051608772329599997, "kelurahan": "Lolu Selatan" }, "geometry": { "type": "LineString", "coordinates": [ [ 119.86950614653172, -0.906164872688666 ], [ 119.869440895712231, -0.905703191163605 ] ] } },
{ "type": "Feature", "properties": { "Id": 0, "Nama_Jalan": "Jl. Miangas V", "Armada": 2.0, "panjang": 0.17356190855, "kelurahan": "Lolu Selatan" }, "geometry": { "type": "LineString", "coordinates": [ [ 119.870607972081203, -0.908136631204867 ], [ 119.870500095116569, -0.909077560078016 ], [ 119.870458784287734, -0.909697274258981 ] ] } },
{ "type": "Feature", "properties": { "Id": 0, "Nama_Jalan": "Jl. Miangas VI", "Armada": 2.0, "panjang": 0.122530897776, "kelurahan": "Lolu Selatan" }, "geometry": { "type": "LineString", "coordinates": [ [ 119.871036964622135, -0.909817144995494 ], [ 119.872136627060087, -0.909840170742906 ] ] } },
{ "type": "Feature", "properties": { "Id": 0, "Nama_Jalan": "Lrg. Mutiara", "Armada": 1.0, "panjang": 0.180802434841, "kelurahan": "Lolu Selatan" }, "geometry": { "type": "LineString", "coordinates": [ [ 119.882528750962365, -0.903810636316293 ], [ 119.883403387572031, -0.903743155207927 ], [ 119.883424923070763, -0.903946348988609 ], [ 119.883963044640524, -0.903875153306427 ] ] } },
{ "type": "Feature", "properties": { "Id": 0, "Nama_Jalan": "Lrg. Bima", "Armada": 1.0, "panjang": 0.12931690723200001, "kelurahan": "Lolu Selatan" }, "geometry": { "type": "LineString", "coordinates": [ [ 119.883936436781212, -0.902359938408943 ], [ 119.883221570079527, -0.902374853552571 ], [ 119.883224101465444, -0.902573281135016 ], [ 119.882977122917737, -0.902602166989602 ] ] } },
{ "type": "Feature", "properties": { "Id": 0, "Nama_Jalan": "Lrg. Mercuri", "Armada": 1.0, "panjang": 0.30817216660300001, "kelurahan": "Lolu Selatan" }, "geometry": { "type": "LineString", "coordinates": [ [ 119.883970879257362, -0.904372694992214 ], [ 119.883256528750294, -0.904440206798535 ], [ 119.883131116025581, -0.90442500656327 ], [ 119.882572546227053, -0.904467530162246 ], [ 119.882524476840359, -0.903746527597409 ], [ 119.88252630894948, -0.903660460227869 ], [ 119.882492028797742, -0.903559121117258 ], [ 119.882472926112357, -0.903429081234187 ], [ 119.882456077464383, -0.903105431092603 ] ] } },
{ "type": "Feature", "properties": { "Id": 0, "Nama_Jalan": "Lrg. Century", "Armada": 1.0, "panjang": 0.124900677912, "kelurahan": "Lolu Selatan" }, "geometry": { "type": "LineString", "coordinates": [ [ 119.882521452548474, -0.90364610371953 ], [ 119.88169405442342, -0.903678474085049 ], [ 119.881701728388478, -0.903772184228133 ], [ 119.881502219581591, -0.903762780792436 ] ] } },
{ "type": "Feature", "properties": { "Id": 0, "Nama_Jalan": "Lrg. Prima", "Armada": 1.0, "panjang": 0.151230539213, "kelurahan": "Lolu Selatan" }, "geometry": { "type": "LineString", "coordinates": [ [ 119.882604414030965, -0.903111948690552 ], [ 119.882691212003721, -0.903115762408366 ], [ 119.883050304762989, -0.903104000047818 ], [ 119.883960371116515, -0.903055458431297 ] ] } },
{ "type": "Feature", "properties": { "Id": 0, "Nama_Jalan": "Jl. Ongka Malino", "Armada": 1.0, "panjang": 0.44208609676100002, "kelurahan": "Lolu Selatan" }, "geometry": { "type": "LineString", "coordinates": [ [ 119.880373983047448, -0.90295898844837 ], [ 119.88095611371665, -0.902976454190186 ], [ 119.881257162576702, -0.902996056834193 ], [ 119.881680463703603, -0.903088956963554 ], [ 119.882449734677181, -0.90310529637177 ], [ 119.882604414030965, -0.903111948690552 ], [ 119.88260846783642, -0.902896509893037 ], [ 119.882571897701624, -0.901374240261146 ] ] } },
{ "type": "Feature", "properties": { "Id": 0, "Nama_Jalan": "Lrg. Kosgoro", "Armada": 1.0, "panjang": 0.229818910727, "kelurahan": "Lolu Selatan" }, "geometry": { "type": "LineString", "coordinates": [ [ 119.879443092142665, -0.90443816630553 ], [ 119.880353883188249, -0.90440097973588 ], [ 119.880752871064331, -0.90438153496517 ], [ 119.881394540917185, -0.904305475064987 ], [ 119.881500233833776, -0.904311367352243 ] ] } },
{ "type": "Feature", "properties": { "Id": 0, "Nama_Jalan": "Lrg. Elit", "Armada": 1.0, "panjang": 0.13041078005100001, "kelurahan": "Lolu Selatan" }, "geometry": { "type": "LineString", "coordinates": [ [ 119.879467525002696, -0.905303230992752 ], [ 119.880094542331449, -0.905318029975813 ], [ 119.880089274372651, -0.905865032004762 ] ] } },
{ "type": "Feature", "properties": { "Id": 0, "Nama_Jalan": "Lrg. IV", "Armada": 1.0, "panjang": 0.21007357659000001, "kelurahan": "Lolu Selatan" }, "geometry": { "type": "LineString", "coordinates": [ [ 119.880576469000076, -0.906426942999902 ], [ 119.880593930270621, -0.905518929278817 ], [ 119.881147309022595, -0.905518008121695 ], [ 119.88112226739122, -0.905085785537289 ] ] } },
{ "type": "Feature", "properties": { "Id": 0, "Nama_Jalan": "Lrg. I", "Armada": 1.0, "panjang": 0.24814753558200001, "kelurahan": "Lolu Selatan" }, "geometry": { "type": "LineString", "coordinates": [ [ 119.881488560000136, -0.906444098999923 ], [ 119.881314121310581, -0.905025577061801 ], [ 119.881268819417571, -0.904651584822027 ], [ 119.88136381855665, -0.90464959625295 ], [ 119.881363548799158, -0.904309148696347 ] ] } },
{ "type": "Feature", "properties": { "Id": 0, "Nama_Jalan": "Lrg. III", "Armada": 1.0, "panjang": 0.28097663423800001, "kelurahan": "Lolu Selatan" }, "geometry": { "type": "LineString", "coordinates": [ [ 119.881500233833776, -0.904311367352243 ], [ 119.881916176067563, -0.904333459674437 ], [ 119.881888877672552, -0.904652403678214 ], [ 119.881951187729271, -0.905961751595484 ], [ 119.881882844745519, -0.906034484270622 ], [ 119.88189223700013, -0.906422846999959 ] ] } },
{ "type": "Feature", "properties": { "Id": 0, "Nama_Jalan": "Lrg. Lestari", "Armada": 1.0, "panjang": 0.087054524175799994, "kelurahan": "Lolu Selatan" }, "geometry": { "type": "LineString", "coordinates": [ [ 119.882309451970173, -0.906373170411224 ], [ 119.882299329851492, -0.905586631634319 ] ] } },
{ "type": "Feature", "properties": { "Id": 0, "Nama_Jalan": "Jl. Tj. Tururuka I", "Armada": 1.0, "panjang": 0.35065758116000001, "kelurahan": "Lolu Selatan" }, "geometry": { "type": "LineString", "coordinates": [ [ 119.884058999890783, -0.904863344884602 ], [ 119.885673977583949, -0.904826190446465 ], [ 119.887205829692888, -0.904791492737689 ] ] } },
{ "type": "Feature", "properties": { "Id": 0, "Nama_Jalan": "Jl. Tj. Tururuka II", "Armada": 1.0, "panjang": 0.20906546611499999, "kelurahan": "Lolu Selatan" }, "geometry": { "type": "LineString", "coordinates": [ [ 119.884074415061619, -0.90558592653774 ], [ 119.885950641471865, -0.905545573158059 ] ] } },
{ "type": "Feature", "properties": { "Id": 0, "Nama_Jalan": "Jl. Tj. Api", "Armada": 1.0, "panjang": 0.41900154934099998, "kelurahan": "Lolu Selatan" }, "geometry": { "type": "LineString", "coordinates": [ [ 119.888884936351388, -0.904765043827986 ], [ 119.887218569944011, -0.905134549357171 ], [ 119.887205829692888, -0.904791492737689 ], [ 119.887214332171155, -0.903529788900831 ], [ 119.887225841314034, -0.903066579694391 ] ] } },
{ "type": "Feature", "properties": { "Id": 0, "Nama_Jalan": "Lrg. Posarara", "Armada": 1.0, "panjang": 0.14751117764900001, "kelurahan": "Lolu Selatan" }, "geometry": { "type": "LineString", "coordinates": [ [ 119.883978199456962, -0.904800055606918 ], [ 119.883168403623316, -0.904905895592543 ], [ 119.882663516651505, -0.90495793933494 ] ] } },
{ "type": "Feature", "properties": { "Id": 0, "Nama_Jalan": "Lrg. Citra", "Armada": 1.0, "panjang": 0.13105432355800001, "kelurahan": "Lolu Selatan" }, "geometry": { "type": "LineString", "coordinates": [ [ 119.882800459498242, -0.906338948055795 ], [ 119.882775558089492, -0.90608459551772 ], [ 119.882984548718298, -0.906071039962728 ], [ 119.882945506689268, -0.905354333801932 ] ] } },
{ "type": "Feature", "properties": { "Id": 0, "Nama_Jalan": "Jl. Tj. Balantak", "Armada": 1.0, "panjang": 0.35300767567000002, "kelurahan": "Lolu Selatan" }, "geometry": { "type": "LineString", "coordinates": [ [ 119.887208877217816, -0.904339239306565 ], [ 119.88573891944074, -0.904357080562607 ], [ 119.88404082234095, -0.904401473040181 ] ] } },
{ "type": "Feature", "properties": { "Id": 0, "Nama_Jalan": "Jl. Tj. Tada I", "Armada": 1.0, "panjang": 0.14378900934899999, "kelurahan": "Lolu Selatan" }, "geometry": { "type": "LineString", "coordinates": [ [ 119.886579617535403, -0.904346876864066 ], [ 119.88656038810386, -0.903047781351984 ] ] } },
{ "type": "Feature", "properties": { "Id": 0, "Nama_Jalan": "Jl. Tj. Malakosa", "Armada": 1.0, "panjang": 0.297389623278, "kelurahan": "Lolu Selatan" }, "geometry": { "type": "LineString", "coordinates": [ [ 119.885983274400516, -0.90306402167199 ], [ 119.885971598089384, -0.90246108924099 ], [ 119.885906937609249, -0.90238463812364 ], [ 119.883936436781212, -0.902359938408943 ] ] } },
{ "type": "Feature", "properties": { "Id": 0, "Nama_Jalan": "Perum Residance, Jl. Miangas", "Armada": 2.0, "panjang": 0.10285059570799999, "kelurahan": "Lolu Selatan" }, "geometry": { "type": "LineString", "coordinates": [ [ 119.870261980552982, -0.90530414653031 ], [ 119.869362598458807, -0.905514053992316 ] ] } },
{ "type": "Feature", "properties": { "Id": 0, "Nama_Jalan": "Jl. Maluku II", "Armada": 2.0, "panjang": 0.144171693819, "kelurahan": "Lolu Selatan" }, "geometry": { "type": "LineString", "coordinates": [ [ 119.872238091736989, -0.906006763044129 ], [ 119.872092020908283, -0.906300462756695 ], [ 119.872078763298944, -0.906354504107112 ], [ 119.872087357537637, -0.906410440594608 ], [ 119.872121051395126, -0.90649074259117 ], [ 119.872138201429109, -0.906553844463492 ], [ 119.872114129909008, -0.906748948205787 ], [ 119.872115819729203, -0.907084606964184 ], [ 119.872100283711518, -0.907261056111384 ] ] } },
{ "type": "Feature", "properties": { "Id": 0, "Nama_Jalan": "Jl. Maluku I", "Armada": 2.0, "panjang": 0.12871134179900001, "kelurahan": "Lolu Selatan" }, "geometry": { "type": "LineString", "coordinates": [ [ 119.871297469542981, -0.90538855066148 ], [ 119.87119594548976, -0.906153669562837 ], [ 119.871127372728239, -0.90653863403269 ] ] } },
{ "type": "Feature", "properties": { "Id": 0, "Nama_Jalan": "Jl. Lrg Denpal", "Armada": 2.0, "panjang": 0.075509473840800007, "kelurahan": "Lolu Selatan" }, "geometry": { "type": "LineString", "coordinates": [ [ 119.869839299006088, -0.9040112093306 ], [ 119.869579014141706, -0.904036280317617 ], [ 119.869474755309284, -0.904043296484376 ], [ 119.869433187401427, -0.904037352707869 ], [ 119.869275306346807, -0.904112786936103 ], [ 119.869183887921665, -0.904139157937513 ] ] } },
{ "type": "Feature", "properties": { "Id": 0, "Nama_Jalan": "Jl. Lrg Miangas III A", "Armada": 2.0, "panjang": 0.26046420440399998, "kelurahan": "Lolu Selatan" }, "geometry": { "type": "LineString", "coordinates": [ [ 119.870548535798477, -0.906789885461201 ], [ 119.869761952739736, -0.906829243795049 ], [ 119.869324452988508, -0.906808076438389 ], [ 119.868926876411464, -0.906815566118216 ], [ 119.868821763974111, -0.906103803402328 ] ] } },
{ "type": "Feature", "properties": { "Id": 0, "Nama_Jalan": "Jl. Lrg Paraoma", "Armada": 2.0, "panjang": 0.048100012093299997, "kelurahan": "Lolu Selatan" }, "geometry": { "type": "LineString", "coordinates": [ [ 119.873170104497959, -0.902567059653948 ], [ 119.873120428258659, -0.902820995715353 ], [ 119.873102634165321, -0.902995892472608 ] ] } },
{ "type": "Feature", "properties": { "Id": 0, "Nama_Jalan": "Lrg Pelni", "Armada": 1.0, "panjang": 0.15841049528600001, "kelurahan": "Lolu Selatan" }, "geometry": { "type": "LineString", "coordinates": [ [ 119.881896599300887, -0.901438848363179 ], [ 119.881870333299091, -0.901863461350432 ], [ 119.881629033432461, -0.901865566381833 ], [ 119.881595114792702, -0.902223245379096 ], [ 119.881606832690295, -0.902626789825119 ] ] } },
{ "type": "Feature", "properties": { "Id": 0, "Nama_Jalan": "Lrg Sri Rejeki", "Armada": 1.0, "panjang": 0.10835481528, "kelurahan": "Lolu Selatan" }, "geometry": { "type": "LineString", "coordinates": [ [ 119.879386196459691, -0.902030401970118 ], [ 119.880055007512127, -0.902037519141817 ], [ 119.880107746059949, -0.902054212168217 ], [ 119.880136267898024, -0.902081682761451 ], [ 119.880139995989026, -0.902292063557036 ] ] } },
{ "type": "Feature", "properties": { "Id": 0, "Nama_Jalan": "Lrg Salibo", "Armada": 1.0, "panjang": 0.17524386895899999, "kelurahan": "Lolu Selatan" }, "geometry": { "type": "LineString", "coordinates": [ [ 119.881130988992524, -0.901408140190564 ], [ 119.881087693506515, -0.901922658208815 ], [ 119.881049462896939, -0.902233482648452 ], [ 119.881038124936168, -0.902312385543149 ], [ 119.881015617352418, -0.902683921819604 ], [ 119.881042801001783, -0.902821605753246 ], [ 119.881053731970141, -0.902982810556655 ] ] } },
{ "type": "Feature", "properties": { "Id": 0, "Nama_Jalan": "Lorong Buntu Tj. Dako", "Armada": 1.0, "panjang": 0.043400012843999997, "kelurahan": "Lolu Selatan" }, "geometry": { "type": "LineString", "coordinates": [ [ 119.879387801745921, -0.905398336239515 ], [ 119.878998292234741, -0.905390997515365 ] ] } },
{ "type": "Feature", "properties": { "Id": 0, "Nama_Jalan": "Lrg. Mandiri", "Armada": 1.0, "panjang": 0.10484856824, "kelurahan": "Lolu Selatan" }, "geometry": { "type": "LineString", "coordinates": [ [ 119.88400673306576, -0.905695390073221 ], [ 119.883622931182572, -0.905695697704068 ], [ 119.883615095183387, -0.905397342470619 ], [ 119.883597787941298, -0.90513533372159 ] ] } },
{ "type": "Feature", "properties": { "Id": 0, "Nama_Jalan": "Jl. Tj Tada II", "Armada": 1.0, "panjang": 0.28968314942700002, "kelurahan": "Lolu Selatan" }, "geometry": { "type": "LineString", "coordinates": [ [ 119.88656038810386, -0.903047781351984 ], [ 119.885983274400516, -0.90306402167199 ], [ 119.885188124582228, -0.903067526409538 ], [ 119.883960371116515, -0.903055458431297 ] ] } },
{ "type": "Feature", "properties": { "Id": 0, "Nama_Jalan": "Jl. Miangas I", "Armada": 2.0, "panjang": 0.22369443559300001, "kelurahan": "Lolu Selatan" }, "geometry": { "type": "LineString", "coordinates": [ [ 119.870457743131638, -0.906166569942819 ], [ 119.870237361999784, -0.906195434796979 ], [ 119.869618409719351, -0.906174890217015 ], [ 119.868821763974111, -0.906103803402328 ], [ 119.868455572091023, -0.906084364990355 ] ] } },
{ "type": "Feature", "properties": { "Id": 0, "Nama_Jalan": "Jl. Miangas IV", "Armada": 2.0, "panjang": 0.23552103233499999, "kelurahan": "Lolu Selatan" }, "geometry": { "type": "LineString", "coordinates": [ [ 119.869991719577897, -0.908073346665137 ], [ 119.870588854857914, -0.908135984699019 ], [ 119.871127528751117, -0.908154201518243 ], [ 119.872101258797088, -0.908107998148747 ] ] } }
]
}
