{
"type": "FeatureCollection",
"name": "Mamboro",
"crs": { "type": "name", "properties": { "name": "urn:ogc:def:crs:OGC:1.3:CRS84" } },
"features": [
{ "type": "Feature", "properties": { "Id": 0, "Nama_Jalan": "Jl. Karana", "Armada": null, "kelurahan": "Mamboro" }, "geometry": { "type": "LineString", "coordinates": [ [ 119.872825055922036, -0.788222397657775 ], [ 119.874912285813068, -0.787694984556709 ], [ 119.875325490806489, -0.78763971044284 ], [ 119.876175740083823, -0.787660636013541 ], [ 119.876589917218411, -0.787638353289139 ], [ 119.877091462972885, -0.787572976602622 ], [ 119.878280688279304, -0.787352202321277 ], [ 119.87846306745692, -0.787327211890048 ], [ 119.879568794145797, -0.787253764596775 ], [ 119.882820682578512, -0.786725542521649 ] ] } },
{ "type": "Feature", "properties": { "Id": 0, "Nama_Jalan": "Jl. Tandame", "Armada": null, "kelurahan": "Mamboro" }, "geometry": { "type": "LineString", "coordinates": [ [ 119.874568596211859, -0.792733487365843 ], [ 119.875858973625853, -0.792477254287595 ], [ 119.876474466849217, -0.792337683065415 ], [ 119.87736352199488, -0.792150584057839 ], [ 119.878211263086556, -0.791979292868358 ], [ 119.879051877652401, -0.791806572308865 ], [ 119.87971938885569, -0.791679157675795 ], [ 119.880164633420904, -0.791593975371686 ], [ 119.880842595511538, -0.791469183291558 ], [ 119.881613180913348, -0.7913455217908 ], [ 119.882209459817659, -0.791243737871979 ], [ 119.882942055040999, -0.79113444732723 ] ] } },
{ "type": "Feature", "properties": { "Id": 0, "Nama_Jalan": "Jl. Mantilayo", "Armada": null, "kelurahan": "Mamboro" }, "geometry": { "type": "LineString", "coordinates": [ [ 119.874826640452056, -0.79520288542416 ], [ 119.875435524510522, -0.795121173189095 ], [ 119.875906200257873, -0.795060835471688 ], [ 119.876569251982644, -0.795006817719414 ], [ 119.877372892185392, -0.794940269430854 ], [ 119.878523242153022, -0.794825663055141 ], [ 119.878945956233224, -0.794785201991476 ], [ 119.879357751328797, -0.794753355200697 ], [ 119.879517340220673, -0.794741767630476 ], [ 119.87970400155946, -0.794727292171059 ], [ 119.880434958992382, -0.794650753661172 ], [ 119.881192496467165, -0.794546942197896 ], [ 119.88139909415834, -0.794513805069149 ], [ 119.88192197918562, -0.79440011745199 ], [ 119.883161028543697, -0.794114272968453 ], [ 119.884010210351221, -0.79397214572587 ] ] } },
{ "type": "Feature", "properties": { "Id": 0, "Nama_Jalan": null, "Armada": null, "kelurahan": "Mamboro" }, "geometry": { "type": "LineString", "coordinates": [ [ 119.884010210351221, -0.79397214572587 ], [ 119.883991068906013, -0.793767513759384 ], [ 119.884017637768906, -0.793723505892406 ], [ 119.884065118061642, -0.793696696502111 ], [ 119.884625561971362, -0.793635100415253 ], [ 119.884655971831208, -0.79365037963255 ], [ 119.884669292721696, -0.793680971438758 ], [ 119.884686653619823, -0.794057736086022 ], [ 119.884667689911424, -0.794109388884027 ], [ 119.884625906859384, -0.794132369133118 ], [ 119.884029357141401, -0.794184427977141 ], [ 119.884010226267748, -0.793995096602253 ] ] } },
{ "type": "Feature", "properties": { "Id": 0, "Nama_Jalan": "Jl. Lamalipu", "Armada": null, "kelurahan": "Mamboro" }, "geometry": { "type": "LineString", "coordinates": [ [ 119.883009872356396, -0.794149144192594 ], [ 119.882967519452237, -0.793499695140432 ], [ 119.882953943610119, -0.792414796071961 ], [ 119.882954420683618, -0.791215491195874 ], [ 119.882949180496482, -0.790505451105121 ], [ 119.882941574051515, -0.789807366258224 ], [ 119.882926561613459, -0.788700473486334 ], [ 119.882911808422307, -0.787968923513752 ], [ 119.882892471484723, -0.78747836127634 ], [ 119.882820682578512, -0.786725542521632 ], [ 119.882737936988008, -0.785857560638058 ], [ 119.882706607067263, -0.785539497086029 ], [ 119.882708834464779, -0.78532433071267 ], [ 119.882725314824029, -0.785113935880629 ], [ 119.882781785980384, -0.784344084772878 ], [ 119.882781574830602, -0.784035682021397 ], [ 119.882712317186218, -0.782605481645857 ], [ 119.882644801814592, -0.781115511871205 ], [ 119.882620902949782, -0.780896299315611 ], [ 119.882465771378193, -0.779779939850367 ], [ 119.882460946645082, -0.779669970019141 ], [ 119.882437679789845, -0.778982892877459 ], [ 119.882418403332366, -0.778575527310298 ], [ 119.882407799541269, -0.778523568308401 ] ] } },
{ "type": "Feature", "properties": { "Id": 0, "Nama_Jalan": "Jl. Sungai Palayua", "Armada": null, "kelurahan": "Mamboro" }, "geometry": { "type": "LineString", "coordinates": [ [ 119.881021675132288, -0.778715821291873 ], [ 119.881549938274432, -0.778649671961165 ], [ 119.881796321975699, -0.778625595074177 ], [ 119.882407799541269, -0.778523568308401 ] ] } },
{ "type": "Feature", "properties": { "Id": 0, "Nama_Jalan": "Jl. L Lanjera, Terminal Mamboro", "Armada": null, "kelurahan": "Mamboro" }, "geometry": { "type": "LineString", "coordinates": [ [ 119.878274442170877, -0.806379649778404 ], [ 119.879283874623312, -0.806484122643655 ], [ 119.880518866672659, -0.806502368153762 ], [ 119.880637628001111, -0.806521409275997 ], [ 119.880749235849052, -0.806499813179433 ], [ 119.881086340079179, -0.806301142752807 ], [ 119.881114787413892, -0.806227010044397 ], [ 119.881202615377958, -0.806162397905487 ], [ 119.881435265173195, -0.806025960860433 ], [ 119.882088128823625, -0.805671668700345 ], [ 119.882237703825467, -0.805604621917698 ], [ 119.882368297674731, -0.80556388660165 ], [ 119.882508406449972, -0.805544660995356 ], [ 119.882705515746892, -0.80552778548886 ], [ 119.882862272682246, -0.805542018093574 ], [ 119.883004808473714, -0.805596903055419 ], [ 119.883268537419767, -0.805752111797893 ], [ 119.88352030242082, -0.80578062090838 ], [ 119.883667566186617, -0.805804423078082 ], [ 119.883729335088901, -0.805833067644283 ], [ 119.883753114879838, -0.8058760836075 ], [ 119.883755548726327, -0.805959756997857 ], [ 119.883646913860218, -0.806830055877939 ], [ 119.88352821851818, -0.806904252896711 ], [ 119.882799059344308, -0.806835442616681 ], [ 119.882950258576514, -0.805702133599008 ] ] } },
{ "type": "Feature", "properties": { "Id": 0, "Nama_Jalan": "Perbatasan Kelurahan Mamboro, Jl. Trans LIK", "Armada": null, "kelurahan": "Mamboro" }, "geometry": { "type": "LineString", "coordinates": [ [ 119.880324102725865, -0.817805735696582 ], [ 119.880408633040716, -0.817779854760341 ], [ 119.880935205578993, -0.817506931560497 ], [ 119.881513556806709, -0.817240665147901 ], [ 119.881855440752346, -0.817085499281196 ], [ 119.881902920874253, -0.817058688886401 ], [ 119.881930451324266, -0.817031892909345 ], [ 119.881952278458613, -0.817000319611377 ], [ 119.881968394777232, -0.816953449822955 ], [ 119.881971207908791, -0.816901808204471 ], [ 119.881963565080014, -0.816841567542608 ], [ 119.881857906878238, -0.816547106948052 ], [ 119.88175033652665, -0.816235434476975 ], [ 119.881701716364631, -0.815995441070816 ], [ 119.881685506024155, -0.815910343059289 ], [ 119.881684524035862, -0.815865398190816 ], [ 119.88168544678399, -0.815827145970161 ], [ 119.881694920072007, -0.815789843869534 ], [ 119.881713897287739, -0.815758272646181 ], [ 119.881740476419367, -0.815729564806124 ], [ 119.881775609492536, -0.815706588529208 ], [ 119.881884822257547, -0.815656782728203 ], [ 119.882391024049198, -0.815460378430173 ], [ 119.882587626373777, -0.815398077880235 ], [ 119.882694005443312, -0.815371225078971 ], [ 119.882803238536042, -0.815350107948719 ], [ 119.883011259640256, -0.815314575240489 ], [ 119.88314329160832, -0.81529248537858 ], [ 119.883201233753496, -0.815282880703704 ], [ 119.883271521586579, -0.815267529397636 ], [ 119.883361752923989, -0.815243557117844 ], [ 119.883417067688441, -0.815226901719909 ], [ 119.88345624468424, -0.81521312682661 ], [ 119.883502541016242, -0.81519157696343 ], [ 119.883549430234325, -0.815168831314654 ], [ 119.883683555260205, -0.815084461749609 ], [ 119.88375120278468, -0.815030024122091 ], [ 119.884012866776445, -0.814784189174992 ], [ 119.884334708007316, -0.81449922271981 ], [ 119.884735105536777, -0.814137457800381 ], [ 119.885163527741327, -0.813776151046528 ], [ 119.885347479412005, -0.813625403485691 ], [ 119.885377384423762, -0.813598127796114 ], [ 119.885412274793211, -0.813567979659022 ], [ 119.88544287852207, -0.813521338683194 ] ] } }
]
}
