{
"type": "FeatureCollection",
"name": "Mamboro Barat",
"crs": { "type": "name", "properties": { "name": "urn:ogc:def:crs:OGC:1.3:CRS84" } },
"features": [
{ "type": "Feature", "properties": { "Id": 0, "Nama_Jalan": "Jl. Trans Mamboro", "Armada": null, "kelurahan": "Mamboro Barat" }, "geometry": { "type": "LineString", "coordinates": [ [ 119.880324102725893, -0.817805735696582 ], [ 119.880094415499158, -0.81751389144294 ], [ 119.879973169557317, -0.817341846794822 ], [ 119.879891855769756, -0.817215675204555 ], [ 119.87981623475612, -0.817079458433738 ], [ 119.879733465356566, -0.816910254781439 ], [ 119.879595004304988, -0.816576131164992 ], [ 119.879387989172756, -0.816024022603665 ], [ 119.879273762227456, -0.815702791223986 ], [ 119.879048160624251, -0.815063195078392 ], [ 119.878923835826726, -0.814568403908624 ], [ 119.878788056449295, -0.813996161266233 ], [ 119.878621263482557, -0.813227422870066 ], [ 119.878434510523746, -0.812443397897561 ], [ 119.878307292653446, -0.811885971114001 ], [ 119.878169032231071, -0.811161679183937 ], [ 119.878083595496989, -0.810577446026376 ], [ 119.877923163375229, -0.809395583884145 ], [ 119.877810909617054, -0.808501530950096 ], [ 119.877783972305124, -0.808190755221214 ], [ 119.87777551344135, -0.807982767704727 ], [ 119.87777777982599, -0.807828563969904 ], [ 119.877796632272776, -0.807619361603762 ], [ 119.877839230186666, -0.807404165485733 ], [ 119.87789727633033, -0.807204498116651 ], [ 119.878018124506241, -0.806813527602985 ], [ 119.878188787334238, -0.806337650782761 ], [ 119.878544566238233, -0.805336877322655 ], [ 119.878581547150063, -0.805239309276539 ], [ 119.878608086966253, -0.805154180452575 ], [ 119.878635330214109, -0.80505614119708 ], [ 119.878654270334295, -0.804971256858423 ], [ 119.878669642147202, -0.804878007509586 ], [ 119.878690896015257, -0.804705859937109 ], [ 119.878707369802896, -0.804490682654133 ], [ 119.878714374802669, -0.804319740583545 ], [ 119.878708340175521, -0.804181082614436 ], [ 119.878698772454356, -0.804084264903842 ], [ 119.87867611648835, -0.803950400193945 ], [ 119.878639218318753, -0.80382730387144 ], [ 119.878535721623848, -0.803562006453613 ], [ 119.878288446996095, -0.803164125522547 ], [ 119.877842751212114, -0.802606206148834 ], [ 119.877360228702486, -0.802026795785192 ], [ 119.87628790173035, -0.800706898849573 ], [ 119.875634381038992, -0.799784536955259 ], [ 119.87505947665862, -0.798868334390268 ], [ 119.875015245445525, -0.798786602381985 ], [ 119.874975286181993, -0.798700564030628 ], [ 119.874952436645444, -0.798628858036276 ], [ 119.874936709015685, -0.798552843695182 ], [ 119.874918086558807, -0.798412281502521 ], [ 119.874916462179812, -0.798125394251648 ], [ 119.874881146103959, -0.796859374612687 ], [ 119.874809004299735, -0.795571415842604 ], [ 119.874719012496513, -0.794226689404004 ], [ 119.874656095572149, -0.793395952307072 ], [ 119.874632459689508, -0.79321678309256 ], [ 119.874617171445649, -0.793088650271567 ], [ 119.87458667685712, -0.792950965135064 ], [ 119.874542848177015, -0.792763561977581 ], [ 119.874483813173526, -0.792566606486661 ], [ 119.874411479737148, -0.792371572859782 ], [ 119.874303003386643, -0.79211344898031 ], [ 119.874196454752635, -0.791895488103676 ], [ 119.874048050150705, -0.791595315005653 ], [ 119.873667529273092, -0.790830544088362 ], [ 119.873288853662828, -0.789985442466651 ], [ 119.873140381238997, -0.789585814088279 ], [ 119.873037548974835, -0.789245444209948 ], [ 119.872959465015072, -0.78897582298139 ], [ 119.872887074472956, -0.788696634790946 ], [ 119.872826095635574, -0.788434651966995 ], [ 119.872770790543981, -0.788134413311365 ], [ 119.872663839045046, -0.787327373306028 ], [ 119.872551132616906, -0.786424957674303 ] ] } },
{ "type": "Feature", "properties": { "Id": 0, "Nama_Jalan": "Jl. Thalua Konci", "Armada": null, "kelurahan": "Mamboro Barat" }, "geometry": { "type": "LineString", "coordinates": [ [ 119.872792164619426, -0.788250448321256 ], [ 119.871994089372592, -0.788410844654553 ], [ 119.871737639021262, -0.78847796367014 ], [ 119.871302637039364, -0.788612147612263 ], [ 119.870231216823086, -0.788853879271982 ], [ 119.869078114864223, -0.789122444250612 ], [ 119.867544816815183, -0.789503975473386 ], [ 119.866716573423972, -0.789716247290685 ], [ 119.865878367319752, -0.789951721317822 ], [ 119.865151682687582, -0.790211623298421 ], [ 119.865049813237107, -0.790236797032213 ] ] } },
{ "type": "Feature", "properties": { "Id": 0, "Nama_Jalan": "Jl. Tj. Ruru", "Armada": null, "kelurahan": "Mamboro Barat" }, "geometry": { "type": "LineString", "coordinates": [ [ 119.874998020506865, -0.798749514480714 ], [ 119.874879824876984, -0.79873251775243 ], [ 119.874740862822293, -0.79869436388562 ], [ 119.874397583901811, -0.798555942971159 ], [ 119.873725516489259, -0.79828387208027 ], [ 119.872898794396647, -0.797948554937792 ] ] } },
{ "type": "Feature", "properties": { "Id": 0, "Nama_Jalan": "Jl. Uwe Laponu", "Armada": "R3", "kelurahan": "Mamboro Barat" }, "geometry": { "type": "LineString", "coordinates": [ [ 119.874916051773752, -0.798110682203292 ], [ 119.874569090483774, -0.798092258179144 ], [ 119.874097395396547, -0.798053860294709 ], [ 119.874023282500687, -0.798033830259781 ], [ 119.873971959315085, -0.797999439748703 ], [ 119.873859291263031, -0.797863246932164 ], [ 119.873833598792686, -0.797801583947652 ], [ 119.873833564928304, -0.797752812897642 ], [ 119.873935808013641, -0.79724064472994 ], [ 119.874016833798336, -0.796955133574248 ], [ 119.874035295845573, -0.79686475068161 ], [ 119.874040862456553, -0.79667253139485 ], [ 119.873990587467176, -0.796094486129758 ], [ 119.873977683143679, -0.795979739736642 ], [ 119.873961946760332, -0.795890815306351 ], [ 119.873940520403764, -0.795816239299477 ], [ 119.873906248377295, -0.795711548996518 ], [ 119.873879121123423, -0.795635542539481 ], [ 119.873867669638585, -0.795560959522847 ], [ 119.873874742887139, -0.795486363507811 ], [ 119.873901765846739, -0.795411753498224 ], [ 119.873943049522254, -0.795352912363838 ], [ 119.874051319119488, -0.795311237562214 ], [ 119.874175285317179, -0.795301109499288 ], [ 119.874789229280182, -0.795275924458187 ] ] } },
{ "type": "Feature", "properties": { "Id": 0, "Nama_Jalan": "Jl. Singgani", "Armada": null, "kelurahan": "Mamboro Barat" }, "geometry": { "type": "LineString", "coordinates": [ [ 119.874690207640924, -0.79384635935122 ], [ 119.874260470529833, -0.793920767093728 ], [ 119.873365691325844, -0.794076791715603 ], [ 119.873142483873281, -0.794133847627661 ], [ 119.872898367087345, -0.794177051893794 ], [ 119.872560210799961, -0.794233710160823 ], [ 119.872204005309783, -0.794291337367491 ], [ 119.87174141100661, -0.794363383520717 ], [ 119.871556172661187, -0.794376901364276 ], [ 119.870798575840695, -0.794404447074444 ], [ 119.870350895376831, -0.794407151124292 ] ] } },
{ "type": "Feature", "properties": { "Id": 0, "Nama_Jalan": "Lrg. Singgani", "Armada": "R3", "kelurahan": "Mamboro Barat" }, "geometry": { "type": "LineString", "coordinates": [ [ 119.87287199124961, -0.794181471179945 ], [ 119.872881892158858, -0.794737413262223 ], [ 119.872889194801644, -0.794994412795227 ], [ 119.872923637609489, -0.795002756246327 ], [ 119.873168241804024, -0.794977482012982 ], [ 119.873877099558925, -0.794876574027978 ], [ 119.874009850489131, -0.794862614675794 ], [ 119.874074685033264, -0.794859700334936 ], [ 119.874132403116931, -0.794868983748171 ], [ 119.874147381271627, -0.794891924334171 ], [ 119.87411259387045, -0.795071971322591 ], [ 119.874092338173824, -0.795307886297644 ] ] } },
{ "type": "Feature", "properties": { "Id": 0, "Nama_Jalan": "Lrg. Singgani", "Armada": "R3", "kelurahan": "Mamboro Barat" }, "geometry": { "type": "LineString", "coordinates": [ [ 119.874245058295742, -0.793923454559628 ], [ 119.874276299767857, -0.794144250166953 ], [ 119.874288502823674, -0.794275493133961 ], [ 119.87428569402843, -0.794335024477872 ], [ 119.874284297815194, -0.79437662429725 ], [ 119.874279326262467, -0.794399578865743 ], [ 119.874245879449106, -0.794457697238269 ], [ 119.874198894846529, -0.794515107880034 ], [ 119.874193981832079, -0.794622694541362 ], [ 119.874189044019744, -0.794694420148085 ], [ 119.874170594222292, -0.794802733522699 ], [ 119.874147381271627, -0.794891924334171 ] ] } },
{ "type": "Feature", "properties": { "Id": 0, "Nama_Jalan": "Jl. Lentora", "Armada": null, "kelurahan": "Mamboro Barat" }, "geometry": { "type": "LineString", "coordinates": [ [ 119.874533538404947, -0.792732502266071 ], [ 119.873229329612101, -0.792920191293358 ], [ 119.872962642121053, -0.792950979228669 ], [ 119.872769096427604, -0.792971435839711 ], [ 119.872349928865603, -0.792992050170325 ], [ 119.871706311825903, -0.792991304653433 ], [ 119.870922350358128, -0.793014803617637 ], [ 119.870610295092391, -0.793037972797398 ], [ 119.869619962578255, -0.793083132476202 ], [ 119.868920330009644, -0.79313382680403 ], [ 119.868850689407338, -0.793133265793533 ] ] } },
{ "type": "Feature", "properties": { "Id": 0, "Nama_Jalan": "Jl. Lagumba", "Armada": null, "kelurahan": "Mamboro Barat" }, "geometry": { "type": "LineString", "coordinates": [ [ 119.871396088843426, -0.788583320774569 ], [ 119.871456956076116, -0.789381682625592 ], [ 119.871552682300603, -0.790440715532808 ], [ 119.871576714720533, -0.790851906713886 ], [ 119.87155389651906, -0.792205083591734 ], [ 119.871506693130527, -0.792997288165038 ], [ 119.871495634945077, -0.793396922045479 ], [ 119.871504555121234, -0.793933398730207 ], [ 119.871526129683303, -0.794377993709043 ] ] } },
{ "type": "Feature", "properties": { "Id": 0, "Nama_Jalan": "Jl. Sintora", "Armada": null, "kelurahan": "Mamboro Barat" }, "geometry": { "type": "LineString", "coordinates": [ [ 119.873140825532147, -0.7929304087137 ], [ 119.873186745165185, -0.793193626129788 ], [ 119.873245859523436, -0.793505337305232 ], [ 119.873336511140892, -0.794084250705313 ] ] } },
{ "type": "Feature", "properties": { "Id": 0, "Nama_Jalan": "Jl. Moma", "Armada": "R3", "kelurahan": "Mamboro Barat" }, "geometry": { "type": "LineString", "coordinates": [ [ 119.871547059144888, -0.790378506072975 ], [ 119.871690384697544, -0.790374156940141 ], [ 119.871991036718498, -0.790346693038786 ], [ 119.872314464657379, -0.79028478657546 ], [ 119.872348673034651, -0.790297672752067 ], [ 119.872357252495789, -0.790340700132794 ], [ 119.872390314086672, -0.790758100655258 ], [ 119.87239181603816, -0.79086998633451 ], [ 119.87238054352666, -0.79105503762682 ], [ 119.87233513077804, -0.791326179451464 ], [ 119.872305381997364, -0.791581531468566 ], [ 119.872278439755775, -0.791773765944413 ], [ 119.872254439414576, -0.792099401795247 ], [ 119.872251756516178, -0.792341824937242 ], [ 119.872250395804144, -0.792435064837201 ], [ 119.872256175823011, -0.792551250874788 ], [ 119.872269084711064, -0.792673169711451 ], [ 119.87227340416284, -0.792737716733985 ], [ 119.872269288171751, -0.792991956767859 ] ] } },
{ "type": "Feature", "properties": { "Id": 0, "Nama_Jalan": "Jl. Uwe Mpemata", "Armada": "R3", "kelurahan": "Mamboro Barat" }, "geometry": { "type": "LineString", "coordinates": [ [ 119.867731830373145, -0.789457440813192 ], [ 119.867891264212631, -0.790061819992873 ], [ 119.868271511172907, -0.791464328532738 ], [ 119.868420299368395, -0.791976443137259 ], [ 119.868494642757994, -0.792158686009558 ], [ 119.868902778636766, -0.791980888235488 ], [ 119.869009159020862, -0.791954037665316 ], [ 119.869115544658726, -0.791934837490237 ], [ 119.869256141739953, -0.791932826849593 ], [ 119.869560160593267, -0.791965129006347 ], [ 119.869620961195423, -0.791966999199299 ], [ 119.870350457573466, -0.791828783354251 ], [ 119.870472048153729, -0.791817222960276 ], [ 119.870625947527031, -0.791819028203965 ], [ 119.871560256172771, -0.791827930686814 ] ] } },
{ "type": "Feature", "properties": { "Id": 0, "Nama_Jalan": null, "Armada": null, "kelurahan": "Mamboro Barat" }, "geometry": { "type": "LineString", "coordinates": [ [ 119.868494642757994, -0.792158686009558 ], [ 119.86882834158429, -0.79309981090597 ], [ 119.868850689407338, -0.793133265793533 ] ] } },
{ "type": "Feature", "properties": { "Id": 0, "Nama_Jalan": "Jl. Labuan Beru", "Armada": null, "kelurahan": "Mamboro Barat" }, "geometry": { "type": "LineString", "coordinates": [ [ 119.872551132616906, -0.78642495767427 ], [ 119.872368516993532, -0.786449635027705 ], [ 119.872298227895399, -0.786464028209556 ], [ 119.872228890086475, -0.786480333326393 ], [ 119.872120615953662, -0.786515791377685 ], [ 119.871286267315668, -0.78682907908165 ], [ 119.871001339449577, -0.78692873161399 ], [ 119.870737301400695, -0.787014025218967 ], [ 119.87042482180027, -0.787110828016467 ], [ 119.869802712285278, -0.787304431724106 ], [ 119.869354414233655, -0.787445318556716 ], [ 119.86883202670893, -0.787600601323957 ], [ 119.867962951960664, -0.78784243068177 ], [ 119.867281181310119, -0.788032053785624 ], [ 119.866710188194148, -0.788195702306398 ], [ 119.86603985790822, -0.788379777095967 ], [ 119.865228587661832, -0.788586566285348 ], [ 119.864882139474844, -0.788676459922767 ], [ 119.864860180315802, -0.788690222007291 ], [ 119.864838821445488, -0.788713546707629 ], [ 119.864835276562729, -0.788739249813541 ], [ 119.864832324607505, -0.788763757129453 ], [ 119.864864597125546, -0.789070947135028 ], [ 119.864917326702994, -0.789623021751181 ], [ 119.864975961700736, -0.790171138372452 ], [ 119.86499678376191, -0.790230892845747 ], [ 119.865049813237107, -0.790236797032213 ] ] } },
{ "type": "Feature", "properties": { "Id": 0, "Nama_Jalan": "BTN Madani", "Armada": "R3", "kelurahan": "Mamboro Barat" }, "geometry": { "type": "LineString", "coordinates": [ [ 119.868707966300903, -0.787635122462088 ], [ 119.869091673146499, -0.789119286438497 ] ] } },
{ "type": "Feature", "properties": { "Id": 0, "Nama_Jalan": "BTN Madani", "Armada": "R3", "kelurahan": "Mamboro Barat" }, "geometry": { "type": "LineString", "coordinates": [ [ 119.869402736257982, -0.787430132371998 ], [ 119.869488232445448, -0.787735163745801 ], [ 119.869758504715165, -0.788963977018292 ] ] } },
{ "type": "Feature", "properties": { "Id": 0, "Nama_Jalan": null, "Armada": "R3", "kelurahan": "Mamboro Barat" }, "geometry": { "type": "LineString", "coordinates": [ [ 119.864917326702994, -0.789623021751181 ], [ 119.865424226504985, -0.789545918980627 ], [ 119.865425443481072, -0.789588951755985 ], [ 119.866103366387108, -0.789393634433486 ], [ 119.866242977394421, -0.789842621244208 ] ] } },
{ "type": "Feature", "properties": { "Id": 0, "Nama_Jalan": "Lorong Lapangan", "Armada": "R3", "kelurahan": "Mamboro Barat" }, "geometry": { "type": "LineString", "coordinates": [ [ 119.865884132588448, -0.788419470791441 ], [ 119.866103366387108, -0.789393634433486 ] ] } },
{ "type": "Feature", "properties": { "Id": 0, "Nama_Jalan": "Jl. Dodoro Vulu", "Armada": "R3", "kelurahan": "Mamboro Barat" }, "geometry": { "type": "LineString", "coordinates": [ [ 119.867554790406402, -0.789501493740608 ], [ 119.867505117687116, -0.789113901526749 ], [ 119.867475029847611, -0.788875803483688 ], [ 119.867397830624896, -0.788510789162525 ], [ 119.867352105890376, -0.78832792831246 ], [ 119.867281181310119, -0.788032053785624 ] ] } },
{ "type": "Feature", "properties": { "Id": 0, "Nama_Jalan": "Huntap Mandiri", "Armada": "R3", "kelurahan": "Mamboro Barat" }, "geometry": { "type": "LineString", "coordinates": [ [ 119.875512070388211, -0.799589615445443 ], [ 119.875800389859421, -0.799479140236493 ], [ 119.875871624775314, -0.799459007802502 ], [ 119.875954275490514, -0.799461818365379 ], [ 119.876006993676057, -0.79945317452282 ], [ 119.876320399840452, -0.799325288188249 ], [ 119.876373115011049, -0.799312341031826 ], [ 119.87642867813571, -0.799296522986355 ], [ 119.876833268492931, -0.799148191378977 ], [ 119.877119628829277, -0.799061922975632 ], [ 119.877585522046459, -0.798955445783558 ], [ 119.877625412373717, -0.798942507691151 ], [ 119.87755964980289, -0.798635584224255 ], [ 119.877449566398681, -0.798117829466759 ] ] } }
]
}
