{
"type": "FeatureCollection",
"name": "Nunu",
"crs": { "type": "name", "properties": { "name": "urn:ogc:def:crs:OGC:1.3:CRS84" } },
"features": [
{ "type": "Feature", "properties": { "Id": 0, "Nama_Jalan": "Jl. Sungai Lariang", "Armada": 1.0, "kelurahan": "Nunu" }, "geometry": { "type": "LineString", "coordinates": [ [ 119.863308175057483, -0.908368624419765 ], [ 119.863286253960084, -0.908027719529937 ], [ 119.86349121867309, -0.90555274519057 ] ] } },
{ "type": "Feature", "properties": { "Id": 0, "Nama_Jalan": "Jl. Beringin", "Armada": 1.0, "kelurahan": "Nunu" }, "geometry": { "type": "LineString", "coordinates": [ [ 119.863308175057483, -0.908368624419765 ], [ 119.862478881895854, -0.908466829324448 ], [ 119.861824445984965, -0.908557423524829 ], [ 119.8614895813609, -0.908581598344696 ], [ 119.861245279000045, -0.908590845999933 ] ] } },
{ "type": "Feature", "properties": { "Id": 0, "Nama_Jalan": "Jl. Sungai Tanamea", "Armada": 1.0, "kelurahan": "Nunu" }, "geometry": { "type": "LineString", "coordinates": [ [ 119.860038065496425, -0.904673370703147 ], [ 119.859806441070106, -0.905661198407998 ], [ 119.859638038897216, -0.906452509840696 ], [ 119.859617866309577, -0.906655260107586 ], [ 119.859618600416169, -0.906833969415538 ], [ 119.859632375800743, -0.906985174513658 ], [ 119.859675247138554, -0.907138149521143 ], [ 119.85969725459772, -0.907191123008458 ], [ 119.859757147890306, -0.907244150363219 ], [ 119.859892667777657, -0.907268273243084 ], [ 119.860442777275196, -0.907329671980294 ], [ 119.86052829076722, -0.907343948466228 ], [ 119.860610978988518, -0.907389785305665 ], [ 119.86064524076906, -0.907467218820117 ], [ 119.860643210282163, -0.90755820509604 ], [ 119.860534598534585, -0.90847431345894 ] ] } },
{ "type": "Feature", "properties": { "Id": 0, "Nama_Jalan": "Jl. Sungai Ogotion", "Armada": 1.0, "kelurahan": "Nunu" }, "geometry": { "type": "LineString", "coordinates": [ [ 119.863382882112859, -0.906768526798961 ], [ 119.859721263612357, -0.906461680708264 ], [ 119.859636919560913, -0.906463760036357 ] ] } },
{ "type": "Feature", "properties": { "Id": 0, "Nama_Jalan": "Jl. Sungai Ogomojolo", "Armada": 1.0, "kelurahan": "Nunu" }, "geometry": { "type": "LineString", "coordinates": [ [ 119.862613927765594, -0.906704088304703 ], [ 119.862685136120575, -0.905465944293133 ] ] } },
{ "type": "Feature", "properties": { "Id": 0, "Nama_Jalan": "Jl. Danau Talaga", "Armada": 1.0, "kelurahan": "Nunu" }, "geometry": { "type": "LineString", "coordinates": [ [ 119.86349121867309, -0.90555274519057 ], [ 119.862685136120575, -0.905465944293133 ], [ 119.860038065496425, -0.904673370703147 ] ] } },
{ "type": "Feature", "properties": { "Id": 0, "Nama_Jalan": "Jl. Sungai Sausu Lrg I", "Armada": 1.0, "kelurahan": "Nunu" }, "geometry": { "type": "LineString", "coordinates": [ [ 119.861896011470137, -0.905224674762261 ], [ 119.862035519043431, -0.903539745402338 ] ] } },
{ "type": "Feature", "properties": { "Id": 0, "Nama_Jalan": "Jl. Sungai Malino", "Armada": 1.0, "kelurahan": "Nunu" }, "geometry": { "type": "LineString", "coordinates": [ [ 119.866171345610169, -0.904870860334794 ], [ 119.86613702388955, -0.904263038416003 ], [ 119.866129246608665, -0.904037357410692 ], [ 119.866064418716832, -0.90374860584118 ], [ 119.865813390161392, -0.903463827397046 ], [ 119.865756312526585, -0.903366329947005 ], [ 119.865697235908613, -0.903142602207081 ], [ 119.865548794588037, -0.902838616019648 ] ] } },
{ "type": "Feature", "properties": { "Id": 0, "Nama_Jalan": "Jl. Sungai Balantak", "Armada": 1.0, "kelurahan": "Nunu" }, "geometry": { "type": "LineString", "coordinates": [ [ 119.866670141287202, -0.904915887616689 ], [ 119.866171345610169, -0.904870860334794 ], [ 119.865970635720714, -0.904847710217818 ], [ 119.865617154856267, -0.90475427390403 ], [ 119.86519530249933, -0.904699143981061 ], [ 119.864999586349626, -0.904683998821512 ], [ 119.864917886113574, -0.90468597641099 ], [ 119.864820999058352, -0.904705179527468 ], [ 119.864659509103291, -0.904722521421237 ], [ 119.863791151049355, -0.904673484174633 ], [ 119.863573823954326, -0.904656510396179 ] ] } },
{ "type": "Feature", "properties": { "Id": 0, "Nama_Jalan": "Jl. Sungai Sadan", "Armada": 1.0, "kelurahan": "Nunu" }, "geometry": { "type": "LineString", "coordinates": [ [ 119.863532731181152, -0.905173306245717 ], [ 119.864591044699878, -0.905252467320783 ], [ 119.864511819066038, -0.906438943788346 ], [ 119.864475999093372, -0.907701292335873 ], [ 119.864470111809439, -0.908231987802259 ] ] } },
{ "type": "Feature", "properties": { "Id": 0, "Nama_Jalan": "Jl. Jati", "Armada": 2.0, "kelurahan": "Nunu" }, "geometry": { "type": "LineString", "coordinates": [ [ 119.863308175057483, -0.908368624419765 ], [ 119.863314198931661, -0.908553449268458 ], [ 119.863276661548227, -0.909141606217488 ], [ 119.863212503793193, -0.910607193479407 ], [ 119.863155455059626, -0.912050062976414 ], [ 119.863078323999247, -0.91287433945733 ], [ 119.863022974487137, -0.914210221321742 ], [ 119.86301783410056, -0.914919148838985 ], [ 119.863040901208009, -0.915326561886546 ] ] } },
{ "type": "Feature", "properties": { "Id": 0, "Nama_Jalan": "Jl. Meranti", "Armada": 2.0, "kelurahan": "Nunu" }, "geometry": { "type": "LineString", "coordinates": [ [ 119.861080888398988, -0.910656880236239 ], [ 119.861004482336668, -0.912319080088746 ], [ 119.860978509297723, -0.913262855326673 ], [ 119.861006790715876, -0.913335790822741 ], [ 119.861871808148663, -0.913359482850671 ], [ 119.86305730826939, -0.91338155793193 ] ] } },
{ "type": "Feature", "properties": { "Id": 0, "Nama_Jalan": "Jl. Boyanempa", "Armada": 2.0, "kelurahan": "Nunu" }, "geometry": { "type": "LineString", "coordinates": [ [ 119.86302919890835, -0.915119875288889 ], [ 119.862329116748612, -0.915105004556926 ], [ 119.861831721602329, -0.915033681444528 ], [ 119.861328637481179, -0.914976707355343 ], [ 119.861170449055109, -0.914965358774565 ], [ 119.86112912974481, -0.914973998721232 ], [ 119.86110207560985, -0.915001275171776 ], [ 119.861086432024564, -0.915041452585141 ], [ 119.861073177781378, -0.915659754766058 ], [ 119.860611956778712, -0.915610442754232 ], [ 119.859053632467948, -0.915570675112875 ] ] } },
{ "type": "Feature", "properties": { "Id": 0, "Nama_Jalan": "Jl. Agatis", "Armada": 2.0, "kelurahan": "Nunu" }, "geometry": { "type": "LineString", "coordinates": [ [ 119.859474408058603, -0.912588689013627 ], [ 119.859673769193904, -0.910685924103524 ], [ 119.859760951761544, -0.910632831663104 ], [ 119.86067655695966, -0.910654812094345 ], [ 119.862657248555664, -0.91066494282213 ], [ 119.863209890400086, -0.910673290119909 ] ] } },
{ "type": "Feature", "properties": { "Id": 0, "Nama_Jalan": "Jl. Agatis Lrg I", "Armada": 2.0, "kelurahan": "Nunu" }, "geometry": { "type": "LineString", "coordinates": [ [ 119.862629904307909, -0.910664802970943 ], [ 119.862592164085044, -0.91174114836463 ], [ 119.862569358150054, -0.911884612323269 ] ] } },
{ "type": "Feature", "properties": { "Id": 0, "Nama_Jalan": "Jl. Agatis Lrg II", "Armada": 2.0, "kelurahan": "Nunu" }, "geometry": { "type": "LineString", "coordinates": [ [ 119.862428964226581, -0.910663775263425 ], [ 119.862459661579749, -0.90966822494422 ], [ 119.862540316777057, -0.908942803415002 ], [ 119.862728437961238, -0.908963691900965 ] ] } },
{ "type": "Feature", "properties": { "Id": 0, "Nama_Jalan": "Jl. Kalora", "Armada": 2.0, "kelurahan": "Nunu" }, "geometry": { "type": "LineString", "coordinates": [ [ 119.863308175057483, -0.908368624419765 ], [ 119.863625887335175, -0.908313035259111 ], [ 119.863878548402241, -0.908255933512474 ], [ 119.865152843645248, -0.908204351607394 ], [ 119.865988562913429, -0.908276482622161 ], [ 119.866042726508169, -0.908292218331916 ], [ 119.866148299774565, -0.908445620401617 ], [ 119.866221021566062, -0.908502940387325 ], [ 119.866420608371754, -0.908607495893531 ], [ 119.866386613607531, -0.908868593351991 ], [ 119.866395222644158, -0.908943177979593 ], [ 119.866453690761432, -0.908996205957171 ], [ 119.866905477299355, -0.909061829446157 ], [ 119.867015212497307, -0.909071782838948 ], [ 119.867055113320959, -0.90907175092494 ], [ 119.867076469512526, -0.909047348171908 ], [ 119.867105781991782, -0.908872321677608 ], [ 119.868082560180127, -0.909072363435878 ], [ 119.86812534991391, -0.909121578646275 ], [ 119.868188091929738, -0.909173168635568 ], [ 119.868303869785052, -0.909165903734591 ], [ 119.868732516093871, -0.909115880870511 ], [ 119.869036683000147, -0.90906523899996 ] ] } },
{ "type": "Feature", "properties": { "Id": 0, "Nama_Jalan": "Jl. Bungi Indah", "Armada": 2.0, "kelurahan": "Nunu" }, "geometry": { "type": "LineString", "coordinates": [ [ 119.866538488721034, -0.909008523147848 ], [ 119.866494825038785, -0.909806399366254 ], [ 119.866498941297309, -0.910206608175364 ], [ 119.866458159312032, -0.910894699653114 ], [ 119.866420184200493, -0.910927244328513 ], [ 119.866359402542045, -0.910952156869265 ], [ 119.866283815373095, -0.912076349846418 ] ] } },
{ "type": "Feature", "properties": { "Id": 0, "Nama_Jalan": "Jl. Kramat Jati", "Armada": 2.0, "kelurahan": "Nunu" }, "geometry": { "type": "LineString", "coordinates": [ [ 119.8630408247802, -0.91377939362293 ], [ 119.863403292100841, -0.913808015717856 ], [ 119.86423362025495, -0.9138169119175 ], [ 119.86459084711629, -0.913839576237831 ], [ 119.864807444735206, -0.913829839202419 ], [ 119.865837162714072, -0.913695129525331 ], [ 119.86599462028812, -0.913684244600228 ], [ 119.866043344320644, -0.913695086099766 ], [ 119.866016633982809, -0.914155566839166 ], [ 119.866040885718263, -0.914188539748598 ], [ 119.866093623309098, -0.914202841869016 ], [ 119.867140082405058, -0.914215388487718 ], [ 119.867237456503432, -0.91421148495722 ], [ 119.86729206751356, -0.91419231501434 ], [ 119.867321737630576, -0.914169579007706 ] ] } },
{ "type": "Feature", "properties": { "Id": 0, "Nama_Jalan": "Jl. Bungi Indah I", "Armada": 2.0, "kelurahan": "Nunu" }, "geometry": { "type": "LineString", "coordinates": [ [ 119.866517662672862, -0.909389080958985 ], [ 119.866791649189608, -0.909433084839285 ], [ 119.867806833770089, -0.909544637740006 ], [ 119.868162652886511, -0.909591211597924 ], [ 119.868297585774499, -0.909629355559841 ], [ 119.868770714639766, -0.909653840490083 ] ] } },
{ "type": "Feature", "properties": { "Id": 0, "Nama_Jalan": "Jl. Bungi Indah II", "Armada": 2.0, "kelurahan": "Nunu" }, "geometry": { "type": "LineString", "coordinates": [ [ 119.86649827946421, -0.910142261474457 ], [ 119.866968649274057, -0.910108808901258 ], [ 119.867416099506642, -0.910096974981322 ], [ 119.86742455105481, -0.909972170991994 ], [ 119.867407425765236, -0.909940626786329 ], [ 119.867369056352075, -0.9099249980864 ], [ 119.867353245180297, -0.909903374444838 ] ] } },
{ "type": "Feature", "properties": { "Id": 0, "Nama_Jalan": "Jl. Bungi Indah III", "Armada": 2.0, "kelurahan": "Nunu" }, "geometry": { "type": "LineString", "coordinates": [ [ 119.866436667410724, -0.910913118215145 ], [ 119.866493581514675, -0.910937585291977 ], [ 119.866839915009464, -0.911001858070004 ], [ 119.867365832824945, -0.911104716984376 ], [ 119.867494102525072, -0.911126130907309 ], [ 119.868245058841438, -0.911082495242039 ], [ 119.868457392637552, -0.911088062754664 ], [ 119.86877518188011, -0.911097849015722 ] ] } },
{ "type": "Feature", "properties": { "Id": 0, "Nama_Jalan": "Lrg. Tanamea I", "Armada": 1.0, "kelurahan": "Nunu" }, "geometry": { "type": "LineString", "coordinates": [ [ 119.860603605109119, -0.907921808978807 ], [ 119.861600249364201, -0.907933305849152 ] ] } },
{ "type": "Feature", "properties": { "Id": 0, "Nama_Jalan": "Lrg. Tanamea II", "Armada": 1.0, "kelurahan": "Nunu" }, "geometry": { "type": "LineString", "coordinates": [ [ 119.859808561027378, -0.905652157237555 ], [ 119.859870246933369, -0.905646840062059 ], [ 119.861467416134388, -0.905722074681266 ], [ 119.861509799480118, -0.905707457312594 ], [ 119.861526869875732, -0.905669191515164 ], [ 119.86152868135737, -0.905556346023591 ], [ 119.861603675988405, -0.905135295065054 ] ] } },
{ "type": "Feature", "properties": { "Id": 0, "Nama_Jalan": "Lrg. Surumana", "Armada": 1.0, "kelurahan": "Nunu" }, "geometry": { "type": "LineString", "coordinates": [ [ 119.860309012336629, -0.903677356821029 ], [ 119.861339741925065, -0.903986919724766 ] ] } },
{ "type": "Feature", "properties": { "Id": 0, "Nama_Jalan": "Lrg. S. Sadan I", "Armada": 1.0, "kelurahan": "Nunu" }, "geometry": { "type": "LineString", "coordinates": [ [ 119.864591044699878, -0.905252467320783 ], [ 119.86521175069764, -0.905293022151693 ], [ 119.865388516040682, -0.905371298228266 ] ] } },
{ "type": "Feature", "properties": { "Id": 0, "Nama_Jalan": "Lrg. S. Sadan III", "Armada": 1.0, "kelurahan": "Nunu" }, "geometry": { "type": "LineString", "coordinates": [ [ 119.864511217885379, -0.906460129883989 ], [ 119.865727042295731, -0.90653209885545 ], [ 119.86582203865261, -0.906524850855494 ] ] } },
{ "type": "Feature", "properties": { "Id": 0, "Nama_Jalan": "Lrg. S. Sadan II", "Armada": 1.0, "kelurahan": "Nunu" }, "geometry": { "type": "LineString", "coordinates": [ [ 119.864542150455833, -0.90598470135319 ], [ 119.86532071991742, -0.905990438422549 ], [ 119.865451842252426, -0.906015197819819 ], [ 119.865805329405362, -0.90611628418151 ], [ 119.866232907471286, -0.906203923166543 ], [ 119.866415282619329, -0.906167438339487 ], [ 119.86692449138333, -0.906165119808063 ] ] } },
{ "type": "Feature", "properties": { "Id": 0, "Nama_Jalan": "Pabrik Tahu Afifah", "Armada": 2.0, "kelurahan": "Nunu" }, "geometry": { "type": "LineString", "coordinates": [ [ 119.863040901208009, -0.915326561886546 ], [ 119.863207619599791, -0.915312680934984 ], [ 119.863481096052212, -0.915147976722133 ], [ 119.863520950011406, -0.915088653836351 ], [ 119.863671009794103, -0.915033067551202 ], [ 119.863703288979792, -0.915005786940299 ], [ 119.863710376594099, -0.914958444210506 ], [ 119.863658954651584, -0.914806433270586 ] ] } },
{ "type": "Feature", "properties": { "Id": 0, "Nama_Jalan": "Lrg. Kramat Jati II", "Armada": 2.0, "kelurahan": "Nunu" }, "geometry": { "type": "LineString", "coordinates": [ [ 119.864178483151221, -0.913816321180552 ], [ 119.864153099281609, -0.912875618272941 ] ] } },
{ "type": "Feature", "properties": { "Id": 0, "Nama_Jalan": "Lrg. Kramat Jati I", "Armada": 2.0, "kelurahan": "Nunu" }, "geometry": { "type": "LineString", "coordinates": [ [ 119.864178483151221, -0.913816321180552 ], [ 119.864153705694505, -0.914240262566527 ], [ 119.864153871802458, -0.9144496928506 ] ] } },
{ "type": "Feature", "properties": { "Id": 0, "Nama_Jalan": "Lalove Lrg. III", "Armada": 2.0, "kelurahan": "Nunu" }, "geometry": { "type": "LineString", "coordinates": [ [ 119.865178771253767, -0.913781261577675 ], [ 119.865143969557209, -0.913470121365276 ], [ 119.865147827487576, -0.912943673770391 ], [ 119.865134915841253, -0.912834681433409 ] ] } },
{ "type": "Feature", "properties": { "Id": 0, "Nama_Jalan": "Lrg. Kramat Jati III", "Armada": 2.0, "kelurahan": "Nunu" }, "geometry": { "type": "LineString", "coordinates": [ [ 119.865178771253767, -0.913781261577675 ], [ 119.86521580060392, -0.914200678694906 ], [ 119.865234410257088, -0.914306813298715 ] ] } },
{ "type": "Feature", "properties": { "Id": 0, "Nama_Jalan": "Lalove Lrg. II", "Armada": 2.0, "kelurahan": "Nunu" }, "geometry": { "type": "LineString", "coordinates": [ [ 119.865756024908336, -0.913705744135071 ], [ 119.865789384453933, -0.913461593900147 ], [ 119.865836430768496, -0.912887774985294 ], [ 119.865827829807799, -0.912817742804127 ] ] } },
{ "type": "Feature", "properties": { "Id": 0, "Nama_Jalan": "Lrg. Kramat Jati IV", "Armada": 2.0, "kelurahan": "Nunu" }, "geometry": { "type": "LineString", "coordinates": [ [ 119.866029518184689, -0.913933445461865 ], [ 119.866365581390738, -0.913946394170592 ] ] } },
{ "type": "Feature", "properties": { "Id": 0, "Nama_Jalan": "Lrg. Kramat Jati V", "Armada": 2.0, "kelurahan": "Nunu" }, "geometry": { "type": "LineString", "coordinates": [ [ 119.866024881166595, -0.914013386756948 ], [ 119.865487148467622, -0.914072853996992 ] ] } },
{ "type": "Feature", "properties": { "Id": 0, "Nama_Jalan": "Lrg. Kramat Jati VI", "Armada": 2.0, "kelurahan": "Nunu" }, "geometry": { "type": "LineString", "coordinates": [ [ 119.866175976000818, -0.914203829255862 ], [ 119.86614226505128, -0.914767080472015 ] ] } },
{ "type": "Feature", "properties": { "Id": 0, "Nama_Jalan": "Lalove Lrg. I", "Armada": 2.0, "kelurahan": "Nunu" }, "geometry": { "type": "LineString", "coordinates": [ [ 119.867321737630576, -0.914169579007689 ], [ 119.867329387107873, -0.914047190284147 ], [ 119.867352089119407, -0.913923092023592 ], [ 119.867351320631371, -0.913852565473121 ], [ 119.867367316272095, -0.913657586830403 ], [ 119.867372259493507, -0.913601639272695 ], [ 119.867384133676481, -0.913300873199436 ], [ 119.867405886481876, -0.91287817087576 ], [ 119.867408161087823, -0.912751459226201 ], [ 119.867404409031565, -0.912512387102139 ], [ 119.86739248565911, -0.912451671590501 ] ] } },
{ "type": "Feature", "properties": { "Id": 0, "Nama_Jalan": "Jl. Beringin I", "Armada": 2.0, "kelurahan": "Nunu" }, "geometry": { "type": "LineString", "coordinates": [ [ 119.861970783693948, -0.908537165859461 ], [ 119.861933726585178, -0.90908495508247 ], [ 119.861915230507762, -0.909122265751972 ], [ 119.861194150838372, -0.909108496836557 ], [ 119.861119089609659, -0.909112044576666 ], [ 119.860658229222253, -0.909038858685245 ] ] } },
{ "type": "Feature", "properties": { "Id": 0, "Nama_Jalan": "Jl. Beringin II", "Armada": 2.0, "kelurahan": "Nunu" }, "geometry": { "type": "LineString", "coordinates": [ [ 119.861245279000045, -0.908590845999933 ], [ 119.861194150838372, -0.909108496836557 ], [ 119.861146746755537, -0.909849812441359 ], [ 119.861137597185319, -0.910294501960041 ], [ 119.861080888398988, -0.910656880236239 ] ] } },
{ "type": "Feature", "properties": { "Id": 0, "Nama_Jalan": "Lrg. Agatis III", "Armada": 2.0, "kelurahan": "Nunu" }, "geometry": { "type": "LineString", "coordinates": [ [ 119.860511219923993, -0.910650842957619 ], [ 119.860559246852105, -0.910034330379564 ], [ 119.860583440830339, -0.909994146187414 ], [ 119.860596226590388, -0.909943929893825 ], [ 119.860621600265333, -0.9095924670744 ], [ 119.860608625727636, -0.909403128792484 ], [ 119.860658229222253, -0.909038858685245 ], [ 119.86030470585122, -0.908993753913254 ], [ 119.860193090637239, -0.908980988065323 ] ] } },
{ "type": "Feature", "properties": { "Id": 0, "Nama_Jalan": "Lrg. Agatis IV", "Armada": 2.0, "kelurahan": "Nunu" }, "geometry": { "type": "LineString", "coordinates": [ [ 119.860020873446786, -0.91063907148597 ], [ 119.860098310072303, -0.909662695271471 ], [ 119.860134172963541, -0.909360473729848 ], [ 119.860193090637239, -0.908980988065323 ], [ 119.859962679783081, -0.908972509890718 ] ] } },
{ "type": "Feature", "properties": { "Id": 0, "Nama_Jalan": "Lrg. Agatis V", "Armada": 2.0, "kelurahan": "Nunu" }, "geometry": { "type": "LineString", "coordinates": [ [ 119.859610352227818, -0.911291192363572 ], [ 119.86033370222232, -0.911348236605641 ], [ 119.860289840161258, -0.911746095210618 ], [ 119.860255809944604, -0.911962247727124 ], [ 119.860248238444996, -0.911998593437373 ], [ 119.860219751262463, -0.912015829760011 ], [ 119.86007533067, -0.911994906619864 ] ] } },
{ "type": "Feature", "properties": { "Id": 0, "Nama_Jalan": "Lrg. Agatis VI", "Armada": 2.0, "kelurahan": "Nunu" }, "geometry": { "type": "LineString", "coordinates": [ [ 119.859476626237594, -0.912567517865583 ], [ 119.859996797803419, -0.912630571278935 ] ] } },
{ "type": "Feature", "properties": { "Id": 0, "Nama_Jalan": "Lrg. Agatis VII", "Armada": 2.0, "kelurahan": "Nunu" }, "geometry": { "type": "LineString", "coordinates": [ [ 119.859317467352582, -0.913743890703036 ], [ 119.860418319676739, -0.913765034630489 ] ] } },
{ "type": "Feature", "properties": { "Id": 0, "Nama_Jalan": "Lrg. Agatis VIII", "Armada": 2.0, "kelurahan": "Nunu" }, "geometry": { "type": "LineString", "coordinates": [ [ 119.858931441994002, -0.916306363380866 ], [ 119.859643636791745, -0.916243925669017 ], [ 119.860256476581228, -0.916334281977972 ] ] } },
{ "type": "Feature", "properties": { "Id": 0, "Nama_Jalan": "Lrg. Kalora II", "Armada": 2.0, "kelurahan": "Nunu" }, "geometry": { "type": "LineString", "coordinates": [ [ 119.865139478737689, -0.908204892604473 ], [ 119.865029151586526, -0.908814260647009 ], [ 119.864493911107729, -0.908786596888037 ], [ 119.864514518003645, -0.908230190294341 ] ] } },
{ "type": "Feature", "properties": { "Id": 0, "Nama_Jalan": "Lrg. Kalora I", "Armada": 2.0, "kelurahan": "Nunu" }, "geometry": { "type": "LineString", "coordinates": [ [ 119.86363609282472, -0.908310728804633 ], [ 119.863663368235308, -0.908503477163466 ] ] } },
{ "type": "Feature", "properties": { "Id": 0, "Nama_Jalan": "Lrg. Damai", "Armada": 2.0, "kelurahan": "Nunu" }, "geometry": { "type": "LineString", "coordinates": [ [ 119.862441337461775, -0.908472026638925 ], [ 119.862468870204481, -0.908709245143959 ], [ 119.862470444421348, -0.908898592220469 ] ] } }
]
}
