{
"type": "FeatureCollection",
"name": "Palupi",
"crs": { "type": "name", "properties": { "name": "urn:ogc:def:crs:OGC:1.3:CRS84" } },
"features": [
{ "type": "Feature", "properties": { "Id": 0, "Nama_Jalan": "Jl. Pue Bongo II", "Armada": 2.0, "kelurahan": "Palupi" }, "geometry": { "type": "LineString", "coordinates": [ [ 119.858604307099654, -0.922396864589914 ], [ 119.858646272079923, -0.923466108342088 ], [ 119.858631381916098, -0.924151075919566 ], [ 119.858558847209281, -0.924515483793698 ], [ 119.85769714699191, -0.924557151275919 ], [ 119.857287489835485, -0.924612471169192 ], [ 119.856914112599668, -0.924686281183857 ], [ 119.857055189929227, -0.926667050708566 ], [ 119.857047803879553, -0.926786097280537 ], [ 119.85703929346262, -0.92683582828853 ], [ 119.857019760360473, -0.926876193955541 ] ] } },
{ "type": "Feature", "properties": { "Id": 0, "Nama_Jalan": null, "Armada": 1.0, "kelurahan": "Palupi" }, "geometry": { "type": "LineString", "coordinates": [ [ 119.85945825431277, -0.923670153980903 ], [ 119.860776221794367, -0.923810882331451 ], [ 119.86140245574137, -0.923871944981724 ] ] } },
{ "type": "Feature", "properties": { "Id": 0, "Nama_Jalan": "Jl. Tavanjuka Permai", "Armada": 1.0, "kelurahan": "Palupi" }, "geometry": { "type": "LineString", "coordinates": [ [ 119.8613154566644, -0.925705603619291 ], [ 119.861438881631955, -0.926790910045142 ], [ 119.861523344040265, -0.927713078359189 ], [ 119.86151866501821, -0.927801540423802 ], [ 119.86159693826518, -0.928705304761713 ] ] } },
{ "type": "Feature", "properties": { "Id": 0, "Nama_Jalan": null, "Armada": 1.0, "kelurahan": "Palupi" }, "geometry": { "type": "LineString", "coordinates": [ [ 119.859672329773034, -0.92886638452029 ], [ 119.859380073016567, -0.928892516087698 ], [ 119.858131343548294, -0.929002074669388 ], [ 119.856957190647876, -0.929112050451305 ], [ 119.856144479129185, -0.92916530942306 ] ] } },
{ "type": "Feature", "properties": { "Id": 0, "Nama_Jalan": null, "Armada": 1.0, "kelurahan": "Palupi" }, "geometry": { "type": "MultiLineString", "coordinates": [ [ [ 119.861029296161718, -0.925750344277475 ], [ 119.860761412490646, -0.925781163795893 ], [ 119.860858684733813, -0.926833021331978 ], [ 119.860936414720598, -0.927800739679694 ], [ 119.861021631087453, -0.92874234001402 ], [ 119.861295830077012, -0.928724688533818 ], [ 119.861208552340898, -0.927743498267862 ], [ 119.861129429944143, -0.926816424281274 ], [ 119.861029296161718, -0.925750344277475 ] ], [ [ 119.861029296161718, -0.925750344277475 ], [ 119.861317286924034, -0.925721697618569 ] ] ] } },
{ "type": "Feature", "properties": { "Id": 0, "Nama_Jalan": null, "Armada": 1.0, "kelurahan": "Palupi" }, "geometry": { "type": "LineString", "coordinates": [ [ 119.860478155937798, -0.928793053665467 ], [ 119.860754499407619, -0.928767006869823 ], [ 119.860677530170406, -0.927799157474815 ], [ 119.86058405333813, -0.926742515234494 ], [ 119.860495903155339, -0.925811144610763 ], [ 119.860436627952936, -0.925108498874768 ], [ 119.860173010105157, -0.925127839070373 ], [ 119.860230275182317, -0.925835018033576 ], [ 119.860322742780255, -0.926884571963846 ], [ 119.860059130178428, -0.926910606705858 ], [ 119.859964399494856, -0.925858913705012 ] ] } },
{ "type": "Feature", "properties": { "Id": 0, "Nama_Jalan": null, "Armada": 1.0, "kelurahan": "Palupi" }, "geometry": { "type": "LineString", "coordinates": [ [ 119.860761412490646, -0.925781163795893 ], [ 119.860495903155339, -0.925811144610763 ], [ 119.859964399494856, -0.925858913705012 ], [ 119.85992992928152, -0.925523278036078 ], [ 119.859882913150756, -0.925536226368132 ], [ 119.859155982381523, -0.925932728038482 ], [ 119.859061013817737, -0.925975839029334 ], [ 119.858987408478399, -0.926003392670374 ], [ 119.8588805510946, -0.926029777943916 ], [ 119.858501764547739, -0.926077901058675 ], [ 119.858062450727871, -0.926172693361605 ], [ 119.857887686488112, -0.926224715057143 ], [ 119.857664509497482, -0.926325308750998 ], [ 119.857608244634832, -0.926355956335848 ], [ 119.857561719131638, -0.926388508628445 ], [ 119.857215218829467, -0.926714891482609 ], [ 119.857110047783706, -0.926771160100013 ], [ 119.857071556612098, -0.92678846875264 ], [ 119.857074427210236, -0.926665939307972 ], [ 119.85706419031041, -0.926487835040921 ], [ 119.857024078864825, -0.925929383043892 ], [ 119.856965685687655, -0.925081901362542 ], [ 119.856935097974812, -0.924700259147007 ], [ 119.857295576009847, -0.924626092016629 ], [ 119.857695970165807, -0.924570540551287 ], [ 119.858556062105635, -0.924529475915505 ] ] } },
{ "type": "Feature", "properties": { "Id": 0, "Nama_Jalan": null, "Armada": 1.0, "kelurahan": "Palupi" }, "geometry": { "type": "MultiLineString", "coordinates": [ [ [ 119.858531947528661, -0.927124059461478 ], [ 119.858252973924166, -0.92717219143877 ], [ 119.858091486940722, -0.927195274163884 ], [ 119.85803447888766, -0.92718767005688 ], [ 119.857927647006136, -0.92690487003255 ] ], [ [ 119.860059130178428, -0.926910606705858 ], [ 119.859637942729606, -0.926951114226286 ], [ 119.858821014449845, -0.92707418604832 ], [ 119.858531947528661, -0.927124059461478 ] ], [ [ 119.857927647006136, -0.92690487003255 ], [ 119.858463506988684, -0.926796256363256 ], [ 119.858531947528661, -0.927124059461478 ] ], [ [ 119.857927647006136, -0.92690487003255 ], [ 119.857702278503965, -0.92630828493539 ] ] ] } },
{ "type": "Feature", "properties": { "Id": 0, "Nama_Jalan": null, "Armada": 2.0, "kelurahan": "Palupi" }, "geometry": { "type": "LineString", "coordinates": [ [ 119.861666433271338, -0.929658263543638 ], [ 119.86159693826518, -0.928705304761729 ], [ 119.861295830077012, -0.928724688533818 ], [ 119.861372901843211, -0.929692930171807 ], [ 119.861103110299709, -0.929714189133362 ], [ 119.861021631087453, -0.92874234001402 ], [ 119.860754499407619, -0.928767006869823 ], [ 119.860829520109206, -0.929737363796699 ], [ 119.860572554227829, -0.929759090421982 ], [ 119.860478155937798, -0.928793053665467 ], [ 119.860213921945402, -0.928817959065702 ], [ 119.860301813995974, -0.929782262739462 ], [ 119.860032498743109, -0.929805433884033 ], [ 119.85994255138597, -0.928842223166196 ], [ 119.859672329773034, -0.92886638452029 ], [ 119.859766272950225, -0.929830993265037 ], [ 119.859488407281944, -0.929854171367423 ], [ 119.859403135522072, -0.928890453999443 ] ] } },
{ "type": "Feature", "properties": { "Id": 0, "Nama_Jalan": null, "Armada": 1.0, "kelurahan": "Palupi" }, "geometry": { "type": "LineString", "coordinates": [ [ 119.860059130178428, -0.926910606705858 ], [ 119.860104409302636, -0.927523508068927 ], [ 119.859215629542078, -0.92763958607612 ], [ 119.859177382523285, -0.927333598838093 ], [ 119.859733083314438, -0.927249469788485 ], [ 119.859828606882999, -0.927897289949796 ], [ 119.85994255138597, -0.928842223166196 ], [ 119.860213921945402, -0.928817959065702 ] ] } },
{ "type": "Feature", "properties": { "Id": 0, "Nama_Jalan": null, "Armada": 1.0, "kelurahan": "Palupi" }, "geometry": { "type": "LineString", "coordinates": [ [ 119.859830053732992, -0.927909288612192 ], [ 119.859263543069488, -0.928004497861168 ], [ 119.85920638444702, -0.927809457698637 ], [ 119.859162205695341, -0.927806624741169 ], [ 119.858941378752391, -0.927875658648915 ], [ 119.859041518227386, -0.9283561216527 ], [ 119.859315074185389, -0.928289913624626 ], [ 119.859403135522072, -0.928890453999443 ] ] } },
{ "type": "Feature", "properties": { "Id": 0, "Nama_Jalan": null, "Armada": 1.0, "kelurahan": "Palupi" }, "geometry": { "type": "LineString", "coordinates": [ [ 119.858621189401916, -0.927108662347124 ], [ 119.858672431541564, -0.927913771276137 ], [ 119.858759134429633, -0.928946994823326 ] ] } },
{ "type": "Feature", "properties": { "Id": 0, "Nama_Jalan": null, "Armada": 1.0, "kelurahan": "Palupi" }, "geometry": { "type": "LineString", "coordinates": [ [ 119.858672431541564, -0.927913771276137 ], [ 119.857265296774344, -0.92803989406302 ], [ 119.857224351570181, -0.928071007424785 ], [ 119.857260419542925, -0.928620855752374 ] ] } },
{ "type": "Feature", "properties": { "Id": 0, "Nama_Jalan": null, "Armada": 1.0, "kelurahan": "Palupi" }, "geometry": { "type": "LineString", "coordinates": [ [ 119.857233740419233, -0.928214138769911 ], [ 119.856971356350527, -0.928305987209574 ], [ 119.857027883659256, -0.929105429073695 ] ] } },
{ "type": "Feature", "properties": { "Id": 0, "Nama_Jalan": null, "Armada": 1.0, "kelurahan": "Palupi" }, "geometry": { "type": "MultiLineString", "coordinates": [ [ [ 119.858108292053515, -0.929004233765865 ], [ 119.858079301283098, -0.928673323774032 ] ], [ [ 119.858079301283098, -0.928673323774032 ], [ 119.858024073524518, -0.92797188425493 ] ], [ [ 119.858079301283098, -0.928673323774032 ], [ 119.858418440839685, -0.928645792743841 ], [ 119.858354484276632, -0.927942269219188 ], [ 119.858282115430953, -0.927167163586053 ] ], [ [ 119.857766794944808, -0.927994944367341 ], [ 119.857817366748179, -0.928692348500311 ], [ 119.858079301283098, -0.928673323774032 ] ] ] } },
{ "type": "Feature", "properties": { "Id": 0, "Nama_Jalan": null, "Armada": 1.0, "kelurahan": "Palupi" }, "geometry": { "type": "MultiLineString", "coordinates": [ [ [ 119.857950035859062, -0.927525709523813 ], [ 119.857856559537453, -0.927292683603785 ] ], [ [ 119.857856559537453, -0.927292683603785 ], [ 119.857808643204876, -0.927320965318159 ], [ 119.857683073192504, -0.927114504766661 ], [ 119.85730241154296, -0.926632761078999 ] ], [ [ 119.85803447888766, -0.92718767005688 ], [ 119.857856559537453, -0.927292683603785 ] ] ] } },
{ "type": "Feature", "properties": { "Id": 0, "Nama_Jalan": null, "Armada": 1.0, "kelurahan": "Palupi" }, "geometry": { "type": "LineString", "coordinates": [ [ 119.857521611459418, -0.928463240621475 ], [ 119.857490958856062, -0.928019667790601 ], [ 119.857469957657344, -0.928021550145248 ], [ 119.857336419738672, -0.927656714917053 ], [ 119.857019760360473, -0.926876193955541 ] ] } },
{ "type": "Feature", "properties": { "Id": 0, "Nama_Jalan": null, "Armada": 1.0, "kelurahan": "Palupi" }, "geometry": { "type": "LineString", "coordinates": [ [ 119.857766794944808, -0.927994944367341 ], [ 119.857556289276928, -0.927430129966297 ], [ 119.857172399096982, -0.926890366599617 ], [ 119.857051654393118, -0.926954808358998 ] ] } },
{ "type": "Feature", "properties": { "Id": 0, "Nama_Jalan": null, "Armada": 2.0, "kelurahan": "Palupi" }, "geometry": { "type": "LineString", "coordinates": [ [ 119.859488407281944, -0.929854171367423 ], [ 119.858516291628703, -0.929934182594648 ], [ 119.858493227597123, -0.929607144084729 ], [ 119.85918289839779, -0.929541552719873 ], [ 119.859164140738301, -0.929253241336035 ], [ 119.858139122814364, -0.929336797584295 ], [ 119.858200667623834, -0.929964563758469 ], [ 119.857865330731542, -0.929995439142919 ], [ 119.857812332009274, -0.929362406117583 ], [ 119.857271485069262, -0.929410662339854 ], [ 119.857302564034143, -0.929662863501938 ], [ 119.856828776236, -0.929714651312119 ], [ 119.856860357007207, -0.93000008390762 ] ] } },
{ "type": "Feature", "properties": { "Id": 0, "Nama_Jalan": null, "Armada": 1.0, "kelurahan": "Palupi" }, "geometry": { "type": "LineString", "coordinates": [ [ 119.857024287184004, -0.926270942855008 ], [ 119.856215020829779, -0.926359786875267 ], [ 119.856141224573889, -0.928222260416355 ] ] } },
{ "type": "Feature", "properties": { "Id": 0, "Nama_Jalan": null, "Armada": 1.0, "kelurahan": "Palupi" }, "geometry": { "type": "LineString", "coordinates": [ [ 119.860322742780255, -0.926884571963846 ], [ 119.861438881631926, -0.926790910045158 ] ] } },
{ "type": "Feature", "properties": { "Id": 0, "Nama_Jalan": null, "Armada": 1.0, "kelurahan": "Palupi" }, "geometry": { "type": "LineString", "coordinates": [ [ 119.858556062105635, -0.924529475915505 ], [ 119.858512331895255, -0.924757929917051 ], [ 119.858455874199706, -0.925437432560861 ], [ 119.858443864047629, -0.92586204307309 ], [ 119.858452011368456, -0.925951929409714 ], [ 119.858478636325756, -0.926082891517785 ] ] } },
{ "type": "Feature", "properties": { "Id": 0, "Nama_Jalan": null, "Armada": 1.0, "kelurahan": "Palupi" }, "geometry": { "type": "LineString", "coordinates": [ [ 119.864552181283514, -0.926582552155236 ], [ 119.864481090758034, -0.926783433679554 ], [ 119.864407530987492, -0.926867170120373 ], [ 119.864329199934971, -0.926924612123341 ], [ 119.863258286631492, -0.927226720255201 ], [ 119.86233933832689, -0.927480889583129 ], [ 119.862202123610459, -0.927561091899588 ], [ 119.862141380222354, -0.927633820561123 ], [ 119.862118644131414, -0.927714168699897 ], [ 119.862114927076533, -0.927817452661597 ], [ 119.86219125756584, -0.928668023638556 ], [ 119.862332677467677, -0.930269718729428 ], [ 119.862432157454478, -0.931402858456939 ], [ 119.862489561825484, -0.931901285265817 ], [ 119.861898735327173, -0.932089124979529 ] ] } },
{ "type": "Feature", "properties": { "Id": 0, "Nama_Jalan": null, "Armada": 1.0, "kelurahan": "Palupi" }, "geometry": { "type": "LineString", "coordinates": [ [ 119.856181533504113, -0.927204932494804 ], [ 119.855680604869846, -0.927233842126045 ], [ 119.85413415542277, -0.927641132364604 ], [ 119.854212776843909, -0.927944697405301 ], [ 119.855087272580164, -0.927702730095574 ], [ 119.855499321923574, -0.927598423413752 ], [ 119.85567413739598, -0.927609757036702 ], [ 119.855822310463992, -0.927569471554962 ] ] } },
{ "type": "Feature", "properties": { "Id": 0, "Nama_Jalan": null, "Armada": 1.0, "kelurahan": "Palupi" }, "geometry": { "type": "LineString", "coordinates": [ [ 119.854221921855981, -0.927942167039893 ], [ 119.854313007317273, -0.928686713643251 ], [ 119.854415240989354, -0.929408645575834 ], [ 119.854670165295246, -0.92920904714976 ], [ 119.854562206181896, -0.928455561752353 ], [ 119.854522051439488, -0.928140011682001 ], [ 119.855149418591438, -0.927976450567852 ], [ 119.855068650368793, -0.927707882741469 ] ] } },
{ "type": "Feature", "properties": { "Id": 0, "Nama_Jalan": null, "Armada": 1.0, "kelurahan": "Palupi" }, "geometry": { "type": "LineString", "coordinates": [ [ 119.85499111066909, -0.927415435060515 ], [ 119.854915280992429, -0.927145487155707 ], [ 119.85494324798124, -0.927071828495447 ], [ 119.854864686595192, -0.926249942982539 ], [ 119.854619612182631, -0.926293175851377 ], [ 119.854525092909483, -0.925711337117385 ], [ 119.854042827392774, -0.926151631544322 ], [ 119.854569030256869, -0.926005845359128 ] ] } },
{ "type": "Feature", "properties": { "Id": 0, "Nama_Jalan": null, "Armada": 1.0, "kelurahan": "Palupi" }, "geometry": { "type": "LineString", "coordinates": [ [ 119.854619612182631, -0.926293175851377 ], [ 119.853836252427399, -0.926520457333241 ], [ 119.853028881846967, -0.926720503525891 ], [ 119.853109393867427, -0.927012591665376 ], [ 119.853921518025757, -0.926816844806734 ], [ 119.854891780965133, -0.926533396844429 ] ] } },
{ "type": "Feature", "properties": { "Id": 0, "Nama_Jalan": null, "Armada": 1.0, "kelurahan": "Palupi" }, "geometry": { "type": "LineString", "coordinates": [ [ 119.853109393867427, -0.927012591665376 ], [ 119.853174923458155, -0.927280425498072 ], [ 119.853997307579618, -0.927084191958744 ], [ 119.854919225557182, -0.92682051383961 ] ] } },
{ "type": "Feature", "properties": { "Id": 0, "Nama_Jalan": null, "Armada": 1.0, "kelurahan": "Palupi" }, "geometry": { "type": "MultiLineString", "coordinates": [ [ [ 119.85413415542277, -0.927641132364604 ], [ 119.854048641435085, -0.927359415794531 ] ], [ [ 119.854048641435085, -0.927359415794531 ], [ 119.85406853923628, -0.927354292171403 ], [ 119.854925901804961, -0.927117514360234 ] ], [ [ 119.853174923458155, -0.927280425498072 ], [ 119.853252626512614, -0.927564387182952 ], [ 119.854048641435085, -0.927359415794531 ] ] ] } },
{ "type": "Feature", "properties": { "Id": 0, "Nama_Jalan": null, "Armada": 1.0, "kelurahan": "Palupi" }, "geometry": { "type": "LineString", "coordinates": [ [ 119.853252626512614, -0.927564387182952 ], [ 119.853317235752755, -0.927869069603594 ], [ 119.853366867702448, -0.928155922959971 ], [ 119.853648027710463, -0.928092577850633 ], [ 119.854209843253727, -0.927933370531885 ] ] } },
{ "type": "Feature", "properties": { "Id": 0, "Nama_Jalan": null, "Armada": 1.0, "kelurahan": "Palupi" }, "geometry": { "type": "MultiLineString", "coordinates": [ [ [ 119.85992992928152, -0.925523278036078 ], [ 119.85990505063306, -0.925159582337196 ], [ 119.859840919787842, -0.92515485287372 ], [ 119.859807663953035, -0.925148902957054 ], [ 119.859785083502018, -0.925127404385172 ], [ 119.859775075431259, -0.925086530390217 ], [ 119.859767908832197, -0.925034895634972 ], [ 119.859769108654547, -0.924753740427863 ], [ 119.859794518223225, -0.924452483134358 ], [ 119.859810177534982, -0.924404812004266 ] ], [ [ 119.859810177534982, -0.924404812004266 ], [ 119.859823897553312, -0.924363044606189 ], [ 119.859894874445743, -0.923716774955736 ] ], [ [ 119.859579740793464, -0.923683125946565 ], [ 119.859513225562708, -0.924347995705876 ], [ 119.859541747129995, -0.924373792862944 ], [ 119.859810177534982, -0.924404812004266 ] ] ] } },
{ "type": "Feature", "properties": { "Id": 0, "Nama_Jalan": null, "Armada": 1.0, "kelurahan": "Palupi" }, "geometry": { "type": "MultiLineString", "coordinates": [ [ [ 119.861875038092109, -0.928685054753347 ], [ 119.86159693826518, -0.928705304761729 ] ], [ [ 119.861875038092109, -0.928685054753347 ], [ 119.862170405974553, -0.928657049092676 ] ], [ [ 119.862141380222326, -0.92763382056114 ], [ 119.861781617834922, -0.927700136577324 ], [ 119.861875038092109, -0.928685054753347 ] ] ] } },
{ "type": "Feature", "properties": { "Id": 0, "Nama_Jalan": null, "Armada": 2.0, "kelurahan": "Palupi" }, "geometry": { "type": "LineString", "coordinates": [ [ 119.853953537486191, -0.928006002476482 ], [ 119.854046345086289, -0.928752109169096 ], [ 119.854166285831326, -0.929637556138909 ], [ 119.854289096835231, -0.929513175491384 ], [ 119.854415240989354, -0.929408645575817 ] ] } },
{ "type": "Feature", "properties": { "Id": 0, "Nama_Jalan": null, "Armada": 2.0, "kelurahan": "Palupi" }, "geometry": { "type": "LineString", "coordinates": [ [ 119.85365946554505, -0.928089336596665 ], [ 119.853887171760235, -0.929882280451521 ], [ 119.854166285831326, -0.929637556138909 ] ] } },
{ "type": "Feature", "properties": { "Id": 0, "Nama_Jalan": null, "Armada": 2.0, "kelurahan": "Palupi" }, "geometry": { "type": "LineString", "coordinates": [ [ 119.853366867702448, -0.928155922959971 ], [ 119.85346530315789, -0.928930137055727 ], [ 119.853562787479149, -0.929653029704835 ], [ 119.853608736593856, -0.930085245348205 ], [ 119.853887171760235, -0.929882280451521 ] ] } },
{ "type": "Feature", "properties": { "Id": 0, "Nama_Jalan": null, "Armada": 2.0, "kelurahan": "Palupi" }, "geometry": { "type": "LineString", "coordinates": [ [ 119.853366867702448, -0.928155922959971 ], [ 119.853094978248308, -0.928204278314369 ], [ 119.853167878106802, -0.928777050216154 ], [ 119.8532715813149, -0.929554447817382 ], [ 119.853325098766348, -0.929946970455691 ], [ 119.853430974802151, -0.930176399171353 ], [ 119.853608736593856, -0.930085245348205 ] ] } },
{ "type": "Feature", "properties": { "Id": 0, "Nama_Jalan": null, "Armada": 2.0, "kelurahan": "Palupi" }, "geometry": { "type": "LineString", "coordinates": [ [ 119.853325098766348, -0.929946970455691 ], [ 119.853037695713965, -0.93002462593784 ], [ 119.852431170773571, -0.930412426536506 ] ] } },
{ "type": "Feature", "properties": { "Id": 0, "Nama_Jalan": null, "Armada": 2.0, "kelurahan": "Palupi" }, "geometry": { "type": "LineString", "coordinates": [ [ 119.852961374023792, -0.930073424580544 ], [ 119.853052678778184, -0.930344978432507 ], [ 119.853083199320807, -0.930493421086952 ], [ 119.853076661330121, -0.930633048038436 ], [ 119.853215909479673, -0.931307612961347 ], [ 119.853248435115134, -0.931586351489596 ], [ 119.853269465854567, -0.931747712041443 ], [ 119.853269505317471, -0.931796723016365 ], [ 119.853261206930895, -0.931814660643218 ], [ 119.853231533671462, -0.931833811100554 ], [ 119.852630311297489, -0.932022217064352 ], [ 119.85262035553788, -0.932046611165529 ], [ 119.852621807161995, -0.932079602775319 ], [ 119.852703224854892, -0.932314789292788 ], [ 119.853320118179951, -0.932120632510678 ] ] } },
{ "type": "Feature", "properties": { "Id": 0, "Nama_Jalan": null, "Armada": 2.0, "kelurahan": "Palupi" }, "geometry": { "type": "LineString", "coordinates": [ [ 119.853215909479673, -0.931307612961347 ], [ 119.853454157444276, -0.931192422137909 ], [ 119.853568136456616, -0.931160770898534 ], [ 119.853601060498036, -0.931344355967183 ], [ 119.853927305686426, -0.93122933245983 ], [ 119.853927180999477, -0.931074410052202 ], [ 119.853838479073474, -0.930641273108364 ], [ 119.853855533574716, -0.930583880497511 ], [ 119.853792473024029, -0.930138529621895 ], [ 119.853757588056183, -0.9299767402944 ] ] } },
{ "type": "Feature", "properties": { "Id": 0, "Nama_Jalan": null, "Armada": 2.0, "kelurahan": "Palupi" }, "geometry": { "type": "MultiLineString", "coordinates": [ [ [ 119.854201318919579, -0.931188545423722 ], [ 119.854237210898575, -0.931518443625958 ] ], [ [ 119.854201318919579, -0.931188545423722 ], [ 119.854171491743429, -0.931016433666277 ] ], [ [ 119.854688870216435, -0.93112024964563 ], [ 119.854201318919579, -0.931188545423722 ] ], [ [ 119.854688870216435, -0.93112024964563 ], [ 119.854725891029673, -0.9313772280605 ] ], [ [ 119.854415240989354, -0.929408645575817 ], [ 119.854422667591862, -0.929552116120771 ], [ 119.854479349778671, -0.929892755878374 ], [ 119.854548399395242, -0.930106674279638 ], [ 119.854649196654236, -0.93081330611734 ], [ 119.854688870216435, -0.93112024964563 ] ] ] } },
{ "type": "Feature", "properties": { "Id": 0, "Nama_Jalan": null, "Armada": 2.0, "kelurahan": "Palupi" }, "geometry": { "type": "MultiLineString", "coordinates": [ [ [ 119.854957092295635, -0.93298077282118 ], [ 119.854968660540266, -0.933188760987312 ], [ 119.854992607271797, -0.933431405295829 ] ], [ [ 119.854957092295635, -0.93298077282118 ], [ 119.855222577183639, -0.932918395609216 ], [ 119.855256931120834, -0.932813173354274 ] ], [ [ 119.854725891029673, -0.9313772280605 ], [ 119.854759673517549, -0.931447011205723 ], [ 119.854790109319339, -0.931490020367809 ], [ 119.85484433221788, -0.931577956732587 ], [ 119.854870020156753, -0.931623838695347 ], [ 119.854889055536418, -0.931666857152959 ], [ 119.854904310805537, -0.931734742779711 ], [ 119.854910053394164, -0.931787335194915 ], [ 119.85493492307485, -0.931996746988378 ], [ 119.85489051726411, -0.932301846447889 ], [ 119.854880608956819, -0.932385053596292 ], [ 119.854891244403163, -0.932614559542229 ], [ 119.854890344493072, -0.932676720490764 ], [ 119.854893240874105, -0.932734096782325 ], [ 119.854957092295635, -0.93298077282118 ] ] ] } },
{ "type": "Feature", "properties": { "Id": 0, "Nama_Jalan": null, "Armada": 2.0, "kelurahan": "Palupi" }, "geometry": { "type": "LineString", "coordinates": [ [ 119.855987578097327, -0.93331330925089 ], [ 119.85530621425923, -0.933401861800291 ], [ 119.854992607271797, -0.933431405295829 ], [ 119.854872795056124, -0.933445250246919 ], [ 119.85464412996285, -0.933515008875352 ], [ 119.854373464481398, -0.933632856511087 ], [ 119.854151198712231, -0.933686113566453 ], [ 119.853842018391973, -0.933756655316333 ], [ 119.853649694893363, -0.933829970453526 ], [ 119.853548551801666, -0.933874521675788 ], [ 119.85340611679969, -0.933962140720133 ], [ 119.85322238871565, -0.934091393139551 ], [ 119.853020164970133, -0.93425795690763 ], [ 119.852887617912558, -0.934384418131336 ], [ 119.852842425403253, -0.934305771087323 ], [ 119.852782270833444, -0.93393142385563 ] ] } },
{ "type": "Feature", "properties": { "Id": 0, "Nama_Jalan": null, "Armada": 2.0, "kelurahan": "Palupi" }, "geometry": { "type": "MultiLineString", "coordinates": [ [ [ 119.856621567100731, -0.931179159205302 ], [ 119.856936875153863, -0.931050756364719 ], [ 119.856896876668642, -0.930930294042583 ] ], [ [ 119.856344056957141, -0.931055065455808 ], [ 119.856334701432971, -0.931234859327612 ], [ 119.856359426980262, -0.93126544105691 ], [ 119.85639742989612, -0.931267322654458 ], [ 119.856621567100731, -0.931179159205302 ] ], [ [ 119.856344056957141, -0.931055065455808 ], [ 119.85635905110864, -0.930798762205949 ], [ 119.856395104668863, -0.930739441587433 ], [ 119.856512865785731, -0.930685792171647 ], [ 119.856664854292418, -0.930664629362222 ], [ 119.856621567100731, -0.931179159205302 ] ], [ [ 119.856045651256466, -0.931039133871464 ], [ 119.856344056957141, -0.931055065455808 ] ] ] } },
{ "type": "Feature", "properties": { "Id": 0, "Nama_Jalan": "Jl. Persatuan", "Armada": 2.0, "kelurahan": "Palupi" }, "geometry": { "type": "LineString", "coordinates": [ [ 119.856002888563339, -0.931793351663317 ], [ 119.8565282998225, -0.931712656866829 ], [ 119.857376102637247, -0.93158477524897 ], [ 119.857728049563121, -0.931534281535608 ], [ 119.857752297386966, -0.931561516521419 ], [ 119.857834427154032, -0.932090766184175 ] ] } },
{ "type": "Feature", "properties": { "Id": 0, "Nama_Jalan": "Jl. Paramedis Raya", "Armada": 2.0, "kelurahan": "Palupi" }, "geometry": { "type": "LineString", "coordinates": [ [ 119.861827489833175, -0.931308208273831 ], [ 119.860925748411603, -0.931396828662232 ], [ 119.859908811159798, -0.931485640307007 ], [ 119.859294185361435, -0.931541608536139 ], [ 119.859033418898505, -0.931563338590439 ], [ 119.858718517876298, -0.931606629802016 ], [ 119.85869430593101, -0.931623863129881 ], [ 119.858725924326947, -0.931955197928308 ], [ 119.857834427154032, -0.932090766184175 ] ] } },
{ "type": "Feature", "properties": { "Id": 0, "Nama_Jalan": null, "Armada": 2.0, "kelurahan": "Palupi" }, "geometry": { "type": "MultiLineString", "coordinates": [ [ [ 119.86151979235963, -0.931338447858961 ], [ 119.8614504198449, -0.930667025399765 ], [ 119.861409193417543, -0.930201816457187 ], [ 119.861372901843211, -0.929692930171807 ], [ 119.861667324575549, -0.929667388824513 ], [ 119.86173228484499, -0.930332880022658 ] ], [ [ 119.86173228484499, -0.930332880022658 ], [ 119.861827489833175, -0.931308208273815 ] ], [ [ 119.86173228484499, -0.930332880022658 ], [ 119.862332677467677, -0.930269718729445 ] ] ] } },
{ "type": "Feature", "properties": { "Id": 0, "Nama_Jalan": null, "Armada": 2.0, "kelurahan": "Palupi" }, "geometry": { "type": "LineString", "coordinates": [ [ 119.859766272950225, -0.929830993265037 ], [ 119.860032498743109, -0.929805433884033 ], [ 119.860301813995974, -0.929782262739462 ], [ 119.860572554227829, -0.929759090421982 ], [ 119.860829520109206, -0.929737363796699 ], [ 119.861103110299709, -0.929714189133362 ], [ 119.861134956072277, -0.930011353079864 ], [ 119.860303023464652, -0.930082201292425 ], [ 119.859797313693662, -0.930124956808686 ] ] } },
{ "type": "Feature", "properties": { "Id": 0, "Nama_Jalan": null, "Armada": 2.0, "kelurahan": "Palupi" }, "geometry": { "type": "LineString", "coordinates": [ [ 119.859766272950225, -0.929830993265037 ], [ 119.859793888127214, -0.930183507282453 ], [ 119.859824554211343, -0.93051245180389 ], [ 119.859888274480326, -0.931186117901855 ], [ 119.859917381225486, -0.931484891862904 ] ] } },
{ "type": "Feature", "properties": { "Id": 0, "Nama_Jalan": null, "Armada": 2.0, "kelurahan": "Palupi" }, "geometry": { "type": "LineString", "coordinates": [ [ 119.861134956072277, -0.930011353079864 ], [ 119.861161943347511, -0.930343426136716 ], [ 119.859818565748867, -0.930448215714301 ] ] } },
{ "type": "Feature", "properties": { "Id": 0, "Nama_Jalan": null, "Armada": 2.0, "kelurahan": "Palupi" }, "geometry": { "type": "LineString", "coordinates": [ [ 119.859851295850433, -0.930795171423298 ], [ 119.861189296995718, -0.930687912921133 ], [ 119.861222825755277, -0.931032155563799 ], [ 119.860298509172154, -0.931111328184907 ], [ 119.859884247078, -0.931143539361916 ] ] } },
{ "type": "Feature", "properties": { "Id": 0, "Nama_Jalan": null, "Armada": 2.0, "kelurahan": "Palupi" }, "geometry": { "type": "LineString", "coordinates": [ [ 119.859649843293099, -0.931509222100825 ], [ 119.859571861161044, -0.930678993817666 ], [ 119.859488407281944, -0.929854171367423 ] ] } },
{ "type": "Feature", "properties": { "Id": 0, "Nama_Jalan": null, "Armada": 2.0, "kelurahan": "Palupi" }, "geometry": { "type": "LineString", "coordinates": [ [ 119.859366911168109, -0.93200644748835 ], [ 119.859371562924423, -0.931884514513548 ], [ 119.859324779355234, -0.931538822628838 ], [ 119.859261368257066, -0.930887005148829 ], [ 119.859170504008688, -0.929880336827145 ] ] } },
{ "type": "Feature", "properties": { "Id": 0, "Nama_Jalan": null, "Armada": 2.0, "kelurahan": "Palupi" }, "geometry": { "type": "MultiLineString", "coordinates": [ [ [ 119.858649656099331, -0.93131676741613 ], [ 119.85869430593101, -0.931623863129881 ], [ 119.857785281673046, -0.931774069658828 ] ], [ [ 119.858620434946417, -0.931012685392308 ], [ 119.85789707055919, -0.931119426344742 ], [ 119.857938646753951, -0.931429236322576 ], [ 119.858649656099331, -0.93131676741613 ] ], [ [ 119.858620434946417, -0.931012685392308 ], [ 119.858649656099331, -0.93131676741613 ] ], [ [ 119.858200667623834, -0.929964563758469 ], [ 119.858516291628703, -0.929934182594648 ], [ 119.858620434946417, -0.931012685392308 ] ] ] } },
{ "type": "Feature", "properties": { "Id": 0, "Nama_Jalan": null, "Armada": 2.0, "kelurahan": "Palupi" }, "geometry": { "type": "LineString", "coordinates": [ [ 119.858846857185938, -0.929906974994953 ], [ 119.859011524449301, -0.931566348543859 ] ] } },
{ "type": "Feature", "properties": { "Id": 0, "Nama_Jalan": null, "Armada": 1.0, "kelurahan": "Palupi" }, "geometry": { "type": "LineString", "coordinates": [ [ 119.859830053732992, -0.927909288612175 ], [ 119.860679736123544, -0.927826896374757 ], [ 119.86152210893836, -0.927736429308521 ] ] } },
{ "type": "Feature", "properties": { "Id": 0, "Nama_Jalan": null, "Armada": 2.0, "kelurahan": "Palupi" }, "geometry": { "type": "LineString", "coordinates": [ [ 119.861827489833175, -0.931308208273815 ], [ 119.861898735327173, -0.932089124979546 ], [ 119.861615115056367, -0.932191442735983 ], [ 119.861584951566542, -0.931897403529223 ], [ 119.86153256732851, -0.931337192373711 ] ] } },
{ "type": "Feature", "properties": { "Id": 0, "Nama_Jalan": null, "Armada": 2.0, "kelurahan": "Palupi" }, "geometry": { "type": "LineString", "coordinates": [ [ 119.861262345901835, -0.931363748910036 ], [ 119.86132116458883, -0.93195524038641 ], [ 119.861588207374595, -0.931929141778424 ] ] } },
{ "type": "Feature", "properties": { "Id": 0, "Nama_Jalan": null, "Armada": 2.0, "kelurahan": "Palupi" }, "geometry": { "type": "MultiLineString", "coordinates": [ [ [ 119.860999605882753, -0.931988496062444 ], [ 119.861050890762897, -0.932359739828541 ] ], [ [ 119.860999605882753, -0.931988496062444 ], [ 119.86132116458883, -0.93195524038641 ] ], [ [ 119.860935315420676, -0.931395888446717 ], [ 119.860999605882753, -0.931988496062444 ] ] ] } },
{ "type": "Feature", "properties": { "Id": 0, "Nama_Jalan": null, "Armada": 2.0, "kelurahan": "Palupi" }, "geometry": { "type": "LineString", "coordinates": [ [ 119.860616696671002, -0.931423818938274 ], [ 119.860674960445323, -0.932022949635794 ], [ 119.860999605882753, -0.931988496062444 ] ] } },
{ "type": "Feature", "properties": { "Id": 0, "Nama_Jalan": null, "Armada": 2.0, "kelurahan": "Palupi" }, "geometry": { "type": "LineString", "coordinates": [ [ 119.860292542831687, -0.931452128097165 ], [ 119.860362117695061, -0.932065522146572 ], [ 119.860674960445323, -0.932022949635777 ] ] } },
{ "type": "Feature", "properties": { "Id": 0, "Nama_Jalan": null, "Armada": 2.0, "kelurahan": "Palupi" }, "geometry": { "type": "LineString", "coordinates": [ [ 119.859972442086359, -0.931480083267327 ], [ 119.86003295845002, -0.932098784011013 ], [ 119.860362117695061, -0.932065522146572 ] ] } },
{ "type": "Feature", "properties": { "Id": 0, "Nama_Jalan": null, "Armada": 2.0, "kelurahan": "Palupi" }, "geometry": { "type": "MultiLineString", "coordinates": [ [ [ 119.860609714651801, -0.932461165298158 ], [ 119.860637500116042, -0.932584834060224 ], [ 119.86071452913896, -0.932679445300257 ], [ 119.860818792896865, -0.932970555106822 ] ], [ [ 119.860609714651801, -0.932461165298158 ], [ 119.859986369704131, -0.932582139531608 ], [ 119.859128162464913, -0.932764540270866 ], [ 119.859093254401202, -0.932477437527492 ], [ 119.858793548853654, -0.932514500563133 ], [ 119.858725924326947, -0.931955197928308 ] ], [ [ 119.861615115056367, -0.932191442735983 ], [ 119.860938150419543, -0.932394880727399 ], [ 119.86076574877346, -0.932430883327783 ], [ 119.860609714651801, -0.932461165298158 ] ] ] } },
{ "type": "Feature", "properties": { "Id": 0, "Nama_Jalan": null, "Armada": 2.0, "kelurahan": "Palupi" }, "geometry": { "type": "LineString", "coordinates": [ [ 119.858793548853654, -0.932514500563133 ], [ 119.857913687447848, -0.932647429899505 ], [ 119.857834427154032, -0.932090766184175 ] ] } },
{ "type": "Feature", "properties": { "Id": 0, "Nama_Jalan": null, "Armada": 2.0, "kelurahan": "Palupi" }, "geometry": { "type": "LineString", "coordinates": [ [ 119.856737241208705, -0.926807851626574 ], [ 119.856725936471918, -0.926630943561611 ], [ 119.856661748880256, -0.92655568632897 ], [ 119.856629496065068, -0.926314284386301 ], [ 119.856205490815782, -0.926358219796716 ], [ 119.856253704298922, -0.924769630924176 ] ] } },
{ "type": "Feature", "properties": { "Id": 0, "Nama_Jalan": null, "Armada": 2.0, "kelurahan": "Palupi" }, "geometry": { "type": "LineString", "coordinates": [ [ 119.859128162464913, -0.932764540270866 ], [ 119.857987674595449, -0.93298972777961 ], [ 119.857181224818959, -0.933150091195906 ], [ 119.855987410224287, -0.933329771965842 ] ] } },
{ "type": "Feature", "properties": { "Id": 0, "Nama_Jalan": null, "Armada": 1.0, "kelurahan": "Palupi" }, "geometry": { "type": "LineString", "coordinates": [ [ 119.857074472470927, -0.924209242753773 ], [ 119.85706270661754, -0.923752136495727 ], [ 119.857376200250471, -0.923730843782752 ], [ 119.857397475626897, -0.924199417914878 ], [ 119.856926278189277, -0.924222751165303 ] ] } },
{ "type": "Feature", "properties": { "Id": 0, "Nama_Jalan": null, "Armada": 2.0, "kelurahan": "Palupi" }, "geometry": { "type": "MultiLineString", "coordinates": [ [ [ 119.856633674552896, -0.929453700571754 ], [ 119.857054085477202, -0.929425332058352 ] ], [ [ 119.857054085477202, -0.929425332058352 ], [ 119.857271485069262, -0.929410662339854 ], [ 119.857812332009274, -0.929362406117566 ], [ 119.858139122814364, -0.929336797584295 ], [ 119.859164140738301, -0.929253241336035 ], [ 119.85913792955516, -0.928913760822602 ] ], [ [ 119.857027883659256, -0.929105429073695 ], [ 119.857054085477202, -0.929425332058352 ] ] ] } }
]
}
