{
"type": "FeatureCollection",
"name": "PANAU",
"crs": { "type": "name", "properties": { "name": "urn:ogc:def:crs:OGC:1.3:CRS84" } },
"features": [
{ "type": "Feature", "properties": { "Id": 0, "Nama_Jalan": "Jl. Yodo", "Armada": null, "kelurahan": "PANAU" }, "geometry": { "type": "LineString", "coordinates": [ [ 119.86333818697959, -0.732553428999894 ], [ 119.862363020492808, -0.732439678826846 ], [ 119.861660472286488, -0.732382752438076 ], [ 119.859853451465668, -0.732142924853748 ], [ 119.859051104637388, -0.73200907905446 ], [ 119.858709079254908, -0.731960526986676 ], [ 119.858167517822963, -0.731850421043115 ], [ 119.85784827459284, -0.731774599386553 ], [ 119.857561798529062, -0.731687280924937 ], [ 119.857289595811338, -0.731637249322316 ], [ 119.856984618515483, -0.731587238702629 ], [ 119.856602638688145, -0.731452643960289 ], [ 119.856430183462649, -0.731401113781315 ], [ 119.856363206685089, -0.731396853326939 ] ] } },
{ "type": "Feature", "properties": { "Id": 0, "Nama_Jalan": "Jl. Gerima", "Armada": null, "kelurahan": "PANAU" }, "geometry": { "type": "LineString", "coordinates": [ [ 119.86238575348726, -0.732442330564391 ], [ 119.86229229064547, -0.733256373366376 ], [ 119.862217184229777, -0.733912447354233 ], [ 119.862185085638046, -0.734228048889101 ], [ 119.862067404769761, -0.735157653904229 ], [ 119.862014473938373, -0.735578462600171 ] ] } },
{ "type": "Feature", "properties": { "Id": 0, "Nama_Jalan": "Jl. Labu Lembah", "Armada": null, "kelurahan": "PANAU" }, "geometry": { "type": "LineString", "coordinates": [ [ 119.863162281059161, -0.734240807986739 ], [ 119.862193622937994, -0.734144107900811 ], [ 119.861348962625598, -0.734085978887637 ] ] } },
{ "type": "Feature", "properties": { "Id": 0, "Nama_Jalan": "Jl. Arajana", "Armada": null, "kelurahan": "PANAU" }, "geometry": { "type": "LineString", "coordinates": [ [ 119.861348962625598, -0.734085978887637 ], [ 119.861228682644153, -0.734664143630982 ], [ 119.861099357047152, -0.735209321757811 ], [ 119.861062500545088, -0.735512016564298 ] ] } },
{ "type": "Feature", "properties": { "Id": 0, "Nama_Jalan": "Jl. Lovengau", "Armada": null, "kelurahan": "PANAU" }, "geometry": { "type": "LineString", "coordinates": [ [ 119.863067772057249, -0.735660382779649 ], [ 119.862014473938373, -0.735578462600171 ], [ 119.861276498343059, -0.735533873401573 ], [ 119.861005735673373, -0.73550679353752 ], [ 119.860383928271972, -0.735439775406904 ], [ 119.860052615169678, -0.735430426216545 ], [ 119.859986129966416, -0.735451986050396 ], [ 119.859908971901447, -0.735496265078175 ], [ 119.85973822273435, -0.735699351595255 ] ] } },
{ "type": "Feature", "properties": { "Id": 0, "Nama_Jalan": "Jl. DS. Lamangkona", "Armada": null, "kelurahan": "PANAU" }, "geometry": { "type": "LineString", "coordinates": [ [ 119.863366506594318, -0.74009979413057 ], [ 119.863146844091062, -0.740092804235644 ], [ 119.862675897229025, -0.740104347058484 ], [ 119.862424171594654, -0.740135590651359 ], [ 119.861490670401253, -0.740284903106797 ], [ 119.861054671725896, -0.740354040598492 ], [ 119.860859467356008, -0.740381422229995 ], [ 119.860632905166256, -0.740395914102776 ], [ 119.860480444530239, -0.740414661186898 ], [ 119.860386407962849, -0.74043337029638 ], [ 119.860159867143423, -0.740481332901381 ], [ 119.859965149258997, -0.740526884061217 ], [ 119.859867787236581, -0.740544878108167 ], [ 119.859722929751896, -0.74056887994846 ], [ 119.859610125837335, -0.740579711725914 ], [ 119.859218261969986, -0.740588334089864 ], [ 119.859027072634888, -0.74058128601911 ], [ 119.858919005551215, -0.740571793157163 ], [ 119.858592415480729, -0.740521799153403 ], [ 119.858451093456793, -0.740503960173284 ], [ 119.857910755388787, -0.740452909529453 ], [ 119.857512937436113, -0.740436432453133 ], [ 119.857362129196503, -0.740440116536143 ], [ 119.857156704294241, -0.740455789947753 ], [ 119.856784568691992, -0.740490697788482 ], [ 119.855942466325914, -0.740588788113539 ], [ 119.855620694133833, -0.740646136552851 ], [ 119.854975983718262, -0.7407947832764 ], [ 119.854841819094389, -0.74082834126648 ], [ 119.854417638686101, -0.74087093904061 ] ] } },
{ "type": "Feature", "properties": { "Id": 0, "Nama_Jalan": "Jl. Vatu Pondolu", "Armada": null, "kelurahan": "PANAU" }, "geometry": { "type": "LineString", "coordinates": [ [ 119.863793730980461, -0.743335450146394 ], [ 119.863295529540778, -0.743436187582395 ], [ 119.863044759789474, -0.743476516201764 ], [ 119.862886598603765, -0.743493833008814 ], [ 119.862766191702235, -0.743499410415989 ], [ 119.862681886796977, -0.743509028535983 ], [ 119.86256196673132, -0.743533014497841 ], [ 119.86228296744855, -0.743624045751012 ], [ 119.862165430004495, -0.743659983985601 ], [ 119.862068071241509, -0.743682759840556 ], [ 119.861790220012935, -0.743712825888329 ], [ 119.861714221233839, -0.74371287552872 ], [ 119.861612562996996, -0.743697641030622 ], [ 119.861378813699631, -0.743615551357138 ], [ 119.86133320825499, -0.74360601807471 ], [ 119.86128570900074, -0.743606049090703 ], [ 119.86123916404307, -0.743612773627463 ], [ 119.86105014871724, -0.743662146829398 ], [ 119.861000753177095, -0.743667916922122 ], [ 119.860952305155266, -0.743669861169745 ], [ 119.860907649062739, -0.74365937095501 ], [ 119.860841137757475, -0.743640288248346 ], [ 119.860780324514039, -0.743618332898213 ], [ 119.860732803057246, -0.74358393687949 ], [ 119.860696670954752, -0.743533276206956 ], [ 119.860664326477149, -0.743463486922052 ], [ 119.860449551502143, -0.742973280682846 ], [ 119.860406741369417, -0.742878873283784 ], [ 119.860382976341896, -0.742854981105014 ], [ 119.860355659637349, -0.742847826615187 ], [ 119.860323599926559, -0.742851433672778 ], [ 119.860003100462592, -0.743039317980063 ], [ 119.859946126532321, -0.743078563741829 ], [ 119.859722071360821, -0.743298660618254 ], [ 119.859612874023625, -0.743378105391364 ], [ 119.859463785245453, -0.743470008205184 ], [ 119.859433388136793, -0.743473853268724 ], [ 119.859398227548795, -0.74345666266649 ], [ 119.859330958737601, -0.743367769913804 ], [ 119.859096708360028, -0.742876619403893 ], [ 119.859039632267368, -0.742757118083416 ], [ 119.859013485336121, -0.742722468950867 ], [ 119.858988537419876, -0.74270574981468 ], [ 119.858951722354831, -0.742700992264014 ], [ 119.858384155024126, -0.742779062165539 ], [ 119.85831766666854, -0.742795840891804 ], [ 119.858266623291485, -0.742824563415781 ], [ 119.858055331003115, -0.742949021260686 ], [ 119.858018528974128, -0.742964585264969 ], [ 119.857808394912695, -0.743043617707787 ], [ 119.857581626793845, -0.743108316368816 ], [ 119.857422524533888, -0.743140695498574 ], [ 119.857277895120674, -0.743150591922723 ], [ 119.857102644395056, -0.743185133276102 ], [ 119.856945924876584, -0.74322970381184 ], [ 119.856613974823645, -0.743340373945988 ], [ 119.856474492774026, -0.743414459353064 ], [ 119.856403261119169, -0.74344176062101 ], [ 119.856309223260695, -0.743459035494371 ], [ 119.856222299243584, -0.743459092142421 ], [ 119.855759167378068, -0.743440745871585 ], [ 119.855725678808071, -0.743459070771317 ] ] } },
{ "type": "Feature", "properties": { "Id": 0, "Nama_Jalan": "Jl. Datu Mpedagi", "Armada": null, "kelurahan": "PANAU" }, "geometry": { "type": "LineString", "coordinates": [ [ 119.863215420527098, -0.733493898544808 ], [ 119.86227297876556, -0.733425067341063 ], [ 119.861264051415432, -0.733328758527487 ] ] } },
{ "type": "Feature", "properties": { "Id": 0, "Nama_Jalan": "Bobona", "Armada": null, "kelurahan": "PANAU" }, "geometry": { "type": "LineString", "coordinates": [ [ 119.861348962625598, -0.734085978887637 ], [ 119.860840317679418, -0.734011356207675 ], [ 119.860802319861634, -0.734013771462024 ], [ 119.860732276823256, -0.734042505804247 ], [ 119.860670552218721, -0.734080797856499 ], [ 119.860623059880041, -0.734091586916249 ], [ 119.860550627426534, -0.734097610514725 ], [ 119.860250184400314, -0.734081068751862 ], [ 119.860181318163285, -0.734093066967963 ], [ 119.859937860414647, -0.734054971539986 ], [ 119.859827423985976, -0.734053847306585 ], [ 119.859789421573751, -0.734049090251818 ], [ 119.859753783481978, -0.734027596289839 ], [ 119.859482861654669, -0.733750441537761 ], [ 119.859761781039367, -0.733158307513518 ], [ 119.859766507430436, -0.733121247552232 ], [ 119.859743925573213, -0.733090182083832 ], [ 119.859102506285595, -0.732807288426518 ], [ 119.858969469748814, -0.732746409313999 ], [ 119.858932643430563, -0.732723720667629 ], [ 119.858912438053849, -0.732695044407417 ], [ 119.858902914698376, -0.732657993581367 ], [ 119.858904072606762, -0.732611372805486 ], [ 119.859008201792378, -0.732029153222292 ] ] } },
{ "type": "Feature", "properties": { "Id": 0, "Nama_Jalan": "Jl. Pue Garuda", "Armada": "R3", "kelurahan": "PANAU" }, "geometry": { "type": "LineString", "coordinates": [ [ 119.854417638686101, -0.74087093904061 ], [ 119.854406860428782, -0.740729053230395 ], [ 119.854414385648838, -0.740612378274015 ], [ 119.854454184834651, -0.740455517277607 ], [ 119.854607869012625, -0.740120708416597 ], [ 119.854674261845176, -0.73995426710345 ], [ 119.854710289273811, -0.739841398951881 ], [ 119.854759539510766, -0.739608026951858 ], [ 119.854903468508851, -0.738873486322233 ], [ 119.854929993684181, -0.73875679912914 ], [ 119.854948796821589, -0.738448854611431 ], [ 119.854960158837983, -0.73838955593918 ], [ 119.854992412073301, -0.738316855390966 ], [ 119.855001855803891, -0.738228868615222 ], [ 119.855003680096743, -0.738110284797826 ], [ 119.854994042293768, -0.737894164609135 ], [ 119.85495965236241, -0.737595817614599 ], [ 119.854961319422742, -0.737230505494703 ], [ 119.854982007092929, -0.7368976956901 ] ] } },
{ "type": "Feature", "properties": { "Id": 0, "Nama_Jalan": "Jl. Pacuan Kuda", "Armada": "R3", "kelurahan": "PANAU" }, "geometry": { "type": "LineString", "coordinates": [ [ 119.860959551806388, -0.740367383223411 ], [ 119.860950658163418, -0.740303509319511 ], [ 119.860927725134886, -0.740095527536585 ], [ 119.860937328501436, -0.739515999490202 ], [ 119.860931598264159, -0.739468666033353 ], [ 119.860893094481725, -0.739422788313011 ], [ 119.860843206507766, -0.739401303800022 ], [ 119.860747734891532, -0.739404234697664 ], [ 119.860365874072983, -0.739456123153587 ], [ 119.860172078956595, -0.739459117867526 ], [ 119.859691845745161, -0.73943504370555 ], [ 119.859512277336378, -0.739402167613281 ], [ 119.859411083649647, -0.739370675114154 ], [ 119.859361189190608, -0.739339149324968 ], [ 119.859344061895044, -0.739296126579216 ], [ 119.859380374383875, -0.738886803231897 ], [ 119.859376432502742, -0.738664942349468 ], [ 119.859338409832162, -0.738628627293316 ], [ 119.859271898600383, -0.73860954424258 ], [ 119.858918453711794, -0.738531356025092 ], [ 119.858808118595064, -0.738503296113209 ], [ 119.858310322110157, -0.738497880769924 ], [ 119.858236221938256, -0.738496016154593 ], [ 119.858023477502314, -0.738578396543303 ], [ 119.857936089721704, -0.738595666718236 ], [ 119.857801217259805, -0.738635919076765 ], [ 119.857168524552108, -0.738634416281912 ], [ 119.857107718017502, -0.738622979946368 ], [ 119.857060201527432, -0.738596234043863 ], [ 119.857035463960543, -0.738536958851199 ], [ 119.857014440807632, -0.738343797863867 ], [ 119.857021587606539, -0.737634211290334 ], [ 119.857004453654966, -0.737580669016568 ], [ 119.856951239712913, -0.737557751991289 ], [ 119.856888544202377, -0.73756353039489 ], [ 119.856297788525751, -0.737778125934158 ], [ 119.855433511473322, -0.738111481108465 ], [ 119.855341380866918, -0.738140230038812 ], [ 119.855263017767669, -0.738157494330112 ], [ 119.855181803779956, -0.738173325999245 ], [ 119.855002467824335, -0.738189085595038 ] ] } },
{ "type": "Feature", "properties": { "Id": 0, "Nama_Jalan": "L. Baraka", "Armada": "R3", "kelurahan": "PANAU" }, "geometry": { "type": "LineString", "coordinates": [ [ 119.857156704294241, -0.740455789947753 ], [ 119.857146888989774, -0.740731577819688 ], [ 119.857103139795328, -0.741024476118385 ], [ 119.857126927821596, -0.741084230024632 ], [ 119.857168500529184, -0.741100938430947 ], [ 119.857286079937268, -0.741129551312152 ], [ 119.857315778558842, -0.741147462817104 ], [ 119.857327674107665, -0.741179730536194 ], [ 119.857334831985852, -0.741231127526515 ], [ 119.8572756241512, -0.741490565010481 ], [ 119.857161848059377, -0.741837301278722 ], [ 119.85706112286725, -0.742166098309989 ], [ 119.857029086861289, -0.742206762327114 ], [ 119.856973313428696, -0.742266567993111 ], [ 119.856918707518915, -0.742295292830212 ], [ 119.85685694598358, -0.742276206825283 ], [ 119.856584915027895, -0.742125764988308 ], [ 119.856538279959551, -0.742084913063833 ], [ 119.856442056762376, -0.742027597038803 ], [ 119.856310206677392, -0.741966718009565 ], [ 119.855886184306186, -0.741827133312474 ], [ 119.855808991543356, -0.74181762039194 ], [ 119.85570807818516, -0.74185354766212 ], [ 119.855570349657086, -0.741884717316818 ], [ 119.85520107492151, -0.74193755451619 ] ] } },
{ "type": "Feature", "properties": { "Id": 0, "Nama_Jalan": "Lrg. Ibu Mada", "Armada": "R3", "kelurahan": "PANAU" }, "geometry": { "type": "LineString", "coordinates": [ [ 119.863169932148409, -0.737913615462801 ], [ 119.862827937696864, -0.737912641818541 ], [ 119.862780426329437, -0.737893546519703 ], [ 119.862712701829224, -0.737833821354384 ], [ 119.862667561593241, -0.737808747604824 ], [ 119.862147134902273, -0.737694089164603 ], [ 119.861997486563254, -0.737653543137502 ] ] } },
{ "type": "Feature", "properties": { "Id": 0, "Nama_Jalan": "Lrg. Masjid Jami", "Armada": "R3", "kelurahan": "PANAU" }, "geometry": { "type": "LineString", "coordinates": [ [ 119.862071292702097, -0.735126941588917 ], [ 119.862310460443908, -0.735163718598539 ], [ 119.86239169673965, -0.735183748549465 ], [ 119.86259978309414, -0.735246730301525 ], [ 119.862705229288181, -0.735243793273825 ], [ 119.86306575751388, -0.735259339404862 ] ] } },
{ "type": "Feature", "properties": { "Id": 0, "Nama_Jalan": "Pabisara", "Armada": "R3", "kelurahan": "PANAU" }, "geometry": { "type": "LineString", "coordinates": [ [ 119.862068880903834, -0.735145993336599 ], [ 119.86164255230689, -0.735115975962193 ], [ 119.861136914808881, -0.735050995145538 ] ] } },
{ "type": "Feature", "properties": { "Id": 0, "Nama_Jalan": "Jl. Boya Talise", "Armada": null, "kelurahan": "PANAU" }, "geometry": { "type": "LineString", "coordinates": [ [ 119.856363206685103, -0.731396853326922 ], [ 119.855717618023746, -0.731397276846824 ], [ 119.855626411994251, -0.731385859576091 ], [ 119.855613562669319, -0.731347137212487 ], [ 119.855698755855187, -0.730863667381538 ], [ 119.85578974882587, -0.730537985215844 ], [ 119.855815287005768, -0.730361529496734 ], [ 119.855924743243691, -0.729938291881261 ], [ 119.856123833951017, -0.72929408926089 ], [ 119.856166491045741, -0.729147746463231 ], [ 119.856317204615507, -0.728692892605039 ] ] } },
{ "type": "Feature", "properties": { "Id": 0, "Nama_Jalan": null, "Armada": null, "kelurahan": "PANAU" }, "geometry": { "type": "LineString", "coordinates": [ [ 119.856317204615507, -0.728692892605039 ], [ 119.856593893733162, -0.728795937598261 ], [ 119.856574999543184, -0.728963303973464 ], [ 119.856573856540464, -0.729033832588967 ], [ 119.856597658213431, -0.729116299138804 ], [ 119.856837506263503, -0.729079088805394 ], [ 119.856874328013106, -0.729094605306298 ], [ 119.856880395142653, -0.729300208088246 ], [ 119.856941167230858, -0.729633682339737 ], [ 119.856937628933522, -0.72967193700324 ], [ 119.856751329308835, -0.729886030584299 ], [ 119.856592347818378, -0.730109669844984 ], [ 119.85651283479902, -0.730186225566492 ], [ 119.85648199498155, -0.730241233154351 ], [ 119.85642762607705, -0.73064530911282 ], [ 119.856435995128564, -0.730734957853888 ], [ 119.856434944438817, -0.730951323758582 ], [ 119.856348065081036, -0.731396863261207 ] ] } },
{ "type": "Feature", "properties": { "Id": 0, "Nama_Jalan": "Buntina", "Armada": null, "kelurahan": "PANAU" }, "geometry": { "type": "LineString", "coordinates": [ [ 119.856939521734049, -0.729651472795023 ], [ 119.857112697801796, -0.729725677195456 ], [ 119.857312236287768, -0.729791295806872 ], [ 119.857526044914664, -0.729889180698464 ], [ 119.857843165157604, -0.729988194786068 ], [ 119.857992824055032, -0.730045477511947 ], [ 119.858655638642404, -0.730361830252645 ], [ 119.858863518943153, -0.730474302359275 ], [ 119.858901536461417, -0.730502967244139 ], [ 119.858915817074688, -0.73055172981638 ], [ 119.858890203792654, -0.730609124735413 ], [ 119.858756346736754, -0.730752656809608 ], [ 119.858538488649174, -0.731010999813717 ], [ 119.858518565296279, -0.731052612017557 ], [ 119.858688914969122, -0.731155066853242 ], [ 119.858778000996836, -0.731194457430935 ], [ 119.858926489053545, -0.73127803914996 ], [ 119.858939571018979, -0.73130911077651 ], [ 119.85889703369746, -0.731643845992739 ], [ 119.858876885903442, -0.731706018970018 ], [ 119.85875736491468, -0.731967381359526 ] ] } },
{ "type": "Feature", "properties": { "Id": 0, "Nama_Jalan": "Jl. Ipi", "Armada": null, "kelurahan": "PANAU" }, "geometry": { "type": "LineString", "coordinates": [ [ 119.85480562835869, -0.740831975675761 ], [ 119.854834371208781, -0.740900919885657 ], [ 119.855049403523779, -0.741422926399635 ], [ 119.85520107492151, -0.74193755451619 ], [ 119.855443463849085, -0.742614234155272 ], [ 119.855628083554834, -0.743114862381952 ], [ 119.855668550315869, -0.743258282680597 ], [ 119.855725678808071, -0.743459070771317 ] ] } },
{ "type": "Feature", "properties": { "Id": 0, "Nama_Jalan": null, "Armada": null, "kelurahan": "PANAU" }, "geometry": { "type": "LineString", "coordinates": [ [ 119.857845555015288, -0.738622686581338 ], [ 119.857820325652497, -0.738675840577108 ], [ 119.85781442109726, -0.73872724602375 ], [ 119.857816856447187, -0.738821679982531 ], [ 119.857865871319277, -0.739334469024488 ], [ 119.857883766196252, -0.739463559159029 ], [ 119.857888617896549, -0.739622542411797 ], [ 119.857935068295774, -0.739838877219622 ], [ 119.85795416220023, -0.739985897355641 ], [ 119.857960166999675, -0.740091087460138 ], [ 119.857953068131877, -0.740131735205554 ], [ 119.857922208864935, -0.740155662966679 ], [ 119.85787590005242, -0.740160474575015 ], [ 119.857828393033117, -0.740148551549775 ], [ 119.857786833387408, -0.740152164687793 ], [ 119.857753599912812, -0.740177289379594 ], [ 119.857736986621248, -0.740195230963526 ], [ 119.857734798732793, -0.740445621650235 ] ] } },
{ "type": "Feature", "properties": { "Id": 0, "Nama_Jalan": null, "Armada": null, "kelurahan": "PANAU" }, "geometry": { "type": "LineString", "coordinates": [ [ 119.858424155326517, -0.740501415085678 ], [ 119.858414390094467, -0.740663143358886 ], [ 119.858408748426925, -0.740753996353774 ], [ 119.858371865150815, -0.741013179994801 ], [ 119.858331127981216, -0.741188210984236 ], [ 119.858296063753542, -0.741321160708318 ], [ 119.858247675780788, -0.741416823060305 ], [ 119.858187059528547, -0.741701842538127 ], [ 119.858155902157549, -0.74200118750632 ], [ 119.858146493809969, -0.742143683662521 ], [ 119.858134304954135, -0.742394244543184 ], [ 119.858108776984068, -0.742583610343758 ], [ 119.858031558801756, -0.74290378509 ], [ 119.85803395683152, -0.742939645116272 ], [ 119.858042052649779, -0.74295463683008 ] ] } },
{ "type": "Feature", "properties": { "Id": 0, "Nama_Jalan": null, "Armada": null, "kelurahan": "PANAU" }, "geometry": { "type": "LineString", "coordinates": [ [ 119.858165135923642, -0.741912473868254 ], [ 119.85833491027114, -0.74190065857253 ], [ 119.8585664488986, -0.74186823246541 ], [ 119.858596139830766, -0.741874190070195 ], [ 119.858606843307342, -0.741899286203615 ], [ 119.858639075847137, -0.742164640842073 ], [ 119.858658992007662, -0.742741257851457 ] ] } },
{ "type": "Feature", "properties": { "Id": 0, "Nama_Jalan": null, "Armada": "R3", "kelurahan": "PANAU" }, "geometry": { "type": "LineString", "coordinates": [ [ 119.86135322838615, -0.732341975145857 ], [ 119.861383495048528, -0.732123131743116 ], [ 119.861397654697825, -0.731981111161693 ], [ 119.861413203859016, -0.731783145775761 ] ] } },
{ "type": "Feature", "properties": { "Id": 0, "Nama_Jalan": null, "Armada": "R3", "kelurahan": "PANAU" }, "geometry": { "type": "LineString", "coordinates": [ [ 119.859623269602452, -0.73210452642818 ], [ 119.859678726116414, -0.731711851621366 ], [ 119.859400833819521, -0.7316773639043 ], [ 119.85941612793232, -0.731451426339633 ], [ 119.85947675021599, -0.731172384607618 ] ] } },
{ "type": "Feature", "properties": { "Id": 0, "Nama_Jalan": null, "Armada": "R3", "kelurahan": "PANAU" }, "geometry": { "type": "LineString", "coordinates": [ [ 119.857499499020648, -0.731675830107872 ], [ 119.857480872550894, -0.731800286641658 ], [ 119.857445333635141, -0.731935388174926 ] ] } },
{ "type": "Feature", "properties": { "Id": 0, "Nama_Jalan": null, "Armada": "R3", "kelurahan": "PANAU" }, "geometry": { "type": "LineString", "coordinates": [ [ 119.85833545670468, -0.731884565048246 ], [ 119.858290953273027, -0.732144037884957 ], [ 119.858250659971787, -0.732271970076545 ], [ 119.858171253302757, -0.73251587986553 ] ] } },
{ "type": "Feature", "properties": { "Id": 0, "Nama_Jalan": null, "Armada": "R3", "kelurahan": "PANAU" }, "geometry": { "type": "LineString", "coordinates": [ [ 119.861242495081456, -0.734597749605075 ], [ 119.861035441192826, -0.734546648247567 ], [ 119.860897662402124, -0.734497726391301 ], [ 119.86080620670927, -0.73446670540013 ], [ 119.860710023912006, -0.734471548955812 ] ] } }
]
}
