{
"type": "FeatureCollection",
"name": "Pantoloan",
"crs": { "type": "name", "properties": { "name": "urn:ogc:def:crs:OGC:1.3:CRS84" } },
"features": [
{ "type": "Feature", "properties": { "Id": 0, "Nama_Jalan": "Jl. Toli-Toli - Palu", "Armada": "Pick Up", "kelurahan": "Pantoloan" }, "geometry": { "type": "LineString", "coordinates": [ [ 119.86319357361144, -0.713667869646688 ], [ 119.863126958847204, -0.713671776486289 ], [ 119.863024362477873, -0.713673753432856 ], [ 119.862952151225315, -0.713652839696322 ], [ 119.862879931586875, -0.713618378306137 ], [ 119.862824885478304, -0.713568505769528 ], [ 119.862740161369359, -0.713487198906006 ], [ 119.862241521825467, -0.712774984375859 ], [ 119.861552597498445, -0.711733374558486 ], [ 119.861276884874897, -0.711378518127516 ], [ 119.860129817296368, -0.709793838008875 ], [ 119.859984829976796, -0.70960601391404 ], [ 119.859794694579662, -0.709379009263335 ], [ 119.859414451767364, -0.708970424322389 ], [ 119.859238614569051, -0.708822305956625 ], [ 119.85908180484148, -0.708719600349282 ], [ 119.858951150356603, -0.708667084636182 ], [ 119.858727865488675, -0.708602672639112 ], [ 119.857763475662722, -0.708342677780958 ], [ 119.856908356482691, -0.708120866845916 ], [ 119.856112590165907, -0.707865547714061 ], [ 119.855756251748019, -0.707710368250557 ], [ 119.85472755482516, -0.707153954497516 ], [ 119.853931675024967, -0.706714543721317 ], [ 119.853473147292007, -0.706451841453538 ], [ 119.85230181183897, -0.705665997731595 ], [ 119.851938286751619, -0.705410408207238 ], [ 119.851819481826112, -0.705317240907121 ], [ 119.851147029563137, -0.704762993309995 ], [ 119.851048181318234, -0.70468128933287 ], [ 119.850943622397665, -0.704581897030755 ], [ 119.850675536833251, -0.704270303495433 ], [ 119.850078499394542, -0.703536220764787 ], [ 119.849481430977605, -0.702750496125982 ], [ 119.849267963399484, -0.702427990027731 ], [ 119.848917337158767, -0.701902231138936 ], [ 119.848734760930412, -0.701607080321516 ], [ 119.848514147543511, -0.701249553029393 ], [ 119.848412395686935, -0.701078912781064 ], [ 119.848194160454796, -0.700723709228965 ] ] } },
{ "type": "Feature", "properties": { "Id": 0, "Nama_Jalan": null, "Armada": "Pick Up", "kelurahan": "Pantoloan" }, "geometry": { "type": "LineString", "coordinates": [ [ 119.86319357361144, -0.713667869646688 ], [ 119.863295627169862, -0.713652265695382 ], [ 119.86337921332003, -0.71363308718347 ], [ 119.864235873343986, -0.713278717424223 ], [ 119.864965260821421, -0.712964592557615 ], [ 119.864978535634251, -0.71292441949726 ], [ 119.864957600679659, -0.712867054421078 ] ] } },
{ "type": "Feature", "properties": { "Id": 0, "Nama_Jalan": "Jl. Tompotika", "Armada": "Pick Up", "kelurahan": "Pantoloan" }, "geometry": { "type": "LineString", "coordinates": [ [ 119.864957600679659, -0.712867054421078 ], [ 119.86491388050797, -0.712832654903451 ], [ 119.864856842934714, -0.712769574626849 ], [ 119.864794088952436, -0.712679721428332 ], [ 119.864733238474955, -0.712595604847505 ], [ 119.864695192150023, -0.712519124400282 ], [ 119.86465902923166, -0.712415866267864 ], [ 119.864575277717108, -0.712167279776134 ], [ 119.864443858587748, -0.711645220205107 ], [ 119.86421335916431, -0.710664196548184 ], [ 119.864169564788114, -0.710509302659822 ], [ 119.864078195050439, -0.710230118936288 ], [ 119.863977297360691, -0.709905038512109 ], [ 119.863935878620708, -0.709751099381987 ], [ 119.863874443613511, -0.709488632192719 ], [ 119.863794335930706, -0.708985187927794 ], [ 119.863659045152318, -0.708150538004908 ], [ 119.863634162287056, -0.707851708351465 ], [ 119.863582700722162, -0.707586365868979 ], [ 119.863539713337474, -0.707197654809923 ], [ 119.863477980709916, -0.706448548074872 ], [ 119.863456466554425, -0.706220482784051 ], [ 119.863433575787298, -0.706071313469665 ], [ 119.863399303775651, -0.705952274805947 ], [ 119.863347949778159, -0.705861935870837 ], [ 119.863300896137332, -0.705813193515815 ], [ 119.86323530831713, -0.705748683621714 ], [ 119.862801884198916, -0.705364517721976 ], [ 119.862585177414303, -0.705181041391692 ], [ 119.862511032807674, -0.705105061045986 ], [ 119.862461118731332, -0.705039106888929 ], [ 119.862298493124243, -0.704745143645948 ], [ 119.862248573808714, -0.704670582711099 ], [ 119.862201516691712, -0.704616102416489 ], [ 119.862154461328558, -0.704564491032943 ], [ 119.862078901422194, -0.70450429053215 ], [ 119.86197056470364, -0.704439806926175 ], [ 119.861300604427143, -0.704068696362825 ], [ 119.860854444094613, -0.703829417334926 ], [ 119.860734722471392, -0.703789326426804 ], [ 119.860652063949487, -0.703772163975203 ], [ 119.86053235630277, -0.703755024409599 ], [ 119.860082035427993, -0.703703662004679 ], [ 119.859298255393171, -0.703625250646195 ] ] } },
{ "type": "Feature", "properties": { "Id": 0, "Nama_Jalan": "Jl. H. Samauna", "Armada": "Pick Up", "kelurahan": "Pantoloan" }, "geometry": { "type": "LineString", "coordinates": [ [ 119.859298255393171, -0.703625250646195 ], [ 119.858962860229738, -0.703538911812729 ], [ 119.858532453399803, -0.703430158283762 ], [ 119.858240287642502, -0.703352877543686 ], [ 119.857864267795577, -0.703245524726536 ], [ 119.857753805019556, -0.703200168162232 ], [ 119.857338070297445, -0.703005576431323 ], [ 119.857148012486974, -0.702904085665882 ], [ 119.856894985034785, -0.702747645829361 ], [ 119.856843909058057, -0.702723769545676 ], [ 119.856772641637093, -0.702692733372298 ], [ 119.856677623249482, -0.702659321049611 ], [ 119.856551733395804, -0.70263070928755 ], [ 119.85582729964554, -0.702510421199945 ], [ 119.855327311706688, -0.702411511711858 ], [ 119.85466105350767, -0.702274451910716 ] ] } },
{ "type": "Feature", "properties": { "Id": 0, "Nama_Jalan": "Jl. H. Patila", "Armada": "Pick Up", "kelurahan": "Pantoloan" }, "geometry": { "type": "LineString", "coordinates": [ [ 119.853849667869852, -0.706667559740126 ], [ 119.853886255917629, -0.706617902836038 ], [ 119.853912589489525, -0.706571266298799 ], [ 119.853980906399443, -0.706437101184848 ], [ 119.854071279780129, -0.706252716035688 ], [ 119.854136321279753, -0.706121852260718 ], [ 119.854193720849736, -0.705999886930564 ], [ 119.854235444246555, -0.705875540524014 ], [ 119.85428947192888, -0.705676594160509 ], [ 119.854299879742825, -0.70560773324234 ], [ 119.854309293253394, -0.705466193206883 ], [ 119.854333811477744, -0.705168764943221 ], [ 119.8543776198823, -0.704516405438052 ], [ 119.854425195527824, -0.703861780386197 ], [ 119.854449486829552, -0.703581087787779 ], [ 119.854473100450676, -0.703357535269195 ], [ 119.854528648294888, -0.702923813504621 ], [ 119.854592983333148, -0.702489608217048 ], [ 119.854640311721539, -0.702208423358741 ], [ 119.854733111647022, -0.701716821934313 ], [ 119.854759595120086, -0.701525543270255 ], [ 119.854831384431151, -0.700850342978217 ], [ 119.854951284796272, -0.699419626965706 ], [ 119.854983472628732, -0.699235158615112 ], [ 119.855006202801405, -0.699120387283579 ], [ 119.855036535144421, -0.699009436547067 ], [ 119.855074480058107, -0.698919520010859 ], [ 119.855118135263396, -0.698846813592801 ], [ 119.85519217599149, -0.698751137097381 ], [ 119.855260538789665, -0.69869180392634 ], [ 119.855351709211234, -0.698645845158219 ], [ 119.855906363779368, -0.698423641408199 ], [ 119.85716009201235, -0.698017398366971 ], [ 119.857340544128704, -0.697944608373491 ], [ 119.857538087747514, -0.697858419601423 ], [ 119.857722332786324, -0.697774151608062 ], [ 119.858985936400117, -0.697206765432028 ], [ 119.859103694626057, -0.697142142583439 ], [ 119.859317359837959, -0.697010041358283 ], [ 119.859411372935028, -0.696952605373304 ], [ 119.859505394682202, -0.696909514009807 ], [ 119.859616525527329, -0.696882191267592 ], [ 119.859747627516057, -0.696890717854149 ], [ 119.859912941635429, -0.696920740429633 ], [ 119.86044170655174, -0.697091117786624 ], [ 119.860531485360823, -0.697101104069577 ], [ 119.860599875841629, -0.697088152070368 ], [ 119.860654001085379, -0.697049388513309 ], [ 119.860703840174494, -0.69699197959686 ], [ 119.860890267949884, -0.696590216663535 ], [ 119.861002619346934, -0.696224360636891 ], [ 119.861052429030522, -0.696118180148961 ], [ 119.861085155599056, -0.696039264848843 ], [ 119.861102203251846, -0.695953186834885 ], [ 119.861099280669777, -0.695832693987665 ], [ 119.861043325015189, -0.695198696859522 ], [ 119.861043268854331, -0.695105456994262 ], [ 119.861044643710812, -0.695022257475599 ], [ 119.861061704393578, -0.694957696365298 ], [ 119.861088733772974, -0.694883087954767 ], [ 119.86114850966328, -0.694762556853384 ], [ 119.861384808244409, -0.694355026173887 ], [ 119.861866430900179, -0.693540916093008 ], [ 119.862071449449729, -0.693248161626873 ], [ 119.862390413166025, -0.692869270396863 ], [ 119.862815714170409, -0.692390858921321 ], [ 119.862933449998124, -0.692289418958182 ], [ 119.863066398013103, -0.692209008470252 ], [ 119.864067335091406, -0.69165183056062 ], [ 119.864426326943402, -0.69148904064585 ], [ 119.865230349081671, -0.691170206579798 ] ] } },
{ "type": "Feature", "properties": { "Id": 0, "Nama_Jalan": "Jl. Adyaksa", "Armada": "Pick Up", "kelurahan": "Pantoloan" }, "geometry": { "type": "LineString", "coordinates": [ [ 119.854695557336953, -0.701915763265183 ], [ 119.853528317993792, -0.702009492574687 ], [ 119.852773595753007, -0.702074985824461 ], [ 119.852671357754957, -0.702081623322843 ], [ 119.852618627570635, -0.702071614439683 ], [ 119.85239343530651, -0.701995725891553 ], [ 119.851756339643472, -0.701779512140424 ], [ 119.851548250454883, -0.701709350820279 ], [ 119.851482691090794, -0.701692177415392 ], [ 119.851429959123521, -0.701679299547269 ], [ 119.851367254922891, -0.701670731216863 ], [ 119.851311682557608, -0.701673634283305 ], [ 119.851254690427297, -0.701685145054716 ], [ 119.85119912848613, -0.701705261782437 ], [ 119.851157814576439, -0.701722500818155 ], [ 119.850989672462347, -0.70173121089288 ], [ 119.850955478217301, -0.701739838723506 ], [ 119.85091701686072, -0.701761379428571 ], [ 119.85071760603148, -0.701903514683669 ], [ 119.850657776083466, -0.701935109830061 ], [ 119.850575149091569, -0.701971022398195 ], [ 119.850499644376427, -0.702002627176425 ], [ 119.850347222992752, -0.702087354709939 ], [ 119.850304483203686, -0.702103160166924 ], [ 119.850213308053242, -0.702141946949184 ], [ 119.850152053100274, -0.702173542990684 ], [ 119.84987003858302, -0.702390321768479 ], [ 119.849811656182027, -0.702459212389422 ], [ 119.849766097723887, -0.70252666066322 ], [ 119.849734783840717, -0.702585493344029 ], [ 119.849702039760416, -0.70263572006144 ], [ 119.849673555830606, -0.702661558101253 ], [ 119.849630823845729, -0.702690273846655 ], [ 119.849500183881688, -0.702775174423393 ] ] } },
{ "type": "Feature", "properties": { "Id": 0, "Nama_Jalan": "Jl. Yodjolanggo", "Armada": "Pick Up", "kelurahan": "Pantoloan" }, "geometry": { "type": "LineString", "coordinates": [ [ 119.851914213297803, -0.705391529709803 ], [ 119.852041777471555, -0.705222528426937 ], [ 119.852088755410406, -0.705146472454707 ], [ 119.852165599339614, -0.704974288491726 ], [ 119.852189759313035, -0.704868122723121 ], [ 119.85229067770949, -0.704449194937346 ], [ 119.852458885778958, -0.703768195761732 ], [ 119.852620022739572, -0.703175181991717 ], [ 119.852635190821715, -0.703123053558311 ], [ 119.852641091916027, -0.703063280320726 ], [ 119.852655241487795, -0.702898307503475 ], [ 119.852684647647479, -0.702435672681423 ], [ 119.852700931146629, -0.702079703358389 ] ] } },
{ "type": "Feature", "properties": { "Id": 0, "Nama_Jalan": "Jl. Latantu", "Armada": "Pick Up", "kelurahan": "Pantoloan" }, "geometry": { "type": "LineString", "coordinates": [ [ 119.851924578444127, -0.705399658098531 ], [ 119.851880079476771, -0.705478173350615 ], [ 119.851818399649375, -0.70559177376551 ], [ 119.851743678660014, -0.705740048644296 ], [ 119.851704536217881, -0.705812991798131 ], [ 119.851501694772892, -0.706170539683184 ], [ 119.851373588169992, -0.706402525171679 ] ] } },
{ "type": "Feature", "properties": { "Id": 0, "Nama_Jalan": "Jl. Makagili", "Armada": "Pick Up", "kelurahan": "Pantoloan" }, "geometry": { "type": "LineString", "coordinates": [ [ 119.853806051533525, -0.706642570830887 ], [ 119.853769407054727, -0.706720691082945 ], [ 119.853756377636259, -0.706774491739003 ], [ 119.853748095217469, -0.706823507893902 ], [ 119.853710298918742, -0.707155849980216 ], [ 119.853670146752933, -0.70751927371378 ], [ 119.853619434637636, -0.708090702062943 ], [ 119.853601740224704, -0.708283170998945 ], [ 119.853559248571187, -0.708703975030009 ], [ 119.853509584565245, -0.709047083119508 ], [ 119.85350605801645, -0.709105659476788 ], [ 119.853520329758695, -0.709141512348932 ], [ 119.853576156724159, -0.709166580891844 ], [ 119.854046450168454, -0.709249966131337 ], [ 119.854850910090548, -0.709349400888641 ], [ 119.855191037501967, -0.709403699245569 ] ] } },
{ "type": "Feature", "properties": { "Id": 0, "Nama_Jalan": "Jl. Dermaga Pantoloan", "Armada": "Pick Up", "kelurahan": "Pantoloan" }, "geometry": { "type": "LineString", "coordinates": [ [ 119.855191037501967, -0.709403699245569 ], [ 119.85528818103684, -0.709416309985153 ], [ 119.855322379983008, -0.709415571491725 ], [ 119.855346597067708, -0.70940336346667 ], [ 119.855365820142069, -0.709380400043514 ], [ 119.855392855937637, -0.709317266687479 ], [ 119.855470329654011, -0.709011677072185 ], [ 119.855540012677636, -0.708782119078678 ], [ 119.855666538834399, -0.708298147053356 ], [ 119.855744736818338, -0.70801144426901 ], [ 119.855799805557055, -0.707729335216247 ] ] } },
{ "type": "Feature", "properties": { "Id": 0, "Nama_Jalan": "Jl. Pengga Lembah", "Armada": "Pick Up", "kelurahan": "Pantoloan" }, "geometry": { "type": "LineString", "coordinates": [ [ 119.858258484941572, -0.708476129959824 ], [ 119.858310493700216, -0.708290833273442 ], [ 119.858357373502699, -0.708055552162304 ], [ 119.858461098355619, -0.707569204715335 ], [ 119.858554928507345, -0.707213399630985 ], [ 119.858682814949077, -0.706623756028657 ], [ 119.858756695769884, -0.706267963447194 ], [ 119.858897379294234, -0.705632409319804 ], [ 119.858985422472244, -0.705133161847223 ], [ 119.859040823743655, -0.70485053846391 ], [ 119.859155938987513, -0.704346970991828 ], [ 119.859188631022121, -0.704212111331671 ], [ 119.859204252315649, -0.704124599480461 ], [ 119.859217028051759, -0.704044261700748 ], [ 119.859235489673878, -0.703940969014836 ], [ 119.859259653798077, -0.70384197619674 ], [ 119.859298255393171, -0.703625250646195 ] ] } },
{ "type": "Feature", "properties": { "Id": 0, "Nama_Jalan": "Lorong Tanpa Nama", "Armada": "R3", "kelurahan": "Pantoloan" }, "geometry": { "type": "LineString", "coordinates": [ [ 119.847535780480584, -0.701841115628577 ], [ 119.847393331779486, -0.701922968191098 ], [ 119.847333505108665, -0.701960301294078 ], [ 119.847279381836998, -0.702003368810563 ], [ 119.847156878517197, -0.702078036780812 ], [ 119.847085653712412, -0.702118245844043 ], [ 119.847058602493235, -0.702156993332747 ], [ 119.847052932960295, -0.702207203524822 ], [ 119.84706723229408, -0.702288959969843 ], [ 119.847092914119884, -0.702342019877626 ], [ 119.847129981039117, -0.70237068667896 ], [ 119.847168458171524, -0.702374966496969 ], [ 119.847273881671981, -0.702333301954079 ], [ 119.84761864566876, -0.702198249533426 ], [ 119.847610003708013, -0.702046200291896 ], [ 119.847598561300089, -0.701975917946407 ], [ 119.847579997460997, -0.701911377875304 ], [ 119.847555704179953, -0.701798069101327 ], [ 119.847578486524966, -0.701769365591136 ], [ 119.847705284715815, -0.701727688000927 ], [ 119.847785956654604, -0.701719850860454 ], [ 119.847799300180668, -0.70170855578835 ], [ 119.847808553010637, -0.701692770871262 ], [ 119.847808536082781, -0.701664798588118 ], [ 119.847792070677016, -0.701535705790304 ], [ 119.847799174754527, -0.701501273996086 ], [ 119.847828372986513, -0.701478304469516 ], [ 119.847888916900601, -0.701448860582456 ], [ 119.847992921434425, -0.701417238338981 ], [ 119.848095554262159, -0.7013951801147 ], [ 119.848170586479569, -0.701367400908698 ], [ 119.848352924426948, -0.701268788441387 ], [ 119.848390916388865, -0.701256333027396 ], [ 119.848421316552376, -0.701257270708838 ], [ 119.848449824840372, -0.701271597990472 ], [ 119.848493561847746, -0.701333731792899 ], [ 119.848582007849274, -0.701494338835315 ], [ 119.848613375937788, -0.70152492174412 ], [ 119.848643776676141, -0.70152681573341 ] ] } },
{ "type": "Feature", "properties": { "Id": 0, "Nama_Jalan": "Lorong Tanpa Nama", "Armada": "R3", "kelurahan": "Pantoloan" }, "geometry": { "type": "LineString", "coordinates": [ [ 119.849885526761199, -0.70328227456134 ], [ 119.849690799041795, -0.703450162029956 ], [ 119.849649269068067, -0.703502784969565 ], [ 119.849597086586087, -0.703612793440524 ], [ 119.84949743599654, -0.703774233135034 ], [ 119.849423840344414, -0.703820898852171 ], [ 119.849249340535536, -0.703920224088203 ], [ 119.8491282506034, -0.703975286826281 ], [ 119.849048705891548, -0.704002829893912 ], [ 119.848809657981775, -0.704055972929001 ] ] } },
{ "type": "Feature", "properties": { "Id": 0, "Nama_Jalan": "Jalan Tanpa Nama", "Armada": "R3", "kelurahan": "Pantoloan" }, "geometry": { "type": "LineString", "coordinates": [ [ 119.852913283578431, -0.70607623160521 ], [ 119.85284341286156, -0.706193239661892 ], [ 119.852795965429848, -0.706278141825012 ], [ 119.852734282824002, -0.7063869606378 ], [ 119.852619246043943, -0.706630891770434 ], [ 119.852574180886435, -0.706727746413634 ], [ 119.852498317147337, -0.706948940913956 ], [ 119.852484133814457, -0.707057730386582 ], [ 119.852460455754283, -0.707174893485555 ], [ 119.852435579267535, -0.707274126446768 ], [ 119.852400022031247, -0.707384124557016 ], [ 119.85239054555727, -0.707422382980326 ], [ 119.852372837082797, -0.707592139662531 ], [ 119.852379987544964, -0.707633973965907 ], [ 119.852413252365821, -0.707659056598531 ], [ 119.852855027463718, -0.707711380146612 ], [ 119.853410820983271, -0.707797103901114 ], [ 119.85364096356335, -0.707848111956408 ] ] } },
{ "type": "Feature", "properties": { "Id": 0, "Nama_Jalan": "Jl. Rorempulu", "Armada": "R3", "kelurahan": "Pantoloan" }, "geometry": { "type": "LineString", "coordinates": [ [ 119.853608389066025, -0.708210848955204 ], [ 119.853897038285112, -0.708190833189418 ], [ 119.855262653924143, -0.708213893719996 ], [ 119.855694585947958, -0.708195315914624 ] ] } },
{ "type": "Feature", "properties": { "Id": 0, "Nama_Jalan": "Jl. Sultan Alaudin", "Armada": "R3", "kelurahan": "Pantoloan" }, "geometry": { "type": "LineString", "coordinates": [ [ 119.855376722594301, -0.707505084152701 ], [ 119.855404086848395, -0.707444752309827 ], [ 119.855453868352257, -0.707293385182445 ], [ 119.855482309919282, -0.707198692735936 ], [ 119.855551190756628, -0.706821863421192 ], [ 119.855558259363235, -0.706729814087086 ], [ 119.855575788877104, -0.706267187680734 ], [ 119.855588685422703, -0.705995826394418 ], [ 119.855582701327251, -0.705919325200123 ], [ 119.855552843658558, -0.705639622635371 ], [ 119.855558736550222, -0.705566700259908 ], [ 119.855597767969044, -0.705312058268766 ], [ 119.855619023725652, -0.70511719672703 ], [ 119.855671016205676, -0.70469638769694 ], [ 119.855719393247867, -0.704188317547747 ], [ 119.855726323045246, -0.703867949054239 ], [ 119.855744853571224, -0.703096911814212 ], [ 119.855762754082377, -0.702851606994925 ], [ 119.855815380904744, -0.702508063391157 ], [ 119.855829415697926, -0.702338026917073 ], [ 119.855858847808022, -0.701918427353042 ], [ 119.85590132271895, -0.701466544295821 ] ] } },
{ "type": "Feature", "properties": { "Id": 0, "Nama_Jalan": "Lorong Tanpa Nama", "Armada": "R3", "kelurahan": "Pantoloan" }, "geometry": { "type": "LineString", "coordinates": [ [ 119.855601630091812, -0.705276652347142 ], [ 119.855439805766977, -0.705266731117548 ], [ 119.854733014280342, -0.705259517397989 ], [ 119.854218607050754, -0.705273701743989 ], [ 119.853793006421682, -0.705260576277245 ], [ 119.853567849268359, -0.705242545402624 ], [ 119.853535550993016, -0.705244477976406 ], [ 119.85351181480884, -0.705266487833893 ], [ 119.853489527935182, -0.705328422863304 ], [ 119.853465359313972, -0.705420243838108 ], [ 119.853433390940737, -0.705573751824748 ], [ 119.853306206031803, -0.705564267276842 ], [ 119.853080091202116, -0.705533804949259 ], [ 119.852933738860614, -0.705444001896456 ] ] } },
{ "type": "Feature", "properties": { "Id": 0, "Nama_Jalan": "Jalan Tanpa Nama", "Armada": "R3", "kelurahan": "Pantoloan" }, "geometry": { "type": "LineString", "coordinates": [ [ 119.852638414173327, -0.705891822910742 ], [ 119.8527096632927, -0.705797976331176 ], [ 119.852856774423429, -0.705574108068717 ], [ 119.852920349621883, -0.705453095144186 ], [ 119.853020445778697, -0.705244377696849 ], [ 119.853051276554936, -0.705172635158807 ], [ 119.853072608222959, -0.705102093880705 ], [ 119.85308207456228, -0.705047100021189 ], [ 119.853084388355001, -0.704946685695816 ], [ 119.853089110606433, -0.704901257899198 ], [ 119.85311987661035, -0.704723125562272 ], [ 119.853119836577392, -0.704657379049283 ], [ 119.853100675352792, -0.704392013933264 ], [ 119.853097058350315, -0.704302361792676 ], [ 119.853100571324532, -0.704221072996327 ], [ 119.853201265659905, -0.703824140922731 ], [ 119.853347941010966, -0.703273692342364 ], [ 119.853397650401092, -0.703002546979637 ], [ 119.853406851886263, -0.702902367523941 ] ] } },
{ "type": "Feature", "properties": { "Id": 0, "Nama_Jalan": "Lorong Tanpa Nama", "Armada": "R3", "kelurahan": "Pantoloan" }, "geometry": { "type": "LineString", "coordinates": [ [ 119.852412573981141, -0.703955691348551 ], [ 119.853137633487023, -0.704074975732554 ] ] } },
{ "type": "Feature", "properties": { "Id": 0, "Nama_Jalan": "Lorong Tanpa Nama", "Armada": "R3", "kelurahan": "Pantoloan" }, "geometry": { "type": "LineString", "coordinates": [ [ 119.852534040151539, -0.703491613662879 ], [ 119.853254128636664, -0.703625754719335 ] ] } },
{ "type": "Feature", "properties": { "Id": 0, "Nama_Jalan": "Lorong Tanpa Nama", "Armada": "R3", "kelurahan": "Pantoloan" }, "geometry": { "type": "LineString", "coordinates": [ [ 119.852659227534161, -0.70283559653605 ], [ 119.852854262064966, -0.702850086479111 ], [ 119.85306706419172, -0.702859518655371 ], [ 119.853406851886263, -0.702902367523941 ], [ 119.853654191010577, -0.702920361307312 ], [ 119.853766290161531, -0.702922204922665 ], [ 119.854150544239701, -0.702899016850182 ], [ 119.854463081495041, -0.702887348666686 ], [ 119.854532490807856, -0.702897879870678 ] ] } },
{ "type": "Feature", "properties": { "Id": 0, "Nama_Jalan": "Lorong Tanpa Nama", "Armada": "R3", "kelurahan": "Pantoloan" }, "geometry": { "type": "LineString", "coordinates": [ [ 119.853990370621261, -0.702908682638556 ], [ 119.853977003040669, -0.702815804962966 ], [ 119.853856972487392, -0.70226791169306 ], [ 119.853792345385017, -0.70198829119499 ] ] } },
{ "type": "Feature", "properties": { "Id": 0, "Nama_Jalan": "Lorong Tanpa Nama", "Armada": "R3", "kelurahan": "Pantoloan" }, "geometry": { "type": "LineString", "coordinates": [ [ 119.854372104592557, -0.70459853440162 ], [ 119.854789093701314, -0.704627515996939 ], [ 119.854990022827891, -0.704640302157976 ] ] } },
{ "type": "Feature", "properties": { "Id": 0, "Nama_Jalan": "Lorong Tanpa Nama", "Armada": "R3", "kelurahan": "Pantoloan" }, "geometry": { "type": "LineString", "coordinates": [ [ 119.855927356914322, -0.70778488172097 ], [ 119.855967596640824, -0.707696584954161 ], [ 119.855993677977906, -0.707626040850251 ], [ 119.856020933627235, -0.707533979027278 ], [ 119.856039884254955, -0.707453876243553 ], [ 119.856043407189389, -0.707389323078796 ], [ 119.856049289724155, -0.707299665292612 ], [ 119.856091926299015, -0.707115549034662 ], [ 119.856133410508392, -0.706988812148662 ], [ 119.856262716140137, -0.70677714828715 ], [ 119.856297104740392, -0.706698231356491 ], [ 119.856335018511174, -0.706558347447451 ], [ 119.856361064101606, -0.706429229390559 ], [ 119.856495012348248, -0.7060418407096 ], [ 119.856562585353885, -0.705856513746892 ], [ 119.856620641784431, -0.705643698770247 ], [ 119.856737942214465, -0.705218068145074 ], [ 119.856755701117365, -0.705130793856673 ], [ 119.85676873199732, -0.705079384126625 ], [ 119.856823241422816, -0.704891674558916 ], [ 119.856849312677596, -0.704804395145084 ], [ 119.856900299064847, -0.704681238711505 ], [ 119.857004635886227, -0.704416993602434 ], [ 119.857070274601398, -0.704272460601739 ], [ 119.857107025156694, -0.704172025363776 ], [ 119.857188765074241, -0.70385041569955 ], [ 119.857213646727573, -0.703759550907296 ], [ 119.857226668191814, -0.703692601182957 ], [ 119.857231366415846, -0.70360772578613 ], [ 119.85722293474717, -0.703411687470769 ], [ 119.857232321785744, -0.703226396650357 ], [ 119.857274440945702, -0.702971598396507 ] ] } },
{ "type": "Feature", "properties": { "Id": 0, "Nama_Jalan": "Jalan Tanpa Nama", "Armada": "R3", "kelurahan": "Pantoloan" }, "geometry": { "type": "LineString", "coordinates": [ [ 119.856941990161374, -0.708129591154381 ], [ 119.857018831802179, -0.707924341429929 ], [ 119.857092838962117, -0.707775111141548 ], [ 119.857128426358315, -0.707714841531554 ], [ 119.857158355154226, -0.707721995282994 ], [ 119.85718399673658, -0.707709069187374 ], [ 119.857287862438, -0.70745223555625 ], [ 119.85745715834814, -0.707001708690725 ], [ 119.857471399281664, -0.706987355216924 ], [ 119.857703709025259, -0.707051762066468 ], [ 119.85778916074311, -0.706975682483049 ], [ 119.857819071081451, -0.706952712512989 ], [ 119.857841850423114, -0.706919705717551 ], [ 119.857857725879441, -0.706859687465973 ], [ 119.857874286182536, -0.706754483177714 ], [ 119.857913385860329, -0.706612207939129 ], [ 119.857952546224638, -0.706569149753928 ], [ 119.85801067037238, -0.706467505882604 ], [ 119.85807829140029, -0.706361074591207 ], [ 119.858130479641446, -0.706261825190008 ], [ 119.858186269769988, -0.70622712442538 ], [ 119.858248003846683, -0.706203178457345 ], [ 119.858342988673471, -0.706181602665391 ], [ 119.85845507911813, -0.706169818443664 ], [ 119.858560530363803, -0.706175490968531 ], [ 119.85879854846236, -0.706254238957646 ], [ 119.859270221029988, -0.706266856825603 ], [ 119.8593842167502, -0.70626391725078 ], [ 119.859486809203702, -0.706255246893858 ], [ 119.859781755654481, -0.706219202541012 ], [ 119.859865829632113, -0.706220584890634 ], [ 119.859917134611891, -0.706230594318854 ], [ 119.859954203952995, -0.706263563950985 ], [ 119.859968478199988, -0.706303720018628 ], [ 119.859978507384866, -0.706392650400642 ], [ 119.859968588784895, -0.706484462073156 ], [ 119.859947281862276, -0.706594928807167 ], [ 119.85990466716639, -0.706814427826267 ], [ 119.859829349399234, -0.707150138533968 ], [ 119.859763959030929, -0.707408382196726 ], [ 119.859788332923131, -0.707652225521517 ], [ 119.859785545411782, -0.707754074020616 ], [ 119.859799140354966, -0.707848261881076 ], [ 119.859764745393505, -0.707916420172385 ], [ 119.859727985748236, -0.708001315322057 ], [ 119.859647315233531, -0.708128076230766 ], [ 119.859622388546057, -0.708144827108626 ], [ 119.859539284433026, -0.708175958761532 ], [ 119.859435997653321, -0.708214275270675 ], [ 119.859389693494549, -0.708226257898548 ], [ 119.859308467915298, -0.70822248314713 ], [ 119.859254315571079, -0.708216778952593 ], [ 119.85910799644779, -0.708180530168586 ], [ 119.85907094314075, -0.70817385903537 ], [ 119.859048148908656, -0.708182479973943 ], [ 119.859024421702458, -0.708218834433659 ], [ 119.858978895988386, -0.70833840126802 ], [ 119.858951392914221, -0.708413966723101 ], [ 119.858914402365258, -0.708509620555893 ], [ 119.858853618856898, -0.70863894928599 ] ] } },
{ "type": "Feature", "properties": { "Id": 0, "Nama_Jalan": "Jl. Bahari Lorong", "Armada": "R3", "kelurahan": "Pantoloan" }, "geometry": { "type": "LineString", "coordinates": [ [ 119.859943990524826, -0.706611881762538 ], [ 119.860128257143231, -0.706601988870052 ], [ 119.860190008661405, -0.706606732105922 ], [ 119.860226834222118, -0.706629421563324 ], [ 119.860241103652427, -0.706661688083636 ], [ 119.860276877137409, -0.706905524246574 ], [ 119.860297118347049, -0.706993970106981 ], [ 119.860329290674528, -0.707174453128938 ], [ 119.860342516206572, -0.707441015554343 ], [ 119.860358090366006, -0.707664542690288 ], [ 119.860361696022153, -0.707735068106086 ], [ 119.860340330302606, -0.707749425988339 ], [ 119.860267898110564, -0.707755447909469 ], [ 119.860207340645445, -0.707761462452831 ], [ 119.860156293222744, -0.707784206466721 ], [ 119.860095745278613, -0.707805761000359 ], [ 119.859878449371763, -0.707825022149708 ], [ 119.859796968817776, -0.707833217140698 ] ] } },
{ "type": "Feature", "properties": { "Id": 0, "Nama_Jalan": "Jl. H Sabange", "Armada": "R3", "kelurahan": "Pantoloan" }, "geometry": { "type": "LineString", "coordinates": [ [ 119.861096160809183, -0.711128847241568 ], [ 119.862012895832152, -0.710663923862398 ], [ 119.862612397843421, -0.710385623380458 ], [ 119.862784548042185, -0.710331723773832 ], [ 119.864028010277281, -0.710068429578602 ] ] } },
{ "type": "Feature", "properties": { "Id": 0, "Nama_Jalan": "Lorong Tanpa Nama", "Armada": "R3", "kelurahan": "Pantoloan" }, "geometry": { "type": "LineString", "coordinates": [ [ 119.862314472793187, -0.710523925969244 ], [ 119.862277463533431, -0.710276454949376 ], [ 119.862141662757011, -0.709579392826189 ], [ 119.862107382412546, -0.709447444002578 ], [ 119.862060263279957, -0.709292551831432 ] ] } },
{ "type": "Feature", "properties": { "Id": 0, "Nama_Jalan": "Jalan Samudra", "Armada": "R3", "kelurahan": "Pantoloan" }, "geometry": { "type": "LineString", "coordinates": [ [ 119.860004040550081, -0.70963090029197 ], [ 119.860149567416101, -0.709517613385602 ], [ 119.860398844293016, -0.709366839752139 ], [ 119.86060681380151, -0.709243346639605 ], [ 119.860659528792766, -0.709228969211837 ], [ 119.860930333444585, -0.709327778330598 ], [ 119.861537337636889, -0.709275759712283 ], [ 119.862060263279957, -0.709292551831432 ], [ 119.862282944876497, -0.709265074705879 ], [ 119.862456773033344, -0.709236277237474 ], [ 119.862646262549859, -0.709185953144552 ], [ 119.863240367910706, -0.709014882545918 ], [ 119.863427722047476, -0.708968145964712 ], [ 119.863784173037928, -0.708922490097505 ] ] } },
{ "type": "Feature", "properties": { "Id": 0, "Nama_Jalan": null, "Armada": "R3", "kelurahan": "Pantoloan" }, "geometry": { "type": "LineString", "coordinates": [ [ 119.860659528792766, -0.709228969211837 ], [ 119.860641290240139, -0.709114696906039 ], [ 119.860494258685009, -0.70869162255522 ], [ 119.860626764822271, -0.708665719826684 ], [ 119.860709402368343, -0.708648454888399 ], [ 119.860816252903348, -0.708612526903933 ], [ 119.860843304384346, -0.70857521410905 ], [ 119.860856089462416, -0.708510655447621 ], [ 119.860833090587164, -0.708185764519917 ] ] } },
{ "type": "Feature", "properties": { "Id": 0, "Nama_Jalan": null, "Armada": "R3", "kelurahan": "Pantoloan" }, "geometry": { "type": "LineString", "coordinates": [ [ 119.860219591699433, -0.706624959203421 ], [ 119.860290097165333, -0.706600819615986 ], [ 119.860632047565332, -0.706532470630403 ], [ 119.860703464233993, -0.706807364568486 ], [ 119.860710635186777, -0.706882669287433 ], [ 119.860690480368007, -0.70693527867635 ], [ 119.860666768990782, -0.706997453343949 ], [ 119.860660889474701, -0.707091892304331 ], [ 119.860668061178416, -0.707168392407495 ], [ 119.860682351863105, -0.707235325020083 ], [ 119.860724010827127, -0.707394285174309 ], [ 119.860823902868361, -0.707629713685881 ], [ 119.860907109497902, -0.707765935700002 ], [ 119.860959405201726, -0.70784240773734 ], [ 119.8609665483649, -0.707872287881787 ], [ 119.860952326557197, -0.707917721289293 ], [ 119.860890666715278, -0.708062401010762 ], [ 119.860833731103781, -0.708165239387066 ], [ 119.860833090587164, -0.708185764519917 ] ] } },
{ "type": "Feature", "properties": { "Id": 0, "Nama_Jalan": null, "Armada": "R3", "kelurahan": "Pantoloan" }, "geometry": { "type": "LineString", "coordinates": [ [ 119.860494258685009, -0.70869162255522 ], [ 119.860314150960676, -0.708711554072928 ], [ 119.860231029295093, -0.708713996552628 ], [ 119.860187090577796, -0.708710437734639 ], [ 119.860166888853072, -0.708686542618136 ], [ 119.860143096825809, -0.708617225133672 ], [ 119.860119315074101, -0.708564643019222 ], [ 119.860087220276938, -0.708510870688051 ], [ 119.860061077520641, -0.708481002338501 ], [ 119.860023065897906, -0.708460704442719 ], [ 119.859958815729613, -0.708447953782577 ], [ 119.859850509917948, -0.708434632821039 ], [ 119.859410085328463, -0.708256794284756 ], [ 119.859363564640361, -0.708225043626932 ] ] } },
{ "type": "Feature", "properties": { "Id": 0, "Nama_Jalan": null, "Armada": "R3", "kelurahan": "Pantoloan" }, "geometry": { "type": "LineString", "coordinates": [ [ 119.8609665483649, -0.707872287881787 ], [ 119.861023730040372, -0.707912476989214 ], [ 119.861095970593539, -0.707981286159042 ], [ 119.861196694053433, -0.708023301028349 ], [ 119.861337300140363, -0.708038514511381 ], [ 119.86161086315532, -0.707988616493522 ], [ 119.862334696408112, -0.7079078367106 ], [ 119.862678572691721, -0.707882758918098 ], [ 119.86278116780035, -0.707878869891012 ], [ 119.862838173426255, -0.707890310098379 ], [ 119.862866714978267, -0.707959146313331 ], [ 119.862927636752104, -0.708159932476632 ], [ 119.862961927509716, -0.708309094722081 ], [ 119.862954361763926, -0.708364565121583 ], [ 119.862984909045821, -0.708605534966558 ], [ 119.863017370439763, -0.708869454925111 ], [ 119.863040239237591, -0.708982284664356 ], [ 119.86306546643273, -0.709065244825206 ] ] } },
{ "type": "Feature", "properties": { "Id": 0, "Nama_Jalan": null, "Armada": "R3", "kelurahan": "Pantoloan" }, "geometry": { "type": "LineString", "coordinates": [ [ 119.861265704226554, -0.70929903796784 ], [ 119.861287960357998, -0.708521719005406 ], [ 119.861374886844558, -0.708527402759418 ], [ 119.86142616978637, -0.708501550580997 ], [ 119.861515888068539, -0.708412558279955 ], [ 119.861545769211787, -0.708342251184349 ], [ 119.861542885819105, -0.708287743524516 ], [ 119.861552819201577, -0.70822031775904 ], [ 119.861578426335527, -0.708151447787782 ], [ 119.86158226054323, -0.707993833623172 ] ] } },
{ "type": "Feature", "properties": { "Id": 0, "Nama_Jalan": null, "Armada": "R3", "kelurahan": "Pantoloan" }, "geometry": { "type": "LineString", "coordinates": [ [ 119.859315317013511, -0.703626957536318 ], [ 119.859359067308617, -0.70345802441977 ], [ 119.859396962177456, -0.703286821891441 ], [ 119.85940451366595, -0.703207443665843 ], [ 119.859427079101408, -0.70282299392688 ], [ 119.859418461787044, -0.702712067513471 ], [ 119.859395589574788, -0.7025925431152 ], [ 119.85937558243549, -0.702497880954835 ], [ 119.859217387387261, -0.701990370096564 ] ] } }
]
}
