{
"type": "FeatureCollection",
"name": "Pengawu",
"crs": { "type": "name", "properties": { "name": "urn:ogc:def:crs:OGC:1.3:CRS84" } },
"features": [
{ "type": "Feature", "properties": { "Id": 0, "Nama_Jalan": "Jl. Padanjakaya", "Armada": 2.0, "kelurahan": "Pengawu" }, "geometry": { "type": "LineString", "coordinates": [ [ 119.856321088137321, -0.922250712889294 ], [ 119.853892790635356, -0.922486713726327 ], [ 119.853598291461324, -0.922501296322961 ], [ 119.852762276168463, -0.922521097842127 ], [ 119.852162541616224, -0.92249050196359 ], [ 119.851503408556155, -0.922433655267077 ], [ 119.851186353966895, -0.922459014418937 ], [ 119.849287324517519, -0.922281237447167 ], [ 119.848453583233365, -0.922177910285777 ], [ 119.847922694878861, -0.922110200616236 ], [ 119.847527212572388, -0.922074657412706 ], [ 119.844831689698111, -0.921789741031055 ] ] } },
{ "type": "Feature", "properties": { "Id": 0, "Nama_Jalan": "Jl. Malontara", "Armada": 2.0, "kelurahan": "Pengawu" }, "geometry": { "type": "LineString", "coordinates": [ [ 119.847527212572388, -0.922074657412706 ], [ 119.847513459351859, -0.92221476896197 ], [ 119.847389280225912, -0.922860383200522 ], [ 119.846972036460471, -0.924471095667094 ], [ 119.846780304540118, -0.925394518665522 ], [ 119.846640361627564, -0.92557349003775 ], [ 119.846397344193264, -0.925815635000193 ], [ 119.845676107595239, -0.92673875877396 ], [ 119.845088415024676, -0.928283040464936 ], [ 119.844634366267996, -0.929550709273227 ], [ 119.844373033276966, -0.930203609568403 ], [ 119.844010250756185, -0.930964178568052 ], [ 119.843937902838633, -0.931080191166336 ], [ 119.843572457719858, -0.931482142684982 ], [ 119.843313779467536, -0.931742950313823 ], [ 119.843164237472067, -0.931855439576479 ], [ 119.843047914442053, -0.931927258214731 ], [ 119.842969992225292, -0.93196324526037 ], [ 119.842878088536949, -0.931979816521081 ], [ 119.84270325554526, -0.931949356389388 ], [ 119.842374008773604, -0.931880051661839 ], [ 119.84217933971992, -0.931839991845013 ] ] } },
{ "type": "Feature", "properties": { "Id": 0, "Nama_Jalan": "BTN BMW Pengawu", "Armada": 2.0, "kelurahan": "Pengawu" }, "geometry": { "type": "MultiLineString", "coordinates": [ [ [ 119.84473362239072, -0.931927828923145 ], [ 119.844449852172033, -0.931827347739814 ] ], [ [ 119.844449852172033, -0.931827347739814 ], [ 119.844166861066412, -0.931727142378893 ], [ 119.844330409942174, -0.93131101026003 ], [ 119.844604045108312, -0.931416420562852 ] ], [ [ 119.844882430726656, -0.9315236607866 ], [ 119.84473362239072, -0.931927828923145 ] ], [ [ 119.844882430726656, -0.9315236607866 ], [ 119.845157204449094, -0.931629509571595 ] ], [ [ 119.844604045108312, -0.931416420562852 ], [ 119.844449852172033, -0.931827347739814 ] ], [ [ 119.844604045108312, -0.931416420562852 ], [ 119.844882430726656, -0.9315236607866 ] ], [ [ 119.843969674208708, -0.9310292445812 ], [ 119.844324531015459, -0.931216074280501 ], [ 119.844389097969966, -0.931026447682377 ], [ 119.845299489357814, -0.931353256722596 ], [ 119.844965125767089, -0.932009802716444 ], [ 119.84473362239072, -0.931927828923145 ] ] ] } },
{ "type": "Feature", "properties": { "Id": 0, "Nama_Jalan": "BTN Banua Gaya", "Armada": 2.0, "kelurahan": "Pengawu" }, "geometry": { "type": "LineString", "coordinates": [ [ 119.843110470227487, -0.931888635842437 ], [ 119.843041272619118, -0.93204535683578 ], [ 119.842582309748877, -0.932820350238928 ] ] } },
{ "type": "Feature", "properties": { "Id": 0, "Nama_Jalan": "Jl. As-Syakirin", "Armada": 2.0, "kelurahan": "Pengawu" }, "geometry": { "type": "LineString", "coordinates": [ [ 119.848800312276239, -0.92492795880461 ], [ 119.849036111042452, -0.923973843016029 ], [ 119.849105617570714, -0.923570699735478 ], [ 119.849136689951848, -0.923220663052557 ], [ 119.849246369734388, -0.92300128910746 ], [ 119.849307392897032, -0.922838955299494 ], [ 119.849418006920601, -0.922293471277084 ] ] } },
{ "type": "Feature", "properties": { "Id": 0, "Nama_Jalan": "Jl. Pue Bongo, Batas Kelurahan Pengawu", "Armada": 1.0, "kelurahan": "Pengawu" }, "geometry": { "type": "LineString", "coordinates": [ [ 119.856321088137321, -0.922250712889294 ], [ 119.856337366000034, -0.920470628 ], [ 119.856321710972395, -0.919661103252106 ], [ 119.856306904374279, -0.918961813616781 ], [ 119.856291708041582, -0.91777122008479 ], [ 119.856297620966529, -0.917462402587712 ] ] } },
{ "type": "Feature", "properties": { "Id": 0, "Nama_Jalan": "BTN Bukit Sira Blok A - H", "Armada": 1.0, "kelurahan": "Pengawu" }, "geometry": { "type": "MultiLineString", "coordinates": [ [ [ 119.843342652805632, -0.927691030048508 ], [ 119.843432726837136, -0.927313835863789 ] ], [ [ 119.843070857048176, -0.927587250149095 ], [ 119.84325578831195, -0.926781321504464 ] ], [ [ 119.843432726837136, -0.927313835863789 ], [ 119.84401915709212, -0.927544010010466 ] ], [ [ 119.843432726837136, -0.927313835863789 ], [ 119.843497861083819, -0.927056367299259 ] ], [ [ 119.84408222607783, -0.927275017711913 ], [ 119.843498288866002, -0.927054676323578 ], [ 119.843548961009645, -0.926854375013478 ] ], [ [ 119.843546487537964, -0.92686415236731 ], [ 119.844136469736526, -0.927067615206689 ] ], [ [ 119.843548961009645, -0.926854375013478 ], [ 119.84325578831195, -0.926781321504464 ] ], [ [ 119.843548961009645, -0.926854375013478 ], [ 119.843720119712131, -0.926131882495595 ] ], [ [ 119.84325578831195, -0.926781321504464 ], [ 119.843010082957633, -0.926720095990811 ] ], [ [ 119.84325578831195, -0.926781321504464 ], [ 119.843431609287137, -0.926040308882408 ] ], [ [ 119.843010082957633, -0.926720095990811 ], [ 119.842834462934988, -0.927499121215856 ] ], [ [ 119.84320353490449, -0.925960401303561 ], [ 119.843010082957633, -0.926720095990811 ] ] ] } },
{ "type": "Feature", "properties": { "Id": 0, "Nama_Jalan": "Jl. Lokampovatu", "Armada": 1.0, "kelurahan": "Pengawu" }, "geometry": { "type": "LineString", "coordinates": [ [ 119.845980523751109, -0.921910288627843 ], [ 119.845866985940717, -0.922655099805204 ], [ 119.845505965243476, -0.924141271114123 ], [ 119.845179209649999, -0.92540746222312 ], [ 119.844891214603734, -0.926510822720212 ] ] } },
{ "type": "Feature", "properties": { "Id": 0, "Nama_Jalan": null, "Armada": 1.0, "kelurahan": "Pengawu" }, "geometry": { "type": "LineString", "coordinates": [ [ 119.846981776698087, -0.924443978887982 ], [ 119.845325699338872, -0.924029193033059 ], [ 119.844365968508043, -0.923793278082664 ], [ 119.843424269232756, -0.923533918089033 ], [ 119.84335014191339, -0.923503853723096 ], [ 119.843146552729635, -0.923749314061789 ], [ 119.844088720489026, -0.924000066757366 ], [ 119.844924462396762, -0.924225084042354 ], [ 119.845834312784135, -0.924457213359758 ], [ 119.846444356911192, -0.924604471935454 ], [ 119.846675022759499, -0.924658795751404 ] ] } },
{ "type": "Feature", "properties": { "Id": 0, "Nama_Jalan": null, "Armada": 1.0, "kelurahan": "Pengawu" }, "geometry": { "type": "LineString", "coordinates": [ [ 119.846510278935526, -0.924325900323776 ], [ 119.846444356911192, -0.924604471935454 ], [ 119.846287161551317, -0.925246049321882 ] ] } },
{ "type": "Feature", "properties": { "Id": 0, "Nama_Jalan": null, "Armada": 1.0, "kelurahan": "Pengawu" }, "geometry": { "type": "LineString", "coordinates": [ [ 119.846571827285757, -0.92498498353169 ], [ 119.84587767586244, -0.924801931185345 ], [ 119.845889028337396, -0.924741673948913 ], [ 119.845384249242869, -0.924612924969339 ], [ 119.844775838375469, -0.924471456222769 ], [ 119.844005425219962, -0.924263361039079 ], [ 119.842955651144706, -0.923995481488729 ], [ 119.842762046531419, -0.924252409779219 ], [ 119.844051599086114, -0.92468314830204 ], [ 119.84528147068427, -0.925011196075642 ], [ 119.846783762398786, -0.925375100257917 ] ] } },
{ "type": "Feature", "properties": { "Id": 0, "Nama_Jalan": null, "Armada": 1.0, "kelurahan": "Pengawu" }, "geometry": { "type": "LineString", "coordinates": [ [ 119.844780767396983, -0.921786109399949 ], [ 119.844768591139726, -0.921929325829768 ], [ 119.84462758526486, -0.922622053779982 ], [ 119.844338182616795, -0.92382175100271 ], [ 119.844084820953697, -0.924795010935409 ], [ 119.843720119712131, -0.926131882495595 ] ] } },
{ "type": "Feature", "properties": { "Id": 0, "Nama_Jalan": null, "Armada": 1.0, "kelurahan": "Pengawu" }, "geometry": { "type": "LineString", "coordinates": [ [ 119.844809754704215, -0.92447934251129 ], [ 119.844522319976548, -0.925545129648447 ], [ 119.84431869961702, -0.926346212015528 ] ] } },
{ "type": "Feature", "properties": { "Id": 0, "Nama_Jalan": null, "Armada": 1.0, "kelurahan": "Pengawu" }, "geometry": { "type": "MultiLineString", "coordinates": [ [ [ 119.844603252736661, -0.925245036513268 ], [ 119.845183718305748, -0.925389990967747 ] ], [ [ 119.844001923118682, -0.925098885956022 ], [ 119.84459973766846, -0.925266169809393 ] ] ] } },
{ "type": "Feature", "properties": { "Id": 0, "Nama_Jalan": null, "Armada": 1.0, "kelurahan": "Pengawu" }, "geometry": { "type": "LineString", "coordinates": [ [ 119.843932832680153, -0.925352147996707 ], [ 119.844527158358659, -0.925527189251547 ], [ 119.845103263642542, -0.925698424604173 ] ] } },
{ "type": "Feature", "properties": { "Id": 0, "Nama_Jalan": null, "Armada": 1.0, "kelurahan": "Pengawu" }, "geometry": { "type": "LineString", "coordinates": [ [ 119.843863737019845, -0.925605429358808 ], [ 119.844544265550041, -0.925812642340671 ], [ 119.845210644023254, -0.926014126148026 ], [ 119.845544102480432, -0.92612992971955 ] ] } },
{ "type": "Feature", "properties": { "Id": 0, "Nama_Jalan": null, "Armada": 1.0, "kelurahan": "Pengawu" }, "geometry": { "type": "LineString", "coordinates": [ [ 119.846019305506971, -0.925189923951596 ], [ 119.845863302820916, -0.92569084088796 ], [ 119.845151151513747, -0.925514957800606 ] ] } },
{ "type": "Feature", "properties": { "Id": 0, "Nama_Jalan": null, "Armada": 1.0, "kelurahan": "Pengawu" }, "geometry": { "type": "LineString", "coordinates": [ [ 119.845682683242558, -0.925646232516061 ], [ 119.845606936904773, -0.925873226855948 ], [ 119.845098546848774, -0.925716495470744 ] ] } },
{ "type": "Feature", "properties": { "Id": 0, "Nama_Jalan": null, "Armada": 1.0, "kelurahan": "Pengawu" }, "geometry": { "type": "LineString", "coordinates": [ [ 119.845676107595239, -0.92673875877396 ], [ 119.844891214603734, -0.926510822720212 ], [ 119.84431869961702, -0.926346212015528 ], [ 119.843720119712131, -0.926131882495595 ], [ 119.843431609287137, -0.926040308882408 ], [ 119.84320353490449, -0.925960401303544 ] ] } },
{ "type": "Feature", "properties": { "Id": 0, "Nama_Jalan": null, "Armada": 1.0, "kelurahan": "Pengawu" }, "geometry": { "type": "LineString", "coordinates": [ [ 119.843796157488669, -0.925853153277482 ], [ 119.844397773549474, -0.926035119450397 ], [ 119.844968406674852, -0.926215085747408 ], [ 119.845474452498394, -0.926377911714058 ], [ 119.845848028270041, -0.926518714310322 ] ] } },
{ "type": "Feature", "properties": { "Id": 0, "Nama_Jalan": null, "Armada": 1.0, "kelurahan": "Pengawu" }, "geometry": { "type": "LineString", "coordinates": [ [ 119.842834462934988, -0.927499121215856 ], [ 119.843342652805632, -0.927691030048508 ], [ 119.844311472456155, -0.928002962287506 ], [ 119.845104153985005, -0.928241683085515 ] ] } },
{ "type": "Feature", "properties": { "Id": 0, "Nama_Jalan": null, "Armada": 1.0, "kelurahan": "Pengawu" }, "geometry": { "type": "LineString", "coordinates": [ [ 119.843937191842073, -0.927882454699279 ], [ 119.84401915709212, -0.927544010010466 ], [ 119.844114586565837, -0.927184117356236 ], [ 119.84431869961702, -0.926346212015528 ] ] } },
{ "type": "Feature", "properties": { "Id": 0, "Nama_Jalan": null, "Armada": 1.0, "kelurahan": "Pengawu" }, "geometry": { "type": "LineString", "coordinates": [ [ 119.844891214603734, -0.926510822720212 ], [ 119.844729443306093, -0.927209201287742 ], [ 119.845411091567016, -0.927411203377126 ] ] } },
{ "type": "Feature", "properties": { "Id": 0, "Nama_Jalan": null, "Armada": 1.0, "kelurahan": "Pengawu" }, "geometry": { "type": "LineString", "coordinates": [ [ 119.843342652805632, -0.927691030048508 ], [ 119.843057719692993, -0.928547008478737 ], [ 119.84295358797344, -0.929013777467434 ], [ 119.842781033255193, -0.929455737669792 ], [ 119.84264740370341, -0.929864195178155 ], [ 119.842634621729033, -0.929918715856154 ], [ 119.842628969691575, -0.929978968678669 ], [ 119.8426290236727, -0.930046389281668 ], [ 119.842622409343889, -0.930091341745976 ], [ 119.842542775531726, -0.930303709684383 ], [ 119.842506775669079, -0.930430929635328 ], [ 119.842492623804048, -0.930554306574216 ], [ 119.842468935483055, -0.930632744153875 ], [ 119.84244237404225, -0.930682494427495 ], [ 119.842431961082625, -0.930729362629024 ], [ 119.842417787787795, -0.930825962597305 ], [ 119.842382430200786, -0.930924731492787 ], [ 119.842369654013467, -0.930986424600135 ], [ 119.842365479981112, -0.931112662420607 ], [ 119.842354163368171, -0.931217388810852 ], [ 119.842192655932578, -0.931810439376087 ], [ 119.842173688757143, -0.931852532941525 ], [ 119.842010922295245, -0.932652150198416 ], [ 119.841967330701749, -0.932789895990604 ], [ 119.841633511710157, -0.933534186092104 ], [ 119.841294122616588, -0.934440099602946 ], [ 119.841205924669623, -0.934634783069455 ], [ 119.841115345464786, -0.934821817924533 ], [ 119.840753881459136, -0.935448982088783 ], [ 119.840701234584557, -0.935549438916267 ], [ 119.840682747894604, -0.93559822645739 ], [ 119.840672839356586, -0.9356814346256 ], [ 119.840670053879052, -0.935761768016231 ], [ 119.840665879137873, -0.935886571552776 ], [ 119.840613442544679, -0.936248104382962 ], [ 119.840576545480459, -0.936440355401765 ], [ 119.8404770746738, -0.936793319783451 ], [ 119.840367521044087, -0.937160398224574 ] ] } },
{ "type": "Feature", "properties": { "Id": 0, "Nama_Jalan": null, "Armada": 2.0, "kelurahan": "Pengawu" }, "geometry": { "type": "LineString", "coordinates": [ [ 119.844729445267987, -0.929272627545118 ], [ 119.845418550329754, -0.929426526188829 ], [ 119.845750647763566, -0.929497980553284 ], [ 119.845691044473497, -0.929809310663422 ], [ 119.84547484743922, -0.930324463906973 ], [ 119.845433568863612, -0.930384745529834 ], [ 119.84533483567148, -0.930473763403753 ], [ 119.845141411818986, -0.930953992750066 ], [ 119.844856312404048, -0.930846638542181 ], [ 119.845051864971964, -0.930355170630305 ], [ 119.845329837017161, -0.930460139919524 ] ] } },
{ "type": "Feature", "properties": { "Id": 0, "Nama_Jalan": null, "Armada": 2.0, "kelurahan": "Pengawu" }, "geometry": { "type": "MultiLineString", "coordinates": [ [ [ 119.845141411818986, -0.930953992750066 ], [ 119.845438933251842, -0.931051773593363 ], [ 119.845728300827531, -0.93042454605941 ] ], [ [ 119.845930394235012, -0.930523008052275 ], [ 119.845728300827531, -0.93042454605941 ] ], [ [ 119.845728300827531, -0.93042454605941 ], [ 119.845483001777723, -0.93030503378007 ] ] ] } },
{ "type": "Feature", "properties": { "Id": 0, "Nama_Jalan": null, "Armada": 2.0, "kelurahan": "Pengawu" }, "geometry": { "type": "LineString", "coordinates": [ [ 119.844166861066412, -0.931727142378893 ], [ 119.843898492494816, -0.932424627806043 ] ] } },
{ "type": "Feature", "properties": { "Id": 0, "Nama_Jalan": null, "Armada": 2.0, "kelurahan": "Pengawu" }, "geometry": { "type": "LineString", "coordinates": [ [ 119.84179335229517, -0.933177801922707 ], [ 119.842087714093239, -0.933324565052093 ], [ 119.842197264732562, -0.933100696626122 ] ] } },
{ "type": "Feature", "properties": { "Id": 0, "Nama_Jalan": null, "Armada": 2.0, "kelurahan": "Pengawu" }, "geometry": { "type": "LineString", "coordinates": [ [ 119.84279486242184, -0.931965316522564 ], [ 119.842958564344713, -0.931270037291659 ], [ 119.843215122622638, -0.931327208081867 ], [ 119.843087526646002, -0.931902801367351 ] ] } },
{ "type": "Feature", "properties": { "Id": 0, "Nama_Jalan": null, "Armada": 2.0, "kelurahan": "Pengawu" }, "geometry": { "type": "LineString", "coordinates": [ [ 119.844010250756185, -0.930964178568052 ], [ 119.843680501696497, -0.930852255915807 ] ] } },
{ "type": "Feature", "properties": { "Id": 0, "Nama_Jalan": null, "Armada": 2.0, "kelurahan": "Pengawu" }, "geometry": { "type": "LineString", "coordinates": [ [ 119.844642569938486, -0.93078955259813 ], [ 119.8445014515884, -0.930743763913873 ], [ 119.844389097969966, -0.931026447682377 ] ] } },
{ "type": "Feature", "properties": { "Id": 0, "Nama_Jalan": null, "Armada": 2.0, "kelurahan": "Pengawu" }, "geometry": { "type": "LineString", "coordinates": [ [ 119.849096642765844, -0.923622754261316 ], [ 119.849517868908151, -0.923729697079778 ], [ 119.849587684125225, -0.923713861480851 ], [ 119.849620442139383, -0.923690883450139 ], [ 119.849647488489978, -0.923653565302963 ], [ 119.84967168243989, -0.923613380515054 ], [ 119.849796826764816, -0.92328621961126 ], [ 119.849805293662513, -0.923181496252965 ], [ 119.849652794888499, -0.923159385037211 ] ] } },
{ "type": "Feature", "properties": { "Id": 0, "Nama_Jalan": null, "Armada": 2.0, "kelurahan": "Pengawu" }, "geometry": { "type": "LineString", "coordinates": [ [ 119.849038749566901, -0.923958539355048 ], [ 119.849629567410204, -0.924114045648604 ], [ 119.849552872918352, -0.924438298571579 ], [ 119.848958184572169, -0.924289157649203 ], [ 119.848383536910987, -0.924145524993767 ], [ 119.848312531026451, -0.924455428900425 ], [ 119.848879585317476, -0.924607194891082 ] ] } },
{ "type": "Feature", "properties": { "Id": 0, "Nama_Jalan": null, "Armada": 2.0, "kelurahan": "Pengawu" }, "geometry": { "type": "LineString", "coordinates": [ [ 119.848879585317476, -0.924607194891082 ], [ 119.84946760525709, -0.924733869002302 ], [ 119.849397956033727, -0.924957703171601 ], [ 119.849308193421905, -0.924977858398797 ], [ 119.848800312276239, -0.92492795880461 ] ] } },
{ "type": "Feature", "properties": { "Id": 0, "Nama_Jalan": null, "Armada": 2.0, "kelurahan": "Pengawu" }, "geometry": { "type": "LineString", "coordinates": [ [ 119.849397956033727, -0.924957703171601 ], [ 119.849346542280102, -0.925264124378243 ], [ 119.849228343517311, -0.92596041786252 ], [ 119.849178476025045, -0.925972412183095 ], [ 119.848619755586014, -0.925850934165815 ] ] } },
{ "type": "Feature", "properties": { "Id": 0, "Nama_Jalan": null, "Armada": 2.0, "kelurahan": "Pengawu" }, "geometry": { "type": "LineString", "coordinates": [ [ 119.848800312276239, -0.92492795880461 ], [ 119.848619755586014, -0.925850934165798 ], [ 119.848141064193982, -0.927497819897037 ], [ 119.847271587783297, -0.92726183608448 ], [ 119.846143601358577, -0.926903174111862 ], [ 119.845676107595239, -0.92673875877396 ] ] } },
{ "type": "Feature", "properties": { "Id": 0, "Nama_Jalan": null, "Armada": 2.0, "kelurahan": "Pengawu" }, "geometry": { "type": "MultiLineString", "coordinates": [ [ [ 119.847674646808599, -0.927068811620939 ], [ 119.847590614199987, -0.927348422809044 ] ], [ [ 119.847674646808599, -0.927068811620939 ], [ 119.847749482879195, -0.926797156972564 ], [ 119.84692560504071, -0.926556832108476 ], [ 119.846043621003119, -0.926268371601236 ] ], [ [ 119.845867193987957, -0.926494183755204 ], [ 119.846432155663607, -0.926678683908537 ], [ 119.847674646808599, -0.927068811620939 ] ] ] } },
{ "type": "Feature", "properties": { "Id": 0, "Nama_Jalan": null, "Armada": 2.0, "kelurahan": "Pengawu" }, "geometry": { "type": "LineString", "coordinates": [ [ 119.846210073495286, -0.926055326069878 ], [ 119.846705864860112, -0.926205563170149 ], [ 119.847828594560227, -0.926525977054264 ], [ 119.847902482212703, -0.926256235875467 ], [ 119.847152259208755, -0.926048844050837 ], [ 119.846385850821434, -0.925830345567824 ] ] } },
{ "type": "Feature", "properties": { "Id": 0, "Nama_Jalan": null, "Armada": 2.0, "kelurahan": "Pengawu" }, "geometry": { "type": "LineString", "coordinates": [ [ 119.846786435690717, -0.925360087767933 ], [ 119.847270805182632, -0.925489302468509 ], [ 119.848041684582753, -0.9256883101301 ], [ 119.848622660509761, -0.9258360846584 ] ] } },
{ "type": "Feature", "properties": { "Id": 0, "Nama_Jalan": null, "Armada": 2.0, "kelurahan": "Pengawu" }, "geometry": { "type": "MultiLineString", "coordinates": [ [ [ 119.848299388781456, -0.92695312056394 ], [ 119.848018046044558, -0.926888445269963 ] ], [ [ 119.848018046044558, -0.926888445269963 ], [ 119.847864483207474, -0.927422753347286 ] ], [ [ 119.848409051746401, -0.92657583695705 ], [ 119.848166322343872, -0.926511358825558 ], [ 119.848136393792672, -0.926508514111573 ], [ 119.84802125860891, -0.926877267449458 ], [ 119.848018046044558, -0.926888445269963 ] ] ] } },
{ "type": "Feature", "properties": { "Id": 0, "Nama_Jalan": null, "Armada": 2.0, "kelurahan": "Pengawu" }, "geometry": { "type": "LineString", "coordinates": [ [ 119.848530027973453, -0.926159631725832 ], [ 119.847958468078488, -0.926024283730777 ], [ 119.847971486254025, -0.925968089583677 ], [ 119.847184221365339, -0.925772681527292 ], [ 119.847243844601863, -0.925482110228444 ] ] } },
{ "type": "Feature", "properties": { "Id": 0, "Nama_Jalan": null, "Armada": 2.0, "kelurahan": "Pengawu" }, "geometry": { "type": "LineString", "coordinates": [ [ 119.848802902917924, -0.924917476240181 ], [ 119.848240111210529, -0.924779200576786 ], [ 119.848155532525752, -0.924747710492073 ], [ 119.847421946826302, -0.924553931857655 ], [ 119.846981776698087, -0.924443978887982 ] ] } },
{ "type": "Feature", "properties": { "Id": 0, "Nama_Jalan": null, "Armada": 2.0, "kelurahan": "Pengawu" }, "geometry": { "type": "LineString", "coordinates": [ [ 119.847224500257298, -0.925476949761852 ], [ 119.84728561887745, -0.925153174820918 ], [ 119.847696592313454, -0.925254451265625 ], [ 119.847753369618388, -0.92497229184958 ], [ 119.847353084210312, -0.924871006677794 ], [ 119.847421946826302, -0.924553931857655 ] ] } },
{ "type": "Feature", "properties": { "Id": 0, "Nama_Jalan": null, "Armada": 2.0, "kelurahan": "Pengawu" }, "geometry": { "type": "MultiLineString", "coordinates": [ [ [ 119.849037356278956, -0.923966620540707 ], [ 119.848072637105346, -0.923699415297214 ] ], [ [ 119.848072637105346, -0.923699415297214 ], [ 119.847957552557517, -0.924132719719026 ], [ 119.847822544857777, -0.924659750942536 ] ], [ [ 119.848072637105346, -0.923699415297214 ], [ 119.847233274232948, -0.923462622088532 ] ] ] } },
{ "type": "Feature", "properties": { "Id": 0, "Nama_Jalan": null, "Armada": 2.0, "kelurahan": "Pengawu" }, "geometry": { "type": "LineString", "coordinates": [ [ 119.851520466406157, -0.922435126417284 ], [ 119.851475932051301, -0.922979430725632 ], [ 119.851406584754869, -0.923581964507762 ], [ 119.851371404719785, -0.924141436602143 ], [ 119.851346123586723, -0.924604791165611 ], [ 119.850551124603669, -0.924833515299723 ], [ 119.850401517737311, -0.924863760244977 ], [ 119.849935551663208, -0.924898564523312 ], [ 119.849410031032903, -0.924918897311431 ] ] } },
{ "type": "Feature", "properties": { "Id": 0, "Nama_Jalan": null, "Armada": 2.0, "kelurahan": "Pengawu" }, "geometry": { "type": "LineString", "coordinates": [ [ 119.846185448814467, -0.926916480218533 ], [ 119.845994539760568, -0.927467911163777 ], [ 119.845719725031984, -0.928340296375926 ], [ 119.84560405860006, -0.928638761596219 ], [ 119.845583179092188, -0.928665555453491 ], [ 119.845547086655202, -0.92867706054783 ], [ 119.84500833233426, -0.928506624860335 ] ] } },
{ "type": "Feature", "properties": { "Id": 0, "Nama_Jalan": null, "Armada": 1.0, "kelurahan": "Pengawu" }, "geometry": { "type": "LineString", "coordinates": [ [ 119.844727884248357, -0.929289614069189 ], [ 119.844101922994057, -0.929087178538206 ], [ 119.843298472704021, -0.928853053227946 ], [ 119.843207504042539, -0.929147673744635 ], [ 119.842934282010603, -0.929063225341645 ] ] } },
{ "type": "Feature", "properties": { "Id": 0, "Nama_Jalan": null, "Armada": 1.0, "kelurahan": "Pengawu" }, "geometry": { "type": "MultiLineString", "coordinates": [ [ [ 119.850857546424521, -0.922428233312691 ], [ 119.850890900005183, -0.922125675375321 ], [ 119.850890702067858, -0.921877033800297 ], [ 119.850966273118331, -0.921334264483068 ] ], [ [ 119.850966273118331, -0.921334264483068 ], [ 119.850718298547406, -0.921315497454142 ], [ 119.850710783457345, -0.921422610737106 ], [ 119.849897475898757, -0.921327634708762 ] ], [ [ 119.850966273118331, -0.921334264483068 ], [ 119.850973418375773, -0.920933550248631 ] ], [ [ 119.850973418375773, -0.920933550248631 ], [ 119.850034965499191, -0.920843867569058 ], [ 119.850054754386079, -0.92064015652192 ], [ 119.850432427017509, -0.920681452090596 ] ], [ [ 119.850973418375773, -0.920933550248631 ], [ 119.850979915298254, -0.920569202051383 ], [ 119.851005629025906, -0.920050380847149 ] ] ] } },
{ "type": "Feature", "properties": { "Id": 0, "Nama_Jalan": null, "Armada": 1.0, "kelurahan": "Pengawu" }, "geometry": { "type": "LineString", "coordinates": [ [ 119.851416096207359, -0.919666727913661 ], [ 119.851370813564841, -0.92006841622193 ], [ 119.851005629025906, -0.920050380847149 ], [ 119.850701988333398, -0.920068954613228 ], [ 119.849960921949162, -0.920021735252391 ], [ 119.848987977658069, -0.919888633749314 ], [ 119.848716219847375, -0.919829560694583 ], [ 119.848324769341033, -0.919785884884543 ], [ 119.848035889466402, -0.919700048614151 ], [ 119.847954171003053, -0.919680987962708 ], [ 119.84761213440953, -0.919652573351624 ], [ 119.847093343465303, -0.919565009024878 ], [ 119.846127956410996, -0.919380258749186 ], [ 119.84575448209533, -0.919336926471726 ], [ 119.845718076369963, -0.919351982120404 ], [ 119.845700053910249, -0.91938771509354 ], [ 119.845577809531633, -0.920336302042939 ], [ 119.845505635620654, -0.92052284222595 ], [ 119.845323485787091, -0.920848137102864 ], [ 119.845233124986564, -0.921018088036759 ], [ 119.845062317425985, -0.921269976429801 ], [ 119.84498756830115, -0.921353953571188 ], [ 119.844934209908203, -0.921456561741375 ], [ 119.844831689698111, -0.921789741031055 ], [ 119.844780767396983, -0.921786109399949 ] ] } },
{ "type": "Feature", "properties": { "Id": 0, "Nama_Jalan": null, "Armada": 1.0, "kelurahan": "Pengawu" }, "geometry": { "type": "LineString", "coordinates": [ [ 119.844517212685162, -0.928064922229416 ], [ 119.844128741553305, -0.929095851651026 ] ] } }
]
}
