{
"type": "FeatureCollection",
"name": "Petobo",
"crs": { "type": "name", "properties": { "name": "urn:ogc:def:crs:OGC:1.3:CRS84" } },
"features": [
{ "type": "Feature", "properties": { "Id": 0, "Nama_Jalan": "Jl. Dewi Sartika", "Armada": null, "kelurahan": "Petobo" }, "geometry": { "type": "LineString", "coordinates": [ [ 119.898226491268687, -0.932616277640689 ], [ 119.898907338578695, -0.934369887364738 ], [ 119.899586828503359, -0.936107946757149 ], [ 119.899896254227073, -0.936929486079347 ], [ 119.900338680993968, -0.937751511581296 ], [ 119.900803923731843, -0.938880122083008 ], [ 119.901029989403611, -0.939414250106223 ], [ 119.901317999806494, -0.940183807974422 ], [ 119.90140145068672, -0.940578200180372 ], [ 119.901601877822571, -0.941699260650969 ], [ 119.901606847459163, -0.9419646218222 ], [ 119.901572462229453, -0.942172935182437 ] ] } },
{ "type": "Feature", "properties": { "Id": 0, "Nama_Jalan": "Jl. Lembaga", "Armada": null, "kelurahan": "Petobo" }, "geometry": { "type": "LineString", "coordinates": [ [ 119.898578700082581, -0.933523437930184 ], [ 119.898825248999813, -0.933460300063013 ], [ 119.900029249050718, -0.933308687070253 ], [ 119.901416171191315, -0.933216688984284 ] ] } },
{ "type": "Feature", "properties": { "Id": 0, "Nama_Jalan": "Jl. Salemba", "Armada": null, "kelurahan": "Petobo" }, "geometry": { "type": "LineString", "coordinates": [ [ 119.899541864373461, -0.935992933830747 ], [ 119.89996832633264, -0.935872007621892 ], [ 119.899998015767011, -0.935874373576262 ], [ 119.900021782445847, -0.935894674579518 ], [ 119.900057487002812, -0.935991467464738 ], [ 119.900080067167593, -0.936012964793439 ], [ 119.900112132580716, -0.936016524104573 ], [ 119.900486122331927, -0.935928315154901 ], [ 119.900763339582952, -0.936789111716133 ] ] } },
{ "type": "Feature", "properties": { "Id": 0, "Nama_Jalan": "Jl. Dewi Sartika V", "Armada": null, "kelurahan": "Petobo" }, "geometry": { "type": "LineString", "coordinates": [ [ 119.899590396653522, -0.93611742037014 ], [ 119.899203485423413, -0.936267067556325 ], [ 119.899160739363253, -0.936271884531942 ], [ 119.899127487010659, -0.936269043410226 ], [ 119.89904858199364, -0.936202169978225 ], [ 119.898578840351021, -0.936243202847116 ], [ 119.897808175914761, -0.936272532821071 ], [ 119.897223953651292, -0.9363076841812 ] ] } },
{ "type": "Feature", "properties": { "Id": 0, "Nama_Jalan": "Jl. Jend. H.Moh. Soeharto", "Armada": null, "kelurahan": "Petobo" }, "geometry": { "type": "LineString", "coordinates": [ [ 119.900350787506511, -0.9377808802517 ], [ 119.900568222209969, -0.937784969145643 ], [ 119.901107854627767, -0.937824682064448 ], [ 119.901885524371409, -0.937940697760728 ], [ 119.901807315550627, -0.938500140793926 ], [ 119.901796076493795, -0.938695229540741 ] ] } },
{ "type": "Feature", "properties": { "Id": 0, "Nama_Jalan": "Jl. Dewi Sartika IV", "Armada": null, "kelurahan": "Petobo" }, "geometry": { "type": "LineString", "coordinates": [ [ 119.901000759421223, -0.939345188132276 ], [ 119.900474662566623, -0.939387823649394 ], [ 119.900257356067186, -0.939395177389039 ], [ 119.899578093232961, -0.939380205812456 ], [ 119.899465287593742, -0.93938866749502 ], [ 119.898800992715806, -0.939380855294289 ] ] } },
{ "type": "Feature", "properties": { "Id": 0, "Nama_Jalan": "Jl. Dewi Sartika III", "Armada": null, "kelurahan": "Petobo" }, "geometry": { "type": "MultiLineString", "coordinates": [ [ [ 119.903286043334944, -0.941416902980874 ], [ 119.903435669152927, -0.941418211880542 ] ], [ [ 119.903286043334944, -0.941416902980874 ], [ 119.903070862894737, -0.941409911434821 ] ], [ [ 119.901329202175731, -0.940236750865155 ], [ 119.901557154421326, -0.940210746283565 ], [ 119.901732893133286, -0.940197211351461 ], [ 119.901873510316889, -0.940218131586589 ], [ 119.901897273715193, -0.940234368300751 ], [ 119.901912491867947, -0.940256349796703 ], [ 119.901980583594352, -0.940745425487206 ], [ 119.901997229326312, -0.940770513659402 ], [ 119.902025739169019, -0.940782443162276 ], [ 119.90227749371553, -0.940788208915637 ], [ 119.902715722905569, -0.940839241228618 ], [ 119.903031630831038, -0.940879617940888 ], [ 119.903446106850026, -0.940927083990198 ], [ 119.903474816228368, -0.940941005523456 ], [ 119.903489088938798, -0.940968486316468 ], [ 119.903497470656859, -0.941052152903785 ], [ 119.903512929877877, -0.941078437362481 ], [ 119.903558065636844, -0.941091548224438 ], [ 119.904085339795088, -0.941122184787467 ], [ 119.904119509239621, -0.941167075703652 ], [ 119.904142756960965, -0.941707826510977 ], [ 119.903853440877185, -0.94171717379927 ], [ 119.903851293813773, -0.941418819492133 ], [ 119.903672695901989, -0.941420881859559 ], [ 119.903669133462714, -0.941707765768585 ], [ 119.90327204157586, -0.941716705393153 ], [ 119.903286043334944, -0.941416902980874 ] ] ] } },
{ "type": "Feature", "properties": { "Id": 0, "Nama_Jalan": "Jl. Adam Malik", "Armada": null, "kelurahan": "Petobo" }, "geometry": { "type": "LineString", "coordinates": [ [ 119.903699601977522, -0.932143027999857 ], [ 119.904649122594947, -0.932137645057563 ], [ 119.905038014093293, -0.932122380209567 ], [ 119.907240701981777, -0.931989062415209 ], [ 119.908319480000657, -0.931920031296687 ], [ 119.908583078891994, -0.931891124069217 ], [ 119.908704645896236, -0.931852294194992 ], [ 119.908993301681221, -0.931679926335063 ], [ 119.909048385415645, -0.931660755215778 ], [ 119.909141473462469, -0.931647290078542 ], [ 119.910461892992956, -0.931565865398343 ], [ 119.910535504179776, -0.931550025794414 ], [ 119.910834684682371, -0.931469450697476 ] ] } },
{ "type": "Feature", "properties": { "Id": 0, "Nama_Jalan": "Lrg. Gembira", "Armada": null, "kelurahan": "Petobo" }, "geometry": { "type": "LineString", "coordinates": [ [ 119.909684454717762, -0.931613806773414 ], [ 119.909734532914797, -0.93225956314028 ], [ 119.909760785318383, -0.932511277936097 ], [ 119.90977988630209, -0.932634381092914 ], [ 119.909791789667267, -0.932669035769598 ], [ 119.909806062112949, -0.932696516488263 ], [ 119.909827457517963, -0.932721600612146 ], [ 119.909860720917862, -0.932738307535375 ], [ 119.909908225320336, -0.932744244620098 ], [ 119.91060517985072, -0.93262174038275 ], [ 119.910547937809369, -0.932326541586207 ] ] } },
{ "type": "Feature", "properties": { "Id": 0, "Nama_Jalan": "Jl. Merdeka", "Armada": null, "kelurahan": "Petobo" }, "geometry": { "type": "LineString", "coordinates": [ [ 119.901943829966399, -0.932167641044709 ], [ 119.90194328611399, -0.933379857328699 ], [ 119.901950387967844, -0.934798121191986 ], [ 119.901955070765453, -0.934860872592539 ], [ 119.902024913227947, -0.934882330545607 ], [ 119.903130647906195, -0.934806820669421 ], [ 119.904139484699328, -0.934734738255809 ], [ 119.904800670542173, -0.934721277752706 ] ] } },
{ "type": "Feature", "properties": { "Id": 0, "Nama_Jalan": "Jl. Bulili", "Armada": null, "kelurahan": "Petobo" }, "geometry": { "type": "LineString", "coordinates": [ [ 119.90481262285445, -0.926936644392194 ], [ 119.904655007668836, -0.927229789050075 ], [ 119.904620919482298, -0.92736656368912 ], [ 119.90460204836036, -0.927524363673255 ], [ 119.904614709810289, -0.928487794206834 ], [ 119.904644104487133, -0.929582697832331 ], [ 119.904673519809833, -0.930701508101098 ], [ 119.90466955516996, -0.931660170987434 ], [ 119.904678832749468, -0.932136478869876 ], [ 119.904670626851626, -0.932387890745946 ], [ 119.904734007822526, -0.933218118508324 ], [ 119.904788858139227, -0.934071064660076 ], [ 119.90483143116316, -0.935011519549482 ], [ 119.904882132309581, -0.936015559451589 ] ] } },
{ "type": "Feature", "properties": { "Id": 0, "Nama_Jalan": "Jl. Bulili I", "Armada": null, "kelurahan": "Petobo" }, "geometry": { "type": "LineString", "coordinates": [ [ 119.90462040998996, -0.928700119699706 ], [ 119.90556162552646, -0.928645153226735 ], [ 119.906751426999165, -0.928566710173621 ] ] } },
{ "type": "Feature", "properties": { "Id": 0, "Nama_Jalan": "Jl. Bulili II", "Armada": null, "kelurahan": "Petobo" }, "geometry": { "type": "LineString", "coordinates": [ [ 119.90463579829715, -0.929273309896684 ], [ 119.905335535785937, -0.929236792416978 ], [ 119.906351482131583, -0.929149886473512 ], [ 119.906797478563519, -0.929119394423614 ], [ 119.907688062319011, -0.929078492987488 ], [ 119.907726559239862, -0.929105714662052 ], [ 119.907739425193199, -0.929155907976763 ], [ 119.907748704367592, -0.929756674590327 ] ] } },
{ "type": "Feature", "properties": { "Id": 0, "Nama_Jalan": "Jl. Bulili III", "Armada": null, "kelurahan": "Petobo" }, "geometry": { "type": "LineString", "coordinates": [ [ 119.904650855787793, -0.929839486970037 ], [ 119.905329488743618, -0.929828727547445 ], [ 119.906185374861963, -0.929758210345311 ], [ 119.906694062656399, -0.929717625273035 ], [ 119.907352394957044, -0.92970273523916 ], [ 119.907313501178308, -0.929095695310819 ] ] } },
{ "type": "Feature", "properties": { "Id": 0, "Nama_Jalan": "Jl. Tanggul Selatan", "Armada": null, "kelurahan": "Petobo" }, "geometry": { "type": "LineString", "coordinates": [ [ 119.90481262285445, -0.926936644392194 ], [ 119.905495440370672, -0.927240173406047 ], [ 119.905911123254697, -0.92746060805223 ], [ 119.906788412827211, -0.928007823411647 ], [ 119.907933269245646, -0.928731725224363 ], [ 119.90854964457489, -0.929106070442783 ], [ 119.909335699849322, -0.929610804497846 ], [ 119.909632234003908, -0.929778382820639 ], [ 119.909769581486358, -0.929868635792123 ], [ 119.909862265373945, -0.929941713066054 ], [ 119.90994782552059, -0.930016230638484 ], [ 119.910034837697552, -0.930123738111516 ], [ 119.910424376920474, -0.930755983170186 ], [ 119.910862075241184, -0.931468035689386 ] ] } },
{ "type": "Feature", "properties": { "Id": 0, "Nama_Jalan": "Jl. Sapta Marga I", "Armada": null, "kelurahan": "Petobo" }, "geometry": { "type": "LineString", "coordinates": [ [ 119.896873450017694, -0.927040409740835 ], [ 119.897002712550375, -0.927361021359767 ], [ 119.897211245756537, -0.927954696378593 ], [ 119.897247164292949, -0.928023518562187 ], [ 119.897284031275376, -0.928090427407879 ], [ 119.897354174520444, -0.928189583073766 ], [ 119.897379147049705, -0.928232594845199 ], [ 119.897408898788555, -0.928311462986673 ], [ 119.897456518529324, -0.928458450972686 ], [ 119.897498214433654, -0.928622178650082 ], [ 119.897516093160959, -0.928703447264078 ], [ 119.897547060689888, -0.928816979346732 ] ] } },
{ "type": "Feature", "properties": { "Id": 0, "Nama_Jalan": "Jl. Sapta Marga II", "Armada": null, "kelurahan": "Petobo" }, "geometry": { "type": "LineString", "coordinates": [ [ 119.897342443071622, -0.92690698867684 ], [ 119.897532851506398, -0.927409115197106 ], [ 119.897739911835728, -0.927943980208619 ], [ 119.897916985528738, -0.928402845933059 ], [ 119.898002698176725, -0.928663838131959 ] ] } },
{ "type": "Feature", "properties": { "Id": 0, "Nama_Jalan": "Jl. Sapta Marga IV", "Armada": null, "kelurahan": "Petobo" }, "geometry": { "type": "LineString", "coordinates": [ [ 119.905172873509741, -0.927096784631852 ], [ 119.905068981368913, -0.927314312802293 ], [ 119.905034876443352, -0.927430527635779 ], [ 119.905035851785399, -0.928043495019063 ], [ 119.905058227530702, -0.928674551420501 ] ] } },
{ "type": "Feature", "properties": { "Id": 0, "Nama_Jalan": null, "Armada": null, "kelurahan": "Petobo" }, "geometry": { "type": "LineString", "coordinates": [ [ 119.904963020336211, -0.941445040689222 ], [ 119.904972852855195, -0.942562671389412 ] ] } },
{ "type": "Feature", "properties": { "Id": 0, "Nama_Jalan": null, "Armada": null, "kelurahan": "Petobo" }, "geometry": { "type": "LineString", "coordinates": [ [ 119.9046988025828, -0.941445262432612 ], [ 119.904678650319255, -0.942204317763078 ], [ 119.904969671197236, -0.942201036346422 ] ] } },
{ "type": "Feature", "properties": { "Id": 0, "Nama_Jalan": null, "Armada": null, "kelurahan": "Petobo" }, "geometry": { "type": "LineString", "coordinates": [ [ 119.904399353281448, -0.941920420867438 ], [ 119.904399623117442, -0.942246030273053 ], [ 119.904677499583229, -0.942248665698534 ], [ 119.904678650319255, -0.942204317763078 ] ] } },
{ "type": "Feature", "properties": { "Id": 0, "Nama_Jalan": null, "Armada": null, "kelurahan": "Petobo" }, "geometry": { "type": "LineString", "coordinates": [ [ 119.903282136785961, -0.941716478122875 ], [ 119.903281251514642, -0.941748852246548 ], [ 119.902535505360007, -0.941752346709185 ], [ 119.902531923901222, -0.942016280427346 ], [ 119.903266766723021, -0.942038853300951 ], [ 119.903299018629696, -0.94198085235939 ], [ 119.903571196548015, -0.941984927129756 ] ] } },
{ "type": "Feature", "properties": { "Id": 0, "Nama_Jalan": null, "Armada": null, "kelurahan": "Petobo" }, "geometry": { "type": "LineString", "coordinates": [ [ 119.903266766723021, -0.942038853300951 ], [ 119.903252287648385, -0.942335667781906 ], [ 119.903574351186734, -0.942352610225094 ], [ 119.903591334660348, -0.942212024303843 ], [ 119.903622654869991, -0.942176137891777 ], [ 119.903944708777601, -0.94218160511464 ] ] } },
{ "type": "Feature", "properties": { "Id": 0, "Nama_Jalan": null, "Armada": null, "kelurahan": "Petobo" }, "geometry": { "type": "LineString", "coordinates": [ [ 119.904399623117442, -0.942246030273053 ], [ 119.904396658490825, -0.942394254475174 ], [ 119.904369606167762, -0.942421530868408 ], [ 119.903984168371039, -0.942450303623981 ], [ 119.903962338247226, -0.942474228695956 ], [ 119.90396344283252, -0.942660700316875 ], [ 119.903934006388468, -0.942676981627166 ], [ 119.903562560471499, -0.942681118731749 ], [ 119.903503072298676, -0.943177034472776 ] ] } },
{ "type": "Feature", "properties": { "Id": 0, "Nama_Jalan": null, "Armada": null, "kelurahan": "Petobo" }, "geometry": { "type": "LineString", "coordinates": [ [ 119.901875070464129, -0.937939138209295 ], [ 119.901906275315909, -0.937253498743948 ], [ 119.901919365554249, -0.936421890436977 ], [ 119.901910636547399, -0.936204346006049 ], [ 119.901934837877448, -0.936175637691473 ], [ 119.901981850947479, -0.936161254427728 ], [ 119.90287718811841, -0.936117953821337 ], [ 119.903080944668361, -0.936096267814777 ], [ 119.903565912243437, -0.936089169441403 ], [ 119.904882132309581, -0.936015559451589 ] ] } }
]
}
