{
"type": "FeatureCollection",
"name": "Poboya",
"crs": { "type": "name", "properties": { "name": "urn:ogc:def:crs:OGC:1.3:CRS84" } },
"features": [
{ "type": "Feature", "properties": { "Id": 0, "Nama_Jalan": "Perumahan Vanda Land", "Armada": "Kaisar (R3)", "kelurahan": "Poboya" }, "geometry": { "type": "LineString", "coordinates": [ [ 119.906280270696769, -0.882262911885684 ], [ 119.905836665775837, -0.882920695264158 ], [ 119.905827219847552, -0.882990032140784 ], [ 119.905855791713051, -0.883083245782601 ], [ 119.905972253480542, -0.883197906225938 ], [ 119.906081423146972, -0.883097412106505 ], [ 119.90649183799178, -0.882516156302122 ], [ 119.907710842301796, -0.883359101729554 ] ] } },
{ "type": "Feature", "properties": { "Id": 0, "Nama_Jalan": "Perumahan Vanda Land", "Armada": "Kaisar (R3)", "kelurahan": "Poboya" }, "geometry": { "type": "LineString", "coordinates": [ [ 119.906292944229548, -0.88329088972434 ], [ 119.90674016056596, -0.882687872339487 ] ] } },
{ "type": "Feature", "properties": { "Id": 0, "Nama_Jalan": "Perumahan Vanda Land", "Armada": "Kaisar (R3)", "kelurahan": "Poboya" }, "geometry": { "type": "LineString", "coordinates": [ [ 119.906525828716724, -0.883470006408489 ], [ 119.906989784568751, -0.88286048823052 ] ] } },
{ "type": "Feature", "properties": { "Id": 0, "Nama_Jalan": "Jl. Pue Salangga", "Armada": "Pick Up", "kelurahan": "Poboya" }, "geometry": { "type": "LineString", "coordinates": [ [ 119.908848011497909, -0.890104299928811 ], [ 119.90885932876904, -0.889999101729602 ], [ 119.908912400161029, -0.889836494434091 ], [ 119.908988299555517, -0.889710207107537 ], [ 119.909072291015548, -0.889605907472505 ], [ 119.910092371318981, -0.888747806080974 ], [ 119.91072415163967, -0.88819840907404 ], [ 119.911740023564406, -0.887426854908095 ], [ 119.912964323348078, -0.886538950820618 ], [ 119.913457535390791, -0.886155098998956 ], [ 119.91364123656804, -0.886002907873768 ], [ 119.913729513529702, -0.885912471236884 ], [ 119.914004248487174, -0.885550786877268 ], [ 119.914271890017233, -0.885229271248171 ], [ 119.914343092088146, -0.885170404833352 ], [ 119.915238965927074, -0.88462462722733 ], [ 119.91655405587818, -0.883827978722049 ], [ 119.917077248081043, -0.88351773703643 ], [ 119.917168397131562, -0.883455986271747 ], [ 119.91725099531962, -0.883392807890053 ], [ 119.917309363655221, -0.88332247674056 ], [ 119.917366309273078, -0.883255015497358 ], [ 119.917457449348049, -0.883181789671631 ], [ 119.918246498376462, -0.882699211856329 ], [ 119.919199338147322, -0.882116098148405 ], [ 119.920090920218399, -0.881553593083761 ], [ 119.920259930966424, -0.881446358910514 ], [ 119.920404249990597, -0.881348706822823 ], [ 119.920508679314622, -0.881262561328812 ], [ 119.920738426780503, -0.881076866307461 ], [ 119.921647849547725, -0.880248031478411 ], [ 119.922403499499381, -0.879576144711603 ], [ 119.923069900024601, -0.878965529285058 ], [ 119.92349708488662, -0.878580778707613 ], [ 119.923673678515755, -0.878452501614366 ], [ 119.923914848826385, -0.878297398582886 ], [ 119.924051543926254, -0.878169153004568 ], [ 119.92435338688945, -0.87785335186638 ], [ 119.9251222234778, -0.877038019661949 ], [ 119.925910060505146, -0.876224585972685 ], [ 119.926031556071109, -0.876096352761234 ], [ 119.92656892372429, -0.875696217293827 ] ] } },
{ "type": "Feature", "properties": { "Id": 0, "Nama_Jalan": null, "Armada": "Pick Up", "kelurahan": "Poboya" }, "geometry": { "type": "LineString", "coordinates": [ [ 119.910664251393797, -0.893191516102167 ], [ 119.910155331673664, -0.892326502826104 ], [ 119.913412273033799, -0.890440070415543 ], [ 119.914376050906711, -0.889870327808632 ] ] } },
{ "type": "Feature", "properties": { "Id": 0, "Nama_Jalan": null, "Armada": "Pick Up", "kelurahan": "Poboya" }, "geometry": { "type": "LineString", "coordinates": [ [ 119.911142573138122, -0.891754688680518 ], [ 119.910644664574434, -0.890934748730214 ], [ 119.912093911592393, -0.890098060517629 ], [ 119.912591049393342, -0.890915725935525 ], [ 119.913093889818327, -0.891770962305268 ] ] } },
{ "type": "Feature", "properties": { "Id": 0, "Nama_Jalan": null, "Armada": "Pick Up", "kelurahan": "Poboya" }, "geometry": { "type": "LineString", "coordinates": [ [ 119.913564533672385, -0.889264584279334 ], [ 119.914072954431418, -0.890049504937541 ], [ 119.914643502115226, -0.890970053658647 ], [ 119.915585765875647, -0.892487364969231 ] ] } },
{ "type": "Feature", "properties": { "Id": 0, "Nama_Jalan": null, "Armada": "Pick Up", "kelurahan": "Poboya" }, "geometry": { "type": "LineString", "coordinates": [ [ 119.912397872262929, -0.894206998142008 ], [ 119.912112539663923, -0.893776907952286 ], [ 119.912053067127843, -0.893651445967459 ], [ 119.912020317439016, -0.893531939272248 ], [ 119.912020246793247, -0.893442289690941 ], [ 119.911984563765103, -0.893367610147768 ], [ 119.911895435079401, -0.893281019977776 ], [ 119.911619218311714, -0.893116882732915 ], [ 119.911539061568675, -0.893113958377899 ], [ 119.911450038784864, -0.893161842582989 ], [ 119.911346184352865, -0.893224680245262 ], [ 119.911178308176616, -0.893266053081502 ], [ 119.911073827124511, -0.893287174260899 ], [ 119.911016819380237, -0.893275744591211 ], [ 119.910950289255993, -0.893235634606698 ], [ 119.910897060336481, -0.893197426530561 ], [ 119.910821042472151, -0.893172624326024 ], [ 119.910781105722435, -0.89312484299712 ], [ 119.913093889818327, -0.891770962305268 ], [ 119.91567834395201, -0.890243403784715 ] ] } },
{ "type": "Feature", "properties": { "Id": 0, "Nama_Jalan": null, "Armada": "Pick Up", "kelurahan": "Poboya" }, "geometry": { "type": "LineString", "coordinates": [ [ 119.906850736242902, -0.892835858229609 ], [ 119.90690390128367, -0.892966241417657 ], [ 119.906938196868012, -0.893088616291435 ], [ 119.907025874970529, -0.89344427778315 ], [ 119.9070658569605, -0.893549435287826 ], [ 119.907122914557519, -0.893623978626976 ], [ 119.907356126559137, -0.893914736857824 ], [ 119.908128577736363, -0.894664789588066 ], [ 119.908285416955607, -0.894781806937575 ], [ 119.910664251393797, -0.893191516102167 ], [ 119.910781105722435, -0.89312484299712 ] ] } },
{ "type": "Feature", "properties": { "Id": 0, "Nama_Jalan": null, "Armada": "Pick Up", "kelurahan": "Poboya" }, "geometry": { "type": "LineString", "coordinates": [ [ 119.908848011497909, -0.890104299928795 ], [ 119.90908523862467, -0.891079624463523 ], [ 119.908616569061309, -0.891567692788418 ], [ 119.90810030832489, -0.89193865674535 ], [ 119.907239959080258, -0.892666104337018 ], [ 119.907126023302226, -0.892745087103985 ], [ 119.907012062143721, -0.892791795889666 ], [ 119.906881464075497, -0.892822978590629 ], [ 119.906674910924551, -0.892909555802031 ], [ 119.906577581920999, -0.892965814035829 ], [ 119.905980666700245, -0.893457572106554 ], [ 119.905897594901688, -0.893523381723817 ], [ 119.905945138226599, -0.893579524583636 ], [ 119.905999829929101, -0.893665545114245 ], [ 119.906081906990579, -0.893844779924426 ], [ 119.906104509520574, -0.893896161303186 ] ] } },
{ "type": "Feature", "properties": { "Id": 0, "Nama_Jalan": null, "Armada": "Pick Up", "kelurahan": "Poboya" }, "geometry": { "type": "LineString", "coordinates": [ [ 119.910849903883502, -0.888102900287506 ], [ 119.910594382885918, -0.887798750193873 ], [ 119.910430822139759, -0.887588501775655 ], [ 119.910286243028224, -0.887355287901288 ], [ 119.910084674276831, -0.887133594286037 ], [ 119.90979217382241, -0.887252402842547 ], [ 119.909273739960426, -0.887577943721509 ], [ 119.909078144589103, -0.887706238271715 ], [ 119.908747752406654, -0.88796277928321 ], [ 119.908616774986029, -0.8881158856172 ], [ 119.908567383548814, -0.888125487429898 ], [ 119.908512263804923, -0.888098755682705 ], [ 119.908568440109747, -0.887958140082453 ], [ 119.908666855530171, -0.887772785600121 ], [ 119.908730864135876, -0.88762570903414 ], [ 119.908773503834567, -0.887485821404774 ], [ 119.908801911617829, -0.88736865636629 ], [ 119.908978528433366, -0.886963298983784 ], [ 119.909043714299557, -0.886803072918093 ], [ 119.909075710699497, -0.886719374368956 ], [ 119.90909347610318, -0.886659593722255 ], [ 119.909102919860928, -0.886587866347721 ], [ 119.909095732465872, -0.886507784815639 ], [ 119.909076677815747, -0.886437275327328 ], [ 119.90900173166655, -0.886264011532528 ], [ 119.908888782676414, -0.886085996446643 ], [ 119.908718834070157, -0.885906831065594 ], [ 119.907918733320628, -0.886540312796439 ], [ 119.908340110037315, -0.887074053940995 ], [ 119.908444234753716, -0.887204501791468 ], [ 119.908477048268836, -0.887254679763707 ], [ 119.908487058924862, -0.887300572596223 ], [ 119.908477112173458, -0.88733644044338 ], [ 119.908454338462334, -0.887369449653091 ], [ 119.908294846232465, -0.887502975082338 ], [ 119.908235040145797, -0.887557529620647 ], [ 119.908122384612085, -0.887451473316244 ] ] } },
{ "type": "Feature", "properties": { "Id": 0, "Nama_Jalan": null, "Armada": "Pick Up", "kelurahan": "Poboya" }, "geometry": { "type": "LineString", "coordinates": [ [ 119.907918733320628, -0.886540312796439 ], [ 119.906960583587363, -0.887331664582839 ], [ 119.907602392030398, -0.888062700415418 ], [ 119.907093335340434, -0.888536455950651 ], [ 119.90684765408254, -0.888698020793355 ], [ 119.906669513024013, -0.888673059998631 ], [ 119.90654832592341, -0.888590677992858 ], [ 119.906416423486988, -0.888472444422065 ], [ 119.906234604981535, -0.888300460306783 ], [ 119.906091928370685, -0.888071069050442 ], [ 119.905956483155066, -0.887977940194135 ], [ 119.905785340780099, -0.887791603430417 ], [ 119.90526825617502, -0.887110671397479 ], [ 119.904772532542012, -0.886411791738424 ] ] } },
{ "type": "Feature", "properties": { "Id": 0, "Nama_Jalan": null, "Armada": "Pick Up", "kelurahan": "Poboya" }, "geometry": { "type": "LineString", "coordinates": [ [ 119.908718834070157, -0.885906831065594 ], [ 119.908183248744095, -0.88540597191036 ], [ 119.907621841211153, -0.884988048869308 ], [ 119.906570421183375, -0.88434041012772 ], [ 119.905958617942943, -0.884015163893728 ], [ 119.905164963737548, -0.883628022550155 ] ] } },
{ "type": "Feature", "properties": { "Id": 0, "Nama_Jalan": "BTN Poboya Ria", "Armada": "Pick Up", "kelurahan": "Poboya" }, "geometry": { "type": "LineString", "coordinates": [ [ 119.905426416758388, -0.885421059001496 ], [ 119.904827384501175, -0.884722977393362 ] ] } },
{ "type": "Feature", "properties": { "Id": 0, "Nama_Jalan": null, "Armada": "Pick Up", "kelurahan": "Poboya" }, "geometry": { "type": "LineString", "coordinates": [ [ 119.90266696178287, -0.889388891527867 ], [ 119.902650784163413, -0.889049428207156 ], [ 119.902646535930103, -0.888475669082138 ], [ 119.902669154821893, -0.888244233647366 ], [ 119.902691875294423, -0.888142850967264 ], [ 119.90272222849751, -0.888083538166116 ], [ 119.902765881479624, -0.888024214846858 ], [ 119.903734290423046, -0.887287598951789 ], [ 119.904375162098674, -0.886817085783935 ], [ 119.904539919525789, -0.886741864509758 ], [ 119.904772532542012, -0.886411791738424 ], [ 119.905426416758388, -0.885421059001496 ], [ 119.906253213390272, -0.884171776482399 ] ] } },
{ "type": "Feature", "properties": { "Id": 0, "Nama_Jalan": "Jl. Lagarutu", "Armada": "Pick Up", "kelurahan": "Poboya" }, "geometry": { "type": "LineString", "coordinates": [ [ 119.90266696178287, -0.889388891527867 ], [ 119.903498434956106, -0.889364823992911 ] ] } },
{ "type": "Feature", "properties": { "Id": 0, "Nama_Jalan": null, "Armada": "Pick Up", "kelurahan": "Poboya" }, "geometry": { "type": "LineString", "coordinates": [ [ 119.903498434956106, -0.889364823992911 ], [ 119.90347673852925, -0.888345457251214 ], [ 119.903488005374726, -0.888175232254907 ], [ 119.903514548152472, -0.888102534722663 ], [ 119.903964395207836, -0.887532241969653 ], [ 119.904454089267304, -0.886894979264816 ], [ 119.904539919525789, -0.886741864509758 ] ] } }
]
}
