{
"type": "FeatureCollection",
"name": "Silae",
"crs": { "type": "name", "properties": { "name": "urn:ogc:def:crs:OGC:1.3:CRS84" } },
"features": [
{ "type": "Feature", "properties": { "Id": 0, "Nama_Jalan": "Jalan Malonda", "Armada": null, "kelurahan": "Silae" }, "geometry": { "type": "LineString", "coordinates": [ [ 119.836741355172052, -0.879539533641373 ], [ 119.836750797526321, -0.879473824042388 ], [ 119.836050137672245, -0.877830222137967 ], [ 119.83552671647881, -0.876635212795218 ], [ 119.834881341710485, -0.875132477123079 ], [ 119.834316278641978, -0.873829909870673 ], [ 119.833657250085494, -0.87232598576097 ], [ 119.833299782065026, -0.871510986237851 ], [ 119.832874516843205, -0.8705519903459 ], [ 119.832318365893798, -0.869249411509041 ], [ 119.832012933101197, -0.868566276736006 ] ] } },
{ "type": "Feature", "properties": { "Id": 0, "Nama_Jalan": "Jl. Munif Rahman I", "Armada": null, "kelurahan": "Silae" }, "geometry": { "type": "LineString", "coordinates": [ [ 119.837363041159691, -0.880844960117945 ], [ 119.837379941415904, -0.88089395885317 ], [ 119.837378538077857, -0.880922649703615 ], [ 119.837365029369693, -0.880961391260785 ], [ 119.83729317809069, -0.881112067700232 ], [ 119.837183650830681, -0.881378966669937 ], [ 119.837061347544946, -0.881711144747507 ], [ 119.83696180500128, -0.881990229312194 ], [ 119.836911345408112, -0.88216168952661 ], [ 119.836848224544624, -0.88254976737351 ], [ 119.836768390372654, -0.88301673210611 ], [ 119.836705180397956, -0.88340555027934 ] ] } },
{ "type": "Feature", "properties": { "Id": 0, "Nama_Jalan": "Jl. Hasanudin Toto", "Armada": null, "kelurahan": "Silae" }, "geometry": { "type": "LineString", "coordinates": [ [ 119.837363041159691, -0.880844960117945 ], [ 119.837300302947241, -0.880766355869221 ], [ 119.837224279715088, -0.880739637043566 ], [ 119.836874628375199, -0.880690176191148 ], [ 119.835905611529085, -0.88071960882538 ], [ 119.835088589957849, -0.880735536199773 ], [ 119.83453898221218, -0.880722568707709 ], [ 119.834271055907635, -0.880702691060463 ], [ 119.834131381651602, -0.880678411673022 ], [ 119.833730930109184, -0.880665807938835 ], [ 119.833569899404822, -0.880667365751386 ], [ 119.83347727699423, -0.880676043641028 ], [ 119.833353305414477, -0.880687614522885 ], [ 119.832961414807386, -0.880689349086447 ], [ 119.832160492356095, -0.880639754889625 ], [ 119.831471211567816, -0.880606332650372 ], [ 119.830831315978386, -0.88055087684571 ], [ 119.830264037706158, -0.880415033470882 ], [ 119.830100134747525, -0.880387903342157 ], [ 119.829592757610328, -0.880316566331658 ], [ 119.828957126528678, -0.880248196197671 ], [ 119.828743339606035, -0.880212497075991 ], [ 119.828663533745015, -0.880209689054768 ], [ 119.8285352821175, -0.880215525044112 ], [ 119.828302966014462, -0.880175536534057 ], [ 119.827734254054334, -0.880029651876751 ], [ 119.827164112485463, -0.879878030073277 ], [ 119.826980268998184, -0.879865259894672 ], [ 119.826750834103294, -0.879866869519729 ], [ 119.82659835286421, -0.879868420400141 ], [ 119.826491468399894, -0.879862763964849 ], [ 119.826346105988435, -0.879855702386924 ], [ 119.82619933037364, -0.879864421408944 ], [ 119.825816067768486, -0.879972301590214 ] ] } },
{ "type": "Feature", "properties": { "Id": 0, "Nama_Jalan": "Jl. Munif Rahman II", "Armada": null, "kelurahan": "Silae" }, "geometry": { "type": "LineString", "coordinates": [ [ 119.836741355172066, -0.879539533641373 ], [ 119.836691747675204, -0.879592931885421 ], [ 119.836125480756635, -0.879848704701914 ], [ 119.836071376301689, -0.879911863708052 ], [ 119.836017323889621, -0.880043878219006 ], [ 119.835910800345474, -0.880514472701658 ], [ 119.835852432279509, -0.88122076497076 ], [ 119.835833910826139, -0.88185386770475 ], [ 119.835795554876739, -0.882639998027939 ], [ 119.835764651888411, -0.883187300404726 ] ] } },
{ "type": "Feature", "properties": { "Id": 0, "Nama_Jalan": "Jl. Penanda", "Armada": null, "kelurahan": "Silae" }, "geometry": { "type": "LineString", "coordinates": [ [ 119.829965057393508, -0.874792149594228 ], [ 119.829949900883008, -0.875167760502035 ], [ 119.829971995777285, -0.875492896582529 ], [ 119.829996823172266, -0.87566119213042 ], [ 119.830059749905544, -0.875959519830269 ], [ 119.830065665590354, -0.876246414899904 ], [ 119.830126840426601, -0.876741748242262 ], [ 119.830157444462458, -0.877011410512161 ], [ 119.830185345019927, -0.87810734549753 ], [ 119.830211947496707, -0.878739938674648 ], [ 119.830235198145104, -0.879336671940206 ], [ 119.830229313416936, -0.879722078130137 ], [ 119.83017148288468, -0.88039971328381 ] ] } },
{ "type": "Feature", "properties": { "Id": 0, "Nama_Jalan": "Jl. Pertiwi", "Armada": null, "kelurahan": "Silae" }, "geometry": { "type": "LineString", "coordinates": [ [ 119.829965057393508, -0.874792149594228 ], [ 119.829949663163745, -0.874533951648859 ], [ 119.829924775743763, -0.874285324224306 ], [ 119.829903751589697, -0.874120851075913 ], [ 119.829882750382509, -0.873986980529791 ], [ 119.82985033150527, -0.873830166673029 ], [ 119.829764569998616, -0.873485952174591 ], [ 119.829722663663873, -0.87334635946093 ], [ 119.829638908293006, -0.873143680539272 ], [ 119.829539912235944, -0.872887458526916 ], [ 119.829499921797577, -0.872768903621896 ], [ 119.829459922790818, -0.872638872725653 ], [ 119.82939883415483, -0.872256386025469 ], [ 119.829379631787234, -0.871986714807782 ], [ 119.829354692091798, -0.871667318632774 ], [ 119.829333731184576, -0.871587002564623 ], [ 119.829310900195921, -0.871546853875339 ] ] } },
{ "type": "Feature", "properties": { "Id": 0, "Nama_Jalan": "Jl. Luwuk II", "Armada": null, "kelurahan": "Silae" }, "geometry": { "type": "LineString", "coordinates": [ [ 119.831397213868513, -0.876205912856116 ], [ 119.832198020352209, -0.876102019440312 ] ] } },
{ "type": "Feature", "properties": { "Id": 0, "Nama_Jalan": "Jl. Luwuk V", "Armada": null, "kelurahan": "Silae" }, "geometry": { "type": "LineString", "coordinates": [ [ 119.831516046361898, -0.876814383420872 ], [ 119.832267692211431, -0.87671578684314 ] ] } },
{ "type": "Feature", "properties": { "Id": 0, "Nama_Jalan": "Jl. Luwuk III", "Armada": null, "kelurahan": "Silae" }, "geometry": { "type": "LineString", "coordinates": [ [ 119.831689654099307, -0.876167972847684 ], [ 119.831753302655486, -0.876476498444081 ], [ 119.831803277040549, -0.876776706163972 ] ] } },
{ "type": "Feature", "properties": { "Id": 0, "Nama_Jalan": "Jl. Luwuk IV", "Armada": null, "kelurahan": "Silae" }, "geometry": { "type": "LineString", "coordinates": [ [ 119.831750766489321, -0.876464204816983 ], [ 119.832229100875608, -0.876405307819904 ] ] } },
{ "type": "Feature", "properties": { "Id": 0, "Nama_Jalan": "Jl. Tentena Raya", "Armada": null, "kelurahan": "Silae" }, "geometry": { "type": "LineString", "coordinates": [ [ 119.830163177357022, -0.877236602189222 ], [ 119.830981502210562, -0.87721280370971 ], [ 119.831175298767704, -0.877196876553241 ], [ 119.831665456266421, -0.877111867702929 ], [ 119.832617311480107, -0.876997817011418 ] ] } },
{ "type": "Feature", "properties": { "Id": 0, "Nama_Jalan": null, "Armada": null, "kelurahan": "Silae" }, "geometry": { "type": "LineString", "coordinates": [ [ 119.832157759847831, -0.875774622572286 ], [ 119.832198020352209, -0.876102019440312 ], [ 119.832229100875608, -0.876405307819904 ], [ 119.832267692211431, -0.87671578684314 ], [ 119.832305459238725, -0.87703518296745 ] ] } },
{ "type": "Feature", "properties": { "Id": 0, "Nama_Jalan": "Jl. Luwuk Raya", "Armada": null, "kelurahan": "Silae" }, "geometry": { "type": "LineString", "coordinates": [ [ 119.83156917056472, -0.877128566698726 ], [ 119.831439567406036, -0.876458108863727 ], [ 119.831329443225115, -0.875933167091282 ], [ 119.831320839437367, -0.875862046531792 ] ] } },
{ "type": "Feature", "properties": { "Id": 0, "Nama_Jalan": null, "Armada": null, "kelurahan": "Silae" }, "geometry": { "type": "LineString", "coordinates": [ [ 119.833502219060023, -0.874475501842066 ], [ 119.833647940167964, -0.875594295880088 ] ] } },
{ "type": "Feature", "properties": { "Id": 0, "Nama_Jalan": null, "Armada": null, "kelurahan": "Silae" }, "geometry": { "type": "LineString", "coordinates": [ [ 119.834220307549231, -0.875510691336991 ], [ 119.833974187666428, -0.875548091553539 ], [ 119.833647940167964, -0.875594295880088 ], [ 119.83248542586378, -0.875723289197484 ], [ 119.831320839437367, -0.875862046531792 ] ] } },
{ "type": "Feature", "properties": { "Id": 0, "Nama_Jalan": null, "Armada": null, "kelurahan": "Silae" }, "geometry": { "type": "LineString", "coordinates": [ [ 119.832469724045637, -0.875725160028352 ], [ 119.832515927559072, -0.876057116750746 ], [ 119.832586253381834, -0.876719321587115 ], [ 119.832617311480107, -0.876997817011418 ] ] } },
{ "type": "Feature", "properties": { "Id": 0, "Nama_Jalan": null, "Armada": null, "kelurahan": "Silae" }, "geometry": { "type": "LineString", "coordinates": [ [ 119.83251754698513, -0.876072365698303 ], [ 119.833338030624333, -0.875975202648653 ], [ 119.833306246808618, -0.875632210414852 ] ] } },
{ "type": "Feature", "properties": { "Id": 0, "Nama_Jalan": null, "Armada": null, "kelurahan": "Silae" }, "geometry": { "type": "LineString", "coordinates": [ [ 119.833389334579508, -0.876293531520004 ], [ 119.833352281503153, -0.875975580303192 ], [ 119.833665881146004, -0.875932804722765 ], [ 119.833718455966277, -0.876361917254275 ] ] } },
{ "type": "Feature", "properties": { "Id": 0, "Nama_Jalan": null, "Armada": null, "kelurahan": "Silae" }, "geometry": { "type": "LineString", "coordinates": [ [ 119.834027149772567, -0.87554004346723 ], [ 119.834102225155931, -0.875891878179114 ], [ 119.833665881146004, -0.875932804722765 ] ] } }
]
}
