{
"type": "FeatureCollection",
"name": "Siranindi",
"crs": { "type": "name", "properties": { "name": "urn:ogc:def:crs:OGC:1.3:CRS84" } },
"features": [
{ "type": "Feature", "properties": { "Id": 0, "Nama_Jalan": "Jl. Durian", "Armada": 2.0, "panjang": 0.36697898128799999, "kelurahan": "Siranindi" }, "geometry": { "type": "LineString", "coordinates": [ [ 119.854620399980121, -0.895628299999887 ], [ 119.855863440032792, -0.895730131537495 ], [ 119.856356307322898, -0.895783537023709 ], [ 119.857333195078667, -0.895968054718435 ], [ 119.857881910930857, -0.896066840604889 ] ] } },
{ "type": "Feature", "properties": { "Id": 0, "Nama_Jalan": "Jl. Durian Lrg. I", "Armada": 2.0, "panjang": 0.18445416117300001, "kelurahan": "Siranindi" }, "geometry": { "type": "LineString", "coordinates": [ [ 119.855885807867907, -0.89573255524488 ], [ 119.855811876921976, -0.896311847784819 ], [ 119.855781680867565, -0.897188329959075 ], [ 119.855786590561962, -0.897393932827106 ] ] } },
{ "type": "Feature", "properties": { "Id": 0, "Nama_Jalan": "Jl. Rambutan", "Armada": 2.0, "panjang": 0.35496350141, "kelurahan": "Siranindi" }, "geometry": { "type": "LineString", "coordinates": [ [ 119.858067380260167, -0.895714991308973 ], [ 119.857881910930857, -0.896066840604889 ], [ 119.857889573400783, -0.896131125236808 ], [ 119.857773527466691, -0.896559164583784 ], [ 119.857709697724133, -0.896941738273 ], [ 119.857712375367399, -0.897331431982923 ], [ 119.857565977941732, -0.89884733836251 ] ] } },
{ "type": "Feature", "properties": { "Id": 0, "Nama_Jalan": "Jl. Nangka", "Armada": 2.0, "panjang": 0.27908606495799998, "kelurahan": "Siranindi" }, "geometry": { "type": "LineString", "coordinates": [ [ 119.857058606729737, -0.897289510172886 ], [ 119.856363944902583, -0.897346837508951 ], [ 119.855786590561962, -0.897393932827106 ], [ 119.855010255198465, -0.8974734178588 ], [ 119.854562287002764, -0.897498598690149 ] ] } },
{ "type": "Feature", "properties": { "Id": 0, "Nama_Jalan": "Lrg. Nangka II", "Armada": 2.0, "panjang": 0.063853270241699997, "kelurahan": "Siranindi" }, "geometry": { "type": "LineString", "coordinates": [ [ 119.855803384419389, -0.897392562937875 ], [ 119.855794503748925, -0.897969470714758 ] ] } },
{ "type": "Feature", "properties": { "Id": 0, "Nama_Jalan": "Jl. Siranindi", "Armada": 2.0, "panjang": 0.29913124023600002, "kelurahan": "Siranindi" }, "geometry": { "type": "LineString", "coordinates": [ [ 119.859740422587208, -0.897259028906726 ], [ 119.858490508911117, -0.8972092090454 ], [ 119.857711909909554, -0.897263692450889 ], [ 119.857058606729737, -0.897289510172886 ] ] } },
{ "type": "Feature", "properties": { "Id": 0, "Nama_Jalan": "Jl. Jeruk", "Armada": 2.0, "panjang": 0.31948132774799998, "kelurahan": "Siranindi" }, "geometry": { "type": "LineString", "coordinates": [ [ 119.857250720260282, -0.895952476627242 ], [ 119.857168440248302, -0.896762577082031 ], [ 119.857090366296774, -0.897288255077031 ], [ 119.856960678815696, -0.898364558647126 ], [ 119.856901437330706, -0.898817438549967 ] ] } },
{ "type": "Feature", "properties": { "Id": 0, "Nama_Jalan": "Jl. Jambu", "Armada": 2.0, "panjang": 0.60692420652099999, "kelurahan": "Siranindi" }, "geometry": { "type": "LineString", "coordinates": [ [ 119.858541472014707, -0.897211240374992 ], [ 119.858507867826916, -0.897847531028341 ], [ 119.858390664224061, -0.898618407728488 ], [ 119.858342299500734, -0.898882267381047 ], [ 119.855404835054145, -0.898750101102986 ], [ 119.85457268398028, -0.898703498999902 ] ] } },
{ "type": "Feature", "properties": { "Id": 0, "Nama_Jalan": "Jl. Sukun", "Armada": 2.0, "panjang": 0.14510461770399999, "kelurahan": "Siranindi" }, "geometry": { "type": "LineString", "coordinates": [ [ 119.85497974898017, -0.904539250999844 ], [ 119.855327388980072, -0.90327564799989 ] ] } },
{ "type": "Feature", "properties": { "Id": 0, "Nama_Jalan": "Jl. Mangga", "Armada": 1.0, "panjang": 0.26524764224500003, "kelurahan": "Siranindi" }, "geometry": { "type": "LineString", "coordinates": [ [ 119.85835983932202, -0.901457675201216 ], [ 119.856108700613333, -0.900676886190794 ] ] } },
{ "type": "Feature", "properties": { "Id": 0, "Nama_Jalan": "Jl. Mangga I", "Armada": 1.0, "panjang": 0.30369130495300001, "kelurahan": "Siranindi" }, "geometry": { "type": "LineString", "coordinates": [ [ 119.856947631788685, -0.900967862997852 ], [ 119.856918434515421, -0.901273003763088 ], [ 119.85690923112584, -0.901653622179459 ], [ 119.856964466946977, -0.90182571419981 ], [ 119.856970225311457, -0.901900301776541 ], [ 119.856896500981094, -0.902384252636364 ], [ 119.856794506158735, -0.903162769258627 ], [ 119.856736614128337, -0.903542948140656 ], [ 119.85668541585396, -0.903674959417861 ] ] } },
{ "type": "Feature", "properties": { "Id": 0, "Nama_Jalan": "Jl. Mangga II", "Armada": 1.0, "panjang": 0.14509290203399999, "kelurahan": "Siranindi" }, "geometry": { "type": "LineString", "coordinates": [ [ 119.856108700613333, -0.90067688619081 ], [ 119.856261129556032, -0.900199587009113 ], [ 119.856323624663702, -0.899934161698646 ], [ 119.856343442333653, -0.899763444750758 ], [ 119.85636037422708, -0.899546827210134 ], [ 119.856358834222121, -0.899399078548512 ] ] } },
{ "type": "Feature", "properties": { "Id": 0, "Nama_Jalan": "Jl. Danau Talaga Lrg I", "Armada": 1.0, "panjang": 0.17070057907, "kelurahan": "Siranindi" }, "geometry": { "type": "LineString", "coordinates": [ [ 119.858877328088909, -0.904369677751467 ], [ 119.858941995163235, -0.90404175909876 ], [ 119.85893186996536, -0.903292528739623 ], [ 119.858918777749764, -0.903205486417748 ], [ 119.85886716356967, -0.903158696932613 ], [ 119.858568606806102, -0.903144349789036 ] ] } },
{ "type": "Feature", "properties": { "Id": 0, "Nama_Jalan": "Jl. Sungai Surumana", "Armada": 1.0, "panjang": 0.27801794249099998, "kelurahan": "Siranindi" }, "geometry": { "type": "LineString", "coordinates": [ [ 119.860041847793752, -0.904657775216871 ], [ 119.860062057236433, -0.904523515372254 ], [ 119.860323601799706, -0.903627368040456 ], [ 119.860675986986294, -0.90247055565685 ], [ 119.860739999979828, -0.90224729999989 ] ] } },
{ "type": "Feature", "properties": { "Id": 0, "Nama_Jalan": "Jl. Sungai Sausu", "Armada": 1.0, "panjang": 0.27918205140399999, "kelurahan": "Siranindi" }, "geometry": { "type": "LineString", "coordinates": [ [ 119.85835983932202, -0.901457675201216 ], [ 119.859451131953136, -0.901816216297797 ], [ 119.860739999979828, -0.90224729999989 ] ] } },
{ "type": "Feature", "properties": { "Id": 0, "Nama_Jalan": "Jl. Danau Poso", "Armada": 1.0, "panjang": 0.20483352756100001, "kelurahan": "Siranindi" }, "geometry": { "type": "LineString", "coordinates": [ [ 119.859081310042427, -0.899652863017051 ], [ 119.859891950192193, -0.899846472889858 ], [ 119.860882086114387, -0.900023076833674 ] ] } },
{ "type": "Feature", "properties": { "Id": 0, "Nama_Jalan": "Lrg. Alam Raya (Jl. Sis Al-jufri II)", "Armada": 1.0, "panjang": 0.26683655722499999, "kelurahan": "Siranindi" }, "geometry": { "type": "LineString", "coordinates": [ [ 119.860489029351157, -0.903084300976007 ], [ 119.859071383504016, -0.902668143486704 ], [ 119.8581971382755, -0.902384334049275 ] ] } },
{ "type": "Feature", "properties": { "Id": 0, "Nama_Jalan": "Jl. Sis Al-jufri I", "Armada": 1.0, "panjang": 0.22930275771299999, "kelurahan": "Siranindi" }, "geometry": { "type": "LineString", "coordinates": [ [ 119.85877412846007, -0.90067029319842 ], [ 119.86026469501526, -0.900947041715019 ], [ 119.860805993583483, -0.900985514251516 ] ] } },
{ "type": "Feature", "properties": { "Id": 0, "Nama_Jalan": "Jl. Danau Talaga", "Armada": 1.0, "panjang": 0.28082849670600002, "kelurahan": "Siranindi" }, "geometry": { "type": "LineString", "coordinates": [ [ 119.857606954251082, -0.904002493932346 ], [ 119.858871591472038, -0.904368258533849 ], [ 119.860041847793752, -0.904657775216871 ] ] } },
{ "type": "Feature", "properties": { "Id": 0, "Nama_Jalan": "Jl. Danau Lindu", "Armada": 1.0, "panjang": 0.151501470114, "kelurahan": "Siranindi" }, "geometry": { "type": "LineString", "coordinates": [ [ 119.860882086114358, -0.900023076833674 ], [ 119.860975593142044, -0.898657358096792 ] ] } },
{ "type": "Feature", "properties": { "Id": 0, "Nama_Jalan": "Lingkar dalam Palu Plaza", "Armada": 3.0, "panjang": 0.170875812755, "kelurahan": "Siranindi" }, "geometry": { "type": "LineString", "coordinates": [ [ 119.860975593142044, -0.898657358096792 ], [ 119.860167269750775, -0.898579641199197 ], [ 119.859706579394356, -0.898670853691978 ], [ 119.859466637155961, -0.898592147566921 ] ] } },
{ "type": "Feature", "properties": { "Id": 0, "Nama_Jalan": "Lingkar dalam Palu Plaza", "Armada": 3.0, "panjang": 0.14712079170799999, "kelurahan": "Siranindi" }, "geometry": { "type": "LineString", "coordinates": [ [ 119.860508113406112, -0.898612411913651 ], [ 119.860402431254045, -0.899937524049569 ] ] } },
{ "type": "Feature", "properties": { "Id": 0, "Nama_Jalan": "Lingkar dalam Palu Plaza", "Armada": 3.0, "panjang": 0.27667650569500002, "kelurahan": "Siranindi" }, "geometry": { "type": "MultiLineString", "coordinates": [ [ [ 119.85966432536199, -0.899309222009607 ], [ 119.859524670366937, -0.899758753369234 ] ], [ [ 119.859869306379565, -0.898638635234509 ], [ 119.85966432536199, -0.899309222009607 ] ], [ [ 119.860194063826228, -0.89858221734078 ], [ 119.860108559847717, -0.899435582030596 ], [ 119.859928042446811, -0.8994189891638 ], [ 119.85966432536199, -0.899309222009607 ] ] ] } },
{ "type": "Feature", "properties": { "Id": 0, "Nama_Jalan": "Lrg. Babussalam", "Armada": 2.0, "panjang": 0.165868122113, "kelurahan": "Siranindi" }, "geometry": { "type": "LineString", "coordinates": [ [ 119.856683228921966, -0.895845287074163 ], [ 119.856633726565605, -0.896226474317288 ], [ 119.856600504705852, -0.896876312849894 ], [ 119.856140230781122, -0.896893888283198 ] ] } },
{ "type": "Feature", "properties": { "Id": 0, "Nama_Jalan": "Lrg. Nangka I", "Armada": 2.0, "panjang": 0.094023840554099999, "kelurahan": "Siranindi" }, "geometry": { "type": "LineString", "coordinates": [ [ 119.855476773962991, -0.897425653387651 ], [ 119.855464651823382, -0.897998480337966 ], [ 119.855461781887115, -0.898275106374675 ] ] } },
{ "type": "Feature", "properties": { "Id": 0, "Nama_Jalan": "Lrg. Jeruk", "Armada": 2.0, "panjang": 0.17262361691100001, "kelurahan": "Siranindi" }, "geometry": { "type": "LineString", "coordinates": [ [ 119.855464651823382, -0.897998480337949 ], [ 119.855794503748925, -0.897969470714758 ], [ 119.856623232003244, -0.897927326913077 ], [ 119.857011658729704, -0.897941464732264 ] ] } },
{ "type": "Feature", "properties": { "Id": 0, "Nama_Jalan": "Lrg. Jambu I", "Armada": 2.0, "panjang": 0.082931686634200003, "kelurahan": "Siranindi" }, "geometry": { "type": "LineString", "coordinates": [ [ 119.855748644691232, -0.89876557038133 ], [ 119.855761861979872, -0.899254451657308 ], [ 119.855780589462455, -0.899514075161552 ] ] } },
{ "type": "Feature", "properties": { "Id": 0, "Nama_Jalan": "Lrg. Jambu II", "Armada": 2.0, "panjang": 0.088509325907400002, "kelurahan": "Siranindi" }, "geometry": { "type": "LineString", "coordinates": [ [ 119.855735829113584, -0.898764993761346 ], [ 119.855767934621142, -0.898358742667293 ], [ 119.855781210468251, -0.898327173973181 ], [ 119.855794503748925, -0.897969470714758 ] ] } },
{ "type": "Feature", "properties": { "Id": 0, "Nama_Jalan": "Lrg. Sukun", "Armada": 2.0, "panjang": 0.12654456845500001, "kelurahan": "Siranindi" }, "geometry": { "type": "LineString", "coordinates": [ [ 119.854975440836995, -0.904553399860216 ], [ 119.855330153277421, -0.904673158628194 ], [ 119.855407350550209, -0.90468266053889 ], [ 119.855467916714773, -0.904685003301722 ], [ 119.856090155028539, -0.904646257560329 ] ] } },
{ "type": "Feature", "properties": { "Id": 0, "Nama_Jalan": "SD Negri 02 dan SD Negri 04", "Armada": 3.0, "panjang": 0.10802313991, "kelurahan": "Siranindi" }, "geometry": { "type": "LineString", "coordinates": [ [ 119.855737481748065, -0.901884628282617 ], [ 119.855970145325216, -0.901936528259801 ], [ 119.85621812472543, -0.901965021525642 ], [ 119.856245098646696, -0.901834463890581 ], [ 119.856017060878102, -0.901794479115449 ], [ 119.855993788272571, -0.90191076011802 ] ] } }
]
}
