{
"type": "FeatureCollection",
"name": "Taipa",
"crs": { "type": "name", "properties": { "name": "urn:ogc:def:crs:OGC:1.3:CRS84" } },
"features": [
{ "type": "Feature", "properties": { "Id": 0, "Nama_Jalan": "Jl. Trans Sulawesi", "Armada": "Pick Up", "kelurahan": "Taipa" }, "geometry": { "type": "LineString", "coordinates": [ [ 119.872546968038478, -0.786392903489677 ], [ 119.872407957336222, -0.785322953027114 ], [ 119.872321434349743, -0.784692454666353 ], [ 119.872238023125149, -0.78427114401504 ], [ 119.871811221200588, -0.782672031780159 ], [ 119.871313566030693, -0.780777710126873 ], [ 119.871243905667455, -0.780493857141975 ], [ 119.870978797481285, -0.779176141233583 ], [ 119.8708835095658, -0.778748860928958 ], [ 119.8708507526772, -0.778599461818879 ], [ 119.870665113334525, -0.778019833314248 ], [ 119.870538929960517, -0.777560896564825 ], [ 119.870486511135994, -0.777309904126309 ], [ 119.870465036324745, -0.777161692567776 ], [ 119.870419576193541, -0.776664448463211 ], [ 119.870412330260223, -0.776485147447911 ], [ 119.870395632913514, -0.776377575283797 ], [ 119.87035751575209, -0.776203076863874 ], [ 119.870319432488586, -0.776078784085193 ], [ 119.870269463143103, -0.775937764195799 ], [ 119.87020286102306, -0.775784801925757 ], [ 119.869900836379685, -0.77518493070847 ], [ 119.869385944021232, -0.774126180642459 ], [ 119.869302687666263, -0.773929000632475 ], [ 119.868972561044743, -0.773035683027634 ], [ 119.868879168902865, -0.772756758701639 ], [ 119.86871948540302, -0.772274892162114 ], [ 119.868473704175059, -0.771430526675851 ], [ 119.868207638616227, -0.770440039911717 ], [ 119.86791478114651, -0.769338102013439 ], [ 119.867781288086761, -0.76882226528929 ] ] } },
{ "type": "Feature", "properties": { "Id": 0, "Nama_Jalan": "Jl. Kekentina", "Armada": "Pick Up", "kelurahan": "Taipa" }, "geometry": { "type": "LineString", "coordinates": [ [ 119.867781288086761, -0.76882226528929 ], [ 119.867686289566635, -0.76882232956858 ], [ 119.866569886530016, -0.768612472002833 ], [ 119.865610264599596, -0.768409906466366 ], [ 119.864935674895179, -0.768262135290933 ], [ 119.864642086042025, -0.768198261266341 ], [ 119.864361807469948, -0.768150157210859 ], [ 119.863064947504725, -0.767962162529285 ], [ 119.862121978092873, -0.767805008306035 ], [ 119.860128571031183, -0.76749316161465 ], [ 119.860076816033001, -0.767492798018803 ] ] } },
{ "type": "Feature", "properties": { "Id": 0, "Nama_Jalan": "Jl. Datu Masuci", "Armada": "Pick Up", "kelurahan": "Taipa" }, "geometry": { "type": "LineString", "coordinates": [ [ 119.859362656393884, -0.762788558226847 ], [ 119.859199249137774, -0.763964931417997 ], [ 119.859170991434866, -0.764330738175451 ], [ 119.859142714846087, -0.764667855722016 ], [ 119.859116651820528, -0.764761113244665 ] ] } },
{ "type": "Feature", "properties": { "Id": 0, "Nama_Jalan": "Jl. Harapan Baru", "Armada": "Pick Up", "kelurahan": "Taipa" }, "geometry": { "type": "LineString", "coordinates": [ [ 119.858028662530145, -0.764565799846625 ], [ 119.858526506528804, -0.764638145409179 ], [ 119.858705123996927, -0.764666714842878 ], [ 119.858984468414619, -0.764737294238263 ], [ 119.859035786957421, -0.764765949047786 ], [ 119.859666668600426, -0.764897496114551 ], [ 119.859706585963366, -0.764924245930176 ], [ 119.859704712590371, -0.764964412105402 ], [ 119.859545708682418, -0.765861535466997 ] ] } },
{ "type": "Feature", "properties": { "Id": 0, "Nama_Jalan": "Jl. Harapan Baru", "Armada": "Pick Up", "kelurahan": "Taipa" }, "geometry": { "type": "LineString", "coordinates": [ [ 119.859008755964084, -0.764750855712973 ], [ 119.858979749485201, -0.764784156504955 ], [ 119.858796037793354, -0.765669821283453 ], [ 119.858805574483469, -0.765725280759313 ] ] } },
{ "type": "Feature", "properties": { "Id": 0, "Nama_Jalan": "Jl. Vatu Oge", "Armada": "Pick Up", "kelurahan": "Taipa" }, "geometry": { "type": "LineString", "coordinates": [ [ 119.858805574483469, -0.765725280759313 ], [ 119.858862609506161, -0.765778795705236 ], [ 119.858969020011585, -0.765795937757253 ], [ 119.860336657251509, -0.766015224161556 ] ] } },
{ "type": "Feature", "properties": { "Id": 0, "Nama_Jalan": "Jl. Yanca", "Armada": "Pick Up", "kelurahan": "Taipa" }, "geometry": { "type": "LineString", "coordinates": [ [ 119.860336657251509, -0.766015224161556 ], [ 119.861073948030239, -0.766130545082822 ], [ 119.861534747141846, -0.766211521091262 ], [ 119.861582278382784, -0.766259304407391 ], [ 119.861523366223153, -0.766955056687682 ], [ 119.861502167861843, -0.767220445893134 ], [ 119.861437724764173, -0.767697964544545 ] ] } },
{ "type": "Feature", "properties": { "Id": 0, "Nama_Jalan": "Jl. Kabasara", "Armada": "Pick Up", "kelurahan": "Taipa" }, "geometry": { "type": "LineString", "coordinates": [ [ 119.859125893678012, -0.765821090854978 ], [ 119.859093314933787, -0.766637644420085 ], [ 119.859099547240646, -0.767617855991864 ], [ 119.859110638912213, -0.767957995340977 ], [ 119.859136809803914, -0.768027310038012 ], [ 119.859983172812676, -0.767953306860674 ] ] } },
{ "type": "Feature", "properties": { "Id": 0, "Nama_Jalan": "Jl. Lasapandi", "Armada": "Pick Up", "kelurahan": "Taipa" }, "geometry": { "type": "LineString", "coordinates": [ [ 119.860336657251509, -0.766015224161556 ], [ 119.860076816033001, -0.767492798018786 ], [ 119.859876500518638, -0.768477889742125 ], [ 119.859851037188676, -0.769471032178168 ] ] } },
{ "type": "Feature", "properties": { "Id": 0, "Nama_Jalan": "Jl. Lasapandi", "Armada": "R3", "kelurahan": "Taipa" }, "geometry": { "type": "LineString", "coordinates": [ [ 119.859851037188676, -0.769471032178151 ], [ 119.859813168580899, -0.771447028026101 ] ] } },
{ "type": "Feature", "properties": { "Id": 0, "Nama_Jalan": "Jl. Rendelele", "Armada": "Pick Up", "kelurahan": "Taipa" }, "geometry": { "type": "LineString", "coordinates": [ [ 119.859362656393884, -0.762788558226847 ], [ 119.859171932668175, -0.762730933852529 ], [ 119.859038902341666, -0.762683207476899 ], [ 119.858948612136288, -0.762621107864382 ], [ 119.858651671986564, -0.762518503383519 ] ] } },
{ "type": "Feature", "properties": { "Id": 0, "Nama_Jalan": "Jl. Dodoro Putia", "Armada": "R3", "kelurahan": "Taipa" }, "geometry": { "type": "LineString", "coordinates": [ [ 119.859851037188676, -0.769471032178151 ], [ 119.860269592112942, -0.769507029389721 ], [ 119.860522296221902, -0.769516421756388 ], [ 119.861903702073604, -0.769516205566347 ], [ 119.862093704886703, -0.769523249437207 ], [ 119.862314588719798, -0.769539835476005 ], [ 119.862585362920981, -0.769580295396275 ], [ 119.862820512459265, -0.76962077936857 ], [ 119.862887037247006, -0.769658986580668 ], [ 119.862915576816874, -0.769718736334582 ], [ 119.862935015571466, -0.770376182761058 ], [ 119.862906573376321, -0.770462269449515 ], [ 119.862871011055176, -0.770555533249041 ], [ 119.862854443740417, -0.770641611906095 ], [ 119.862856922557967, -0.770797009773357 ], [ 119.862888140858033, -0.771311002498742 ] ] } },
{ "type": "Feature", "properties": { "Id": 0, "Nama_Jalan": "Jl. Vatu Magompi", "Armada": "R3", "kelurahan": "Taipa" }, "geometry": { "type": "LineString", "coordinates": [ [ 119.859821464541852, -0.771014127237394 ], [ 119.858547811139644, -0.770993578254347 ], [ 119.858148789930098, -0.770957986538889 ], [ 119.857450539579716, -0.770951286346798 ] ] } },
{ "type": "Feature", "properties": { "Id": 0, "Nama_Jalan": "Jl. Uwe Puta", "Armada": "R3", "kelurahan": "Taipa" }, "geometry": { "type": "LineString", "coordinates": [ [ 119.859813168580899, -0.771447028026101 ], [ 119.859135937890628, -0.771470139047479 ], [ 119.858694205447449, -0.771491954983027 ], [ 119.857782295292807, -0.77161808767792 ], [ 119.857529361723167, -0.771621844999234 ] ] } },
{ "type": "Feature", "properties": { "Id": 0, "Nama_Jalan": "Jl. Malino", "Armada": "R3", "kelurahan": "Taipa" }, "geometry": { "type": "LineString", "coordinates": [ [ 119.859813168580899, -0.771447028026101 ], [ 119.861376669264345, -0.771375381797382 ], [ 119.862310001543605, -0.771324543448679 ], [ 119.862888140858033, -0.771311002498742 ], [ 119.863184561230369, -0.771286893996129 ], [ 119.863918411925951, -0.771262488983747 ], [ 119.864338772352411, -0.771247859455411 ], [ 119.865723347853233, -0.77119910541223 ], [ 119.86716967234338, -0.771152699885977 ], [ 119.867594778274409, -0.771133285390165 ], [ 119.868179001793678, -0.771106590613663 ], [ 119.868264497267774, -0.771101751080999 ], [ 119.868378866322388, -0.771077472640272 ] ] } },
{ "type": "Feature", "properties": { "Id": 0, "Nama_Jalan": null, "Armada": "R3", "kelurahan": "Taipa" }, "geometry": { "type": "LineString", "coordinates": [ [ 119.862930776024768, -0.770232796340148 ], [ 119.863190973511678, -0.770220610003995 ] ] } },
{ "type": "Feature", "properties": { "Id": 0, "Nama_Jalan": null, "Armada": "R3", "kelurahan": "Taipa" }, "geometry": { "type": "LineString", "coordinates": [ [ 119.868387658958014, -0.771110205113404 ], [ 119.86882100076572, -0.770998403719082 ] ] } },
{ "type": "Feature", "properties": { "Id": 0, "Nama_Jalan": null, "Armada": "R3", "kelurahan": "Taipa" }, "geometry": { "type": "LineString", "coordinates": [ [ 119.865775612673076, -0.7711974284957 ], [ 119.865759654894219, -0.770858529528554 ] ] } },
{ "type": "Feature", "properties": { "Id": 0, "Nama_Jalan": "Jl. Baruga", "Armada": "R3", "kelurahan": "Taipa" }, "geometry": { "type": "LineString", "coordinates": [ [ 119.86290518016601, -0.771309616655806 ], [ 119.862918702512019, -0.771698105941515 ], [ 119.862944477192499, -0.772239596069083 ], [ 119.862963211263619, -0.772552055951761 ], [ 119.862982369952917, -0.772789206533632 ], [ 119.863036479349844, -0.77343802255756 ], [ 119.863066177942684, -0.773809048602687 ], [ 119.863077647127668, -0.773912321712258 ], [ 119.863113472985248, -0.774212098864213 ], [ 119.863115001983445, -0.774367019180228 ], [ 119.863122284896235, -0.774602265171374 ], [ 119.86316877742739, -0.775224309682677 ], [ 119.863258300869461, -0.776263871275594 ], [ 119.863300608470965, -0.776665609846579 ], [ 119.863344930871762, -0.776885051472212 ], [ 119.863370645371845, -0.776981142513953 ] ] } },
{ "type": "Feature", "properties": { "Id": 0, "Nama_Jalan": "Jl. Ino Toa/ Moh. Saleh", "Armada": "R3", "kelurahan": "Taipa" }, "geometry": { "type": "LineString", "coordinates": [ [ 119.859813168580899, -0.771447028026101 ], [ 119.859814755069962, -0.771567282613354 ], [ 119.859849483256653, -0.772357647176465 ], [ 119.859861377271244, -0.773095908430084 ], [ 119.859873293554671, -0.773866684102483 ], [ 119.859912391037199, -0.77479523199012 ], [ 119.859960318281281, -0.775432100068721 ], [ 119.860039894029043, -0.776512673094273 ], [ 119.8600590183718, -0.776697705507867 ], [ 119.86012775867249, -0.7772040232896 ], [ 119.860181614241597, -0.777472708850131 ], [ 119.86036728498523, -0.77809896319734 ] ] } },
{ "type": "Feature", "properties": { "Id": 0, "Nama_Jalan": "Jl. Ginggiri", "Armada": "R3", "kelurahan": "Taipa" }, "geometry": { "type": "LineString", "coordinates": [ [ 119.859863333121439, -0.773222420123078 ], [ 119.860192899602509, -0.773235543388274 ], [ 119.860428486182073, -0.773218169958447 ], [ 119.860652693305894, -0.773231406062645 ], [ 119.860798988234777, -0.773225568910907 ], [ 119.86091676288757, -0.773189149309036 ], [ 119.861059243719225, -0.773162276003447 ], [ 119.861237835745001, -0.773152591697 ], [ 119.861741335019389, -0.773157987675828 ], [ 119.862391162123316, -0.773207274251306 ], [ 119.863019912699045, -0.773239375323587 ] ] } },
{ "type": "Feature", "properties": { "Id": 0, "Nama_Jalan": "Jl. Kunduri", "Armada": "R3", "kelurahan": "Taipa" }, "geometry": { "type": "LineString", "coordinates": [ [ 119.861823140584136, -0.771351062649934 ], [ 119.861824671931245, -0.771820218716966 ], [ 119.861837814276029, -0.771939748026669 ], [ 119.861828391951633, -0.772055706487699 ], [ 119.861834484597352, -0.772287606500837 ], [ 119.861832164832336, -0.77237008944536 ], [ 119.861797807688305, -0.772489650974057 ], [ 119.86178836540563, -0.772575724901074 ], [ 119.861782855033624, -0.77285879515428 ], [ 119.861763352678068, -0.773159657622143 ] ] } },
{ "type": "Feature", "properties": { "Id": 0, "Nama_Jalan": "Jl. Moh. Amin", "Armada": "R3", "kelurahan": "Taipa" }, "geometry": { "type": "LineString", "coordinates": [ [ 119.869656287037003, -0.774682075245831 ], [ 119.86908240900199, -0.774885301452493 ], [ 119.867142533991057, -0.775587593401013 ], [ 119.863370645371845, -0.776981142513953 ], [ 119.86173381284442, -0.777597132540678 ], [ 119.86036728498523, -0.77809896319734 ], [ 119.858695777568016, -0.778721673120927 ] ] } },
{ "type": "Feature", "properties": { "Id": 0, "Nama_Jalan": "Jl. Langaleso", "Armada": "R3", "kelurahan": "Taipa" }, "geometry": { "type": "LineString", "coordinates": [ [ 119.863618966242598, -0.776889398703008 ], [ 119.863947040708723, -0.778102561208287 ], [ 119.864354317443869, -0.77981287073703 ], [ 119.8645383206688, -0.780711429810611 ] ] } },
{ "type": "Feature", "properties": { "Id": 0, "Nama_Jalan": "Jl. Taipa Beach", "Armada": "R3", "kelurahan": "Taipa" }, "geometry": { "type": "LineString", "coordinates": [ [ 119.8645383206688, -0.780711429810611 ], [ 119.864515132671869, -0.780768322831316 ], [ 119.864479548834552, -0.780828594375367 ], [ 119.86443397746406, -0.780870224859965 ], [ 119.8643556323848, -0.780913312300785 ], [ 119.864188945926983, -0.780967936034732 ], [ 119.863487991718529, -0.78117402259127 ], [ 119.862521103354737, -0.781474966046416 ], [ 119.86223805741939, -0.781551664782495 ], [ 119.862118376482002, -0.781578523496887 ], [ 119.861968297055554, -0.781607315693283 ], [ 119.86176240632777, -0.781637341587467 ], [ 119.860134439570544, -0.781763974141759 ] ] } },
{ "type": "Feature", "properties": { "Id": 0, "Nama_Jalan": "Jl. Uwe Bodi", "Armada": "R3", "kelurahan": "Taipa" }, "geometry": { "type": "LineString", "coordinates": [ [ 119.861181664315581, -0.777799898285908 ], [ 119.861246897683287, -0.778022455491768 ], [ 119.861276667970074, -0.778145559576263 ], [ 119.861323071204495, -0.778280606113929 ], [ 119.86135872172801, -0.778318833994539 ], [ 119.861438325536525, -0.778380939481377 ], [ 119.861561876176268, -0.778457359504554 ], [ 119.861672480574072, -0.778705923414717 ], [ 119.861687959097083, -0.778766877327259 ], [ 119.861735817877204, -0.779298789701136 ], [ 119.861760281749099, -0.779476884910633 ], [ 119.861746362256056, -0.779965805778999 ], [ 119.861770572066987, -0.780645961678319 ], [ 119.861802350174742, -0.781278775219044 ], [ 119.861820720435503, -0.781628837401086 ] ] } },
{ "type": "Feature", "properties": { "Id": 0, "Nama_Jalan": null, "Armada": "R3", "kelurahan": "Taipa" }, "geometry": { "type": "LineString", "coordinates": [ [ 119.861750306819758, -0.779827252626979 ], [ 119.861624746512476, -0.779829950200836 ], [ 119.861572040333314, -0.779857241016016 ], [ 119.861492260324454, -0.779885984834274 ], [ 119.86143811654604, -0.779894628670033 ], [ 119.861069053928773, -0.779909226008249 ] ] } },
{ "type": "Feature", "properties": { "Id": 0, "Nama_Jalan": null, "Armada": "R3", "kelurahan": "Taipa" }, "geometry": { "type": "LineString", "coordinates": [ [ 119.870907094348425, -0.778854617471921 ], [ 119.870264351242241, -0.779017350634614 ], [ 119.869941401504391, -0.779084513157486 ], [ 119.869871119401708, -0.779109425157185 ], [ 119.869798946389025, -0.779147726642712 ], [ 119.869658421017775, -0.779254928575379 ], [ 119.869616656610489, -0.779306597392899 ] ] } },
{ "type": "Feature", "properties": { "Id": 0, "Nama_Jalan": "Jl. Sungai Palayua", "Armada": "R3", "kelurahan": "Taipa" }, "geometry": { "type": "LineString", "coordinates": [ [ 119.871236591854995, -0.78045750407285 ], [ 119.871929697959644, -0.780346811447282 ], [ 119.873817537260905, -0.77997315498552 ], [ 119.875420418660596, -0.779658267984973 ], [ 119.877085666443321, -0.779382187739883 ], [ 119.87863096955779, -0.779095431918634 ], [ 119.879965553538668, -0.778896082864202 ], [ 119.880411981006162, -0.778804927950281 ], [ 119.881021675132288, -0.778715821291873 ] ] } },
{ "type": "Feature", "properties": { "Id": 0, "Nama_Jalan": null, "Armada": "R3", "kelurahan": "Taipa" }, "geometry": { "type": "LineString", "coordinates": [ [ 119.881021675132288, -0.778715821291873 ], [ 119.881029461890705, -0.778449241227739 ], [ 119.881024681157513, -0.778403820764104 ], [ 119.881006860173258, -0.778390684047603 ], [ 119.880972423535312, -0.778390707747782 ], [ 119.880875065580113, -0.778412291268463 ] ] } },
{ "type": "Feature", "properties": { "Id": 0, "Nama_Jalan": "Jl. Lenturu", "Armada": "R3", "kelurahan": "Taipa" }, "geometry": { "type": "LineString", "coordinates": [ [ 119.87948227205618, -0.778968271455991 ], [ 119.879462935054363, -0.778777998201731 ], [ 119.87953643492871, -0.778596252362942 ], [ 119.879541110148779, -0.778486275702445 ], [ 119.879555028802557, -0.777998557817075 ], [ 119.879493118094459, -0.777759527668199 ], [ 119.87946214006304, -0.777606542418146 ] ] } },
{ "type": "Feature", "properties": { "Id": 0, "Nama_Jalan": "Jl. Pobolonggea", "Armada": "R3", "kelurahan": "Taipa" }, "geometry": { "type": "LineString", "coordinates": [ [ 119.877903901248843, -0.77923035115089 ], [ 119.877969809887389, -0.77983250083553 ], [ 119.878045703862881, -0.780377535041973 ], [ 119.878095902783883, -0.780855168308738 ], [ 119.878044882226959, -0.781264018357515 ], [ 119.87796386806572, -0.781571044037116 ], [ 119.877948274515759, -0.781690113174071 ], [ 119.877929894577363, -0.781902422724182 ], [ 119.877930145874743, -0.782271073179435 ], [ 119.877947314954355, -0.782372906430673 ], [ 119.877943074282982, -0.782423114698962 ], [ 119.877924593701181, -0.782487677191271 ], [ 119.877830682682372, -0.782688563464549 ], [ 119.877812465420163, -0.783138989711674 ], [ 119.877802792273329, -0.783580803429095 ], [ 119.877809975905279, -0.783666864761005 ], [ 119.877791516940277, -0.783762984910419 ], [ 119.877682079436454, -0.784180482279768 ], [ 119.87764084647128, -0.784313913625092 ], [ 119.877569813689419, -0.784629539337098 ], [ 119.877518711928829, -0.78491789693509 ] ] } },
{ "type": "Feature", "properties": { "Id": 0, "Nama_Jalan": "Jl. Mpolele", "Armada": "R3", "kelurahan": "Taipa" }, "geometry": { "type": "LineString", "coordinates": [ [ 119.875390234300923, -0.779664197722163 ], [ 119.875358718073315, -0.779321115073385 ], [ 119.875310959487251, -0.778938630163161 ], [ 119.875307098592458, -0.778848741144508 ], [ 119.875318414056011, -0.778724415098524 ] ] } },
{ "type": "Feature", "properties": { "Id": 0, "Nama_Jalan": null, "Armada": "R3", "kelurahan": "Taipa" }, "geometry": { "type": "LineString", "coordinates": [ [ 119.87319639840014, -0.780096095855649 ], [ 119.873223095659043, -0.780280074706305 ], [ 119.873230330114524, -0.780441444701387 ], [ 119.873215016295092, -0.780623151507809 ] ] } },
{ "type": "Feature", "properties": { "Id": 0, "Nama_Jalan": "Jl. Labua Beru", "Armada": "Pick Up", "kelurahan": "Taipa" }, "geometry": { "type": "LineString", "coordinates": [ [ 119.872546968038478, -0.786392903489677 ], [ 119.872404354896361, -0.786428935244579 ], [ 119.872298684572513, -0.786451720551066 ], [ 119.872201921986957, -0.786476890426346 ], [ 119.872082607050217, -0.786516420394114 ], [ 119.871227244760192, -0.78683677536686 ], [ 119.870976152624195, -0.786925407015047 ], [ 119.870677565179079, -0.787020048482581 ], [ 119.869069769033729, -0.787523654401934 ], [ 119.86761656410016, -0.787931089673597 ], [ 119.866374692491448, -0.788283391566315 ], [ 119.865213532733108, -0.788583041226997 ], [ 119.864869221205382, -0.788671738002761 ] ] } },
{ "type": "Feature", "properties": { "Id": 0, "Nama_Jalan": "Jl. Labua Beru Lrg. Launu/ Jl. Papahera", "Armada": "Pick Up", "kelurahan": "Taipa" }, "geometry": { "type": "LineString", "coordinates": [ [ 119.872296125233518, -0.784564618246519 ], [ 119.871244487500817, -0.784800044200113 ], [ 119.870484597761646, -0.784945926986525 ], [ 119.870237623430342, -0.784978611912015 ], [ 119.869274376937923, -0.785038568407319 ], [ 119.868989404125244, -0.785073192180874 ], [ 119.867688110548599, -0.785353331307818 ], [ 119.867224573248564, -0.785437806167883 ], [ 119.866654427437311, -0.785563475690965 ] ] } },
{ "type": "Feature", "properties": { "Id": 0, "Nama_Jalan": "Jl. Damai", "Armada": "Pick Up", "kelurahan": "Taipa" }, "geometry": { "type": "LineString", "coordinates": [ [ 119.868585406196914, -0.785160163825406 ], [ 119.868609214848064, -0.785485181964297 ], [ 119.868674314170207, -0.786217662711292 ], [ 119.868714575684422, -0.78674742499747 ], [ 119.868831681230958, -0.787590407114733 ] ] } },
{ "type": "Feature", "properties": { "Id": 0, "Nama_Jalan": "Jl. Kambarogo/ Jl. Papa Lonto", "Armada": "Pick Up", "kelurahan": "Taipa" }, "geometry": { "type": "LineString", "coordinates": [ [ 119.867134467842106, -0.788067853752631 ], [ 119.866904132772561, -0.786862956615872 ], [ 119.866727899403671, -0.785978499650033 ], [ 119.866621136535514, -0.785444957135693 ], [ 119.866485728291821, -0.784697222694014 ] ] } },
{ "type": "Feature", "properties": { "Id": 0, "Nama_Jalan": null, "Armada": "Pick Up", "kelurahan": "Taipa" }, "geometry": { "type": "LineString", "coordinates": [ [ 119.868694103276781, -0.786478048825929 ], [ 119.868371116438936, -0.786564053238631 ], [ 119.868186848685582, -0.786608170637971 ], [ 119.867434544850951, -0.786736835793143 ], [ 119.867109682382193, -0.786786788356628 ], [ 119.866897644569278, -0.786830394540083 ] ] } },
{ "type": "Feature", "properties": { "Id": 0, "Nama_Jalan": null, "Armada": "Pick Up", "kelurahan": "Taipa" }, "geometry": { "type": "LineString", "coordinates": [ [ 119.866901931632313, -0.786851909845462 ], [ 119.866631921714529, -0.786910481993248 ] ] } },
{ "type": "Feature", "properties": { "Id": 0, "Nama_Jalan": "Jl. Dodoro Vulu", "Armada": "Pick Up", "kelurahan": "Taipa" }, "geometry": { "type": "LineString", "coordinates": [ [ 119.867267931472213, -0.788029991956308 ], [ 119.867374526133332, -0.788456944150874 ], [ 119.867444331748132, -0.788786888803796 ], [ 119.86746578218694, -0.788897326675181 ], [ 119.867543294081372, -0.789490450699404 ] ] } },
{ "type": "Feature", "properties": { "Id": 0, "Nama_Jalan": "Jl. Talua Konci", "Armada": "Pick Up", "kelurahan": "Taipa" }, "geometry": { "type": "LineString", "coordinates": [ [ 119.867543294081386, -0.789490450699404 ], [ 119.866698519070894, -0.789714112971231 ], [ 119.865872304955801, -0.789947187909441 ], [ 119.865148586913534, -0.790203979841795 ], [ 119.865051704758145, -0.790228911033919 ], [ 119.864990898696163, -0.790219390252266 ] ] } },
{ "type": "Feature", "properties": { "Id": 0, "Nama_Jalan": "Jl. Nelayan", "Armada": "Pick Up", "kelurahan": "Taipa" }, "geometry": { "type": "LineString", "coordinates": [ [ 119.864990898696163, -0.790219390252266 ], [ 119.864971244098655, -0.790183699104462 ], [ 119.864966942825603, -0.790145330432639 ], [ 119.864929062262206, -0.789799414106467 ], [ 119.864868940432629, -0.789257471049853 ], [ 119.86482084891783, -0.788739785785265 ], [ 119.864830265031458, -0.788708542841594 ], [ 119.864869221205382, -0.788671738002761 ] ] } },
{ "type": "Feature", "properties": { "Id": 0, "Nama_Jalan": "Jl. Kembang Rogo", "Armada": "Pick Up", "kelurahan": "Taipa" }, "geometry": { "type": "LineString", "coordinates": [ [ 119.864889620726046, -0.788666482960373 ], [ 119.864882581644238, -0.788459389597276 ], [ 119.864872981967082, -0.788313560022823 ], [ 119.86485749799634, -0.788245434154795 ], [ 119.864832507570796, -0.788167751840678 ], [ 119.864798040935057, -0.788124742080029 ], [ 119.864716044459797, -0.788037536221306 ], [ 119.864615049781406, -0.787952734267056 ], [ 119.864518787090446, -0.787841630673125 ], [ 119.864461732824125, -0.787761579770734 ], [ 119.864374931682136, -0.787594286756648 ] ] } },
{ "type": "Feature", "properties": { "Id": 0, "Nama_Jalan": null, "Armada": "Pick Up", "kelurahan": "Taipa" }, "geometry": { "type": "LineString", "coordinates": [ [ 119.868698680301478, -0.785135778465906 ], [ 119.868626873778226, -0.784624838446664 ] ] } },
{ "type": "Feature", "properties": { "Id": 0, "Nama_Jalan": null, "Armada": "Pick Up", "kelurahan": "Taipa" }, "geometry": { "type": "LineString", "coordinates": [ [ 119.867205415839777, -0.785442028776489 ], [ 119.867166452707849, -0.785247761545916 ], [ 119.867120660245561, -0.784964728011965 ], [ 119.867118704213581, -0.784882487454122 ], [ 119.867116766434918, -0.78482702331885 ] ] } },
{ "type": "Feature", "properties": { "Id": 0, "Nama_Jalan": null, "Armada": "Pick Up", "kelurahan": "Taipa" }, "geometry": { "type": "LineString", "coordinates": [ [ 119.870129521701728, -0.787191710750736 ], [ 119.869985725696822, -0.786614786291648 ] ] } }
]
}
