{
"type": "FeatureCollection",
"name": "Talise",
"crs": { "type": "name", "properties": { "name": "urn:ogc:def:crs:OGC:1.3:CRS84" } },
"features": [
{ "type": "Feature", "properties": { "Id": 0, "Nama_Jalan": "Jl. Kamboja", "Armada": 2.0, "kelurahan": "Talise" }, "geometry": { "type": "LineString", "coordinates": [ [ 119.877418249052894, -0.882326570910579 ], [ 119.877542722022497, -0.882046758481471 ], [ 119.877695375527423, -0.881350937145139 ], [ 119.877835701438883, -0.880838614081385 ], [ 119.877716082079857, -0.879706098812024 ], [ 119.87759590179148, -0.87892502107432 ], [ 119.876547026217366, -0.878832118321005 ], [ 119.876547975306039, -0.878830922218436 ] ] } },
{ "type": "Feature", "properties": { "Id": 0, "Nama_Jalan": "Jl. Bukit Shofa", "Armada": 2.0, "kelurahan": "Talise" }, "geometry": { "type": "LineString", "coordinates": [ [ 119.87704554080004, -0.875724976067099 ], [ 119.877304451163837, -0.875770199755886 ], [ 119.877387556306516, -0.87574383745138 ], [ 119.877508597678229, -0.875633770246605 ], [ 119.877886124992017, -0.875504378906182 ], [ 119.878071287781168, -0.875389480723568 ], [ 119.8783181568609, -0.875217157372065 ], [ 119.878536454728575, -0.874951617761582 ], [ 119.878602859989584, -0.87482724857159 ], [ 119.878977740284412, -0.874341641182247 ], [ 119.879098823447023, -0.874286560920575 ], [ 119.879412248867965, -0.874188299008266 ], [ 119.87957372885829, -0.874161876277959 ] ] } },
{ "type": "Feature", "properties": { "Id": 0, "Nama_Jalan": "Jl. Jabal Nur, Depan Pura", "Armada": 2.0, "kelurahan": "Talise" }, "geometry": { "type": "LineString", "coordinates": [ [ 119.882259519923622, -0.871074814882958 ], [ 119.882622912311049, -0.871098920216092 ] ] } },
{ "type": "Feature", "properties": { "Id": 0, "Nama_Jalan": "Jl. Tombolotutu", "Armada": 2.0, "kelurahan": "Talise" }, "geometry": { "type": "LineString", "coordinates": [ [ 119.87269082868724, -0.880347347018796 ], [ 119.873605281509853, -0.880439278321956 ], [ 119.875477656069052, -0.880788664400435 ], [ 119.875619602068554, -0.880839357176925 ], [ 119.877045526997222, -0.882033614179961 ], [ 119.877843343172046, -0.882710112389388 ], [ 119.877974235057337, -0.882802206868089 ], [ 119.878389379898422, -0.883053109627702 ], [ 119.878757823738567, -0.883465222746942 ], [ 119.878894517914603, -0.883635455386083 ], [ 119.879445437108529, -0.884065109260554 ] ] } },
{ "type": "Feature", "properties": { "Id": 0, "Nama_Jalan": "Jl. Jendral Ahmad Yani", "Armada": 2.0, "kelurahan": "Talise" }, "geometry": { "type": "LineString", "coordinates": [ [ 119.87315371241786, -0.882556569033219 ], [ 119.873125987424061, -0.883565482728293 ], [ 119.873122006915779, -0.883948482316973 ], [ 119.873071462346275, -0.884414453128192 ] ] } },
{ "type": "Feature", "properties": { "Id": 0, "Nama_Jalan": "Lrg. Vatu Doke Raya I", "Armada": 2.0, "kelurahan": "Talise" }, "geometry": { "type": "LineString", "coordinates": [ [ 119.881386273943775, -0.882669908774499 ], [ 119.881458036587148, -0.88210181720476 ] ] } },
{ "type": "Feature", "properties": { "Id": 0, "Nama_Jalan": "Lrg. Ino Kodi", "Armada": 2.0, "kelurahan": "Talise" }, "geometry": { "type": "LineString", "coordinates": [ [ 119.879791115274287, -0.882703281146459 ], [ 119.879921648533667, -0.882583643050384 ], [ 119.879957145710506, -0.882417459958919 ], [ 119.879941172249602, -0.882139448863883 ], [ 119.88028618086129, -0.882115959768989 ] ] } },
{ "type": "Feature", "properties": { "Id": 0, "Nama_Jalan": "Lrg. Nangka", "Armada": 2.0, "kelurahan": "Talise" }, "geometry": { "type": "LineString", "coordinates": [ [ 119.878939420024949, -0.886872126460898 ], [ 119.878878067131353, -0.886771763980669 ], [ 119.878856667643547, -0.886740223143005 ], [ 119.878822453083984, -0.886721602271942 ], [ 119.878776846238807, -0.886713031379935 ], [ 119.878645726827443, -0.886688748667355 ], [ 119.878564010023453, -0.886667535195894 ], [ 119.878484435159507, -0.886652057789798 ], [ 119.878341944678908, -0.88666531839776 ], [ 119.878236256689362, -0.886665401171881 ], [ 119.877795647702513, -0.886608368707406 ], [ 119.87771014172516, -0.886601263468566 ], [ 119.877670975268259, -0.886628787529874 ], [ 119.877657941335713, -0.886665854050806 ], [ 119.87763659733055, -0.886706123201034 ], [ 119.876649282134622, -0.886630054670143 ], [ 119.876629266335527, -0.886593263903118 ], [ 119.876628916300277, -0.886139981351214 ], [ 119.875969105070254, -0.886098898682659 ], [ 119.8757824144446, -0.886080396956239 ], [ 119.875622032584161, -0.886050750267371 ] ] } },
{ "type": "Feature", "properties": { "Id": 0, "Nama_Jalan": "Lrg. Vatu Doke Raya II", "Armada": 2.0, "kelurahan": "Talise" }, "geometry": { "type": "LineString", "coordinates": [ [ 119.881001595806879, -0.882648373727677 ], [ 119.881054252545425, -0.881942591235081 ] ] } },
{ "type": "Feature", "properties": { "Id": 0, "Nama_Jalan": "Lrg. Kabelota", "Armada": 2.0, "kelurahan": "Talise" }, "geometry": { "type": "LineString", "coordinates": [ [ 119.879750261724112, -0.88287575175365 ], [ 119.880682075087392, -0.883003645528702 ] ] } },
{ "type": "Feature", "properties": { "Id": 0, "Nama_Jalan": "Jl. Abadi", "Armada": 1.0, "kelurahan": "Talise" }, "geometry": { "type": "LineString", "coordinates": [ [ 119.872833421503572, -0.879355318211936 ], [ 119.873736066981635, -0.879536314430158 ], [ 119.873992607119803, -0.879586320925995 ], [ 119.874401177451915, -0.879674461210321 ], [ 119.874778845013367, -0.879726764328602 ], [ 119.876042490062275, -0.879906283756372 ], [ 119.876534157639753, -0.879958498000537 ] ] } },
{ "type": "Feature", "properties": { "Id": 0, "Nama_Jalan": "Jl. Domba", "Armada": 1.0, "kelurahan": "Talise" }, "geometry": { "type": "LineString", "coordinates": [ [ 119.87319473321412, -0.878206287744054 ], [ 119.874181724796372, -0.878431448025841 ], [ 119.87479102005517, -0.878567247846672 ], [ 119.876504890029466, -0.878956803804458 ] ] } },
{ "type": "Feature", "properties": { "Id": 0, "Nama_Jalan": "Jl. Rusa", "Armada": 1.0, "kelurahan": "Talise" }, "geometry": { "type": "LineString", "coordinates": [ [ 119.874181724796372, -0.878431448025841 ], [ 119.874201344962145, -0.878155183117161 ], [ 119.874261340235762, -0.876945782191739 ], [ 119.874432728376604, -0.875896713786098 ], [ 119.874569849053572, -0.875070010640573 ], [ 119.874534174707321, -0.875005488287612 ], [ 119.874163603661259, -0.874914926282821 ] ] } },
{ "type": "Feature", "properties": { "Id": 0, "Nama_Jalan": "Jl. Kangguru", "Armada": 1.0, "kelurahan": "Talise" }, "geometry": { "type": "LineString", "coordinates": [ [ 119.874303777413402, -0.876686023327196 ], [ 119.874957088770287, -0.876774784483735 ], [ 119.875396516967015, -0.876841385110062 ], [ 119.875745754888442, -0.876986949658388 ], [ 119.876774212392775, -0.877088955005246 ] ] } },
{ "type": "Feature", "properties": { "Id": 0, "Nama_Jalan": "Jl. Macan", "Armada": 1.0, "kelurahan": "Talise" }, "geometry": { "type": "LineString", "coordinates": [ [ 119.874517207384102, -0.875387387865811 ], [ 119.875191235446636, -0.875490778474612 ], [ 119.876969077091076, -0.875683053940527 ] ] } },
{ "type": "Feature", "properties": { "Id": 0, "Nama_Jalan": "Jl. Kelinci", "Armada": 1.0, "kelurahan": "Talise" }, "geometry": { "type": "LineString", "coordinates": [ [ 119.87453445942684, -0.873819563109854 ], [ 119.876366387476551, -0.874084119566592 ], [ 119.876978017640567, -0.874170311622729 ], [ 119.877173969264362, -0.874188090864433 ] ] } },
{ "type": "Feature", "properties": { "Id": 0, "Nama_Jalan": "Jl. Unta", "Armada": 1.0, "kelurahan": "Talise" }, "geometry": { "type": "LineString", "coordinates": [ [ 119.875921380834257, -0.877004368767501 ], [ 119.875921279348177, -0.876379447885723 ], [ 119.875932737528615, -0.875833156356392 ], [ 119.875966534599968, -0.875574628047722 ], [ 119.876031998528504, -0.874412147128803 ], [ 119.876048746681661, -0.874038247818177 ] ] } },
{ "type": "Feature", "properties": { "Id": 0, "Nama_Jalan": "Jl. Beruang", "Armada": 1.0, "kelurahan": "Talise" }, "geometry": { "type": "LineString", "coordinates": [ [ 119.875764183024216, -0.876988777416816 ], [ 119.875746616912139, -0.877027232861664 ], [ 119.875645298175101, -0.878082820502259 ], [ 119.875642622276359, -0.878465698683954 ], [ 119.875598923506288, -0.878750881334916 ] ] } },
{ "type": "Feature", "properties": { "Id": 0, "Nama_Jalan": "Perumahan Kampung Nelayan", "Armada": 1.0, "kelurahan": "Talise" }, "geometry": { "type": "LineString", "coordinates": [ [ 119.876290187186726, -0.867834773682356 ], [ 119.876636224906619, -0.867960299638296 ], [ 119.876679917723578, -0.867950703229967 ], [ 119.87676961255147, -0.867844485996761 ], [ 119.877017749452506, -0.867471477046993 ], [ 119.87727893611607, -0.866750097222325 ], [ 119.877529679945312, -0.866214775771505 ], [ 119.87804631119009, -0.865209949711056 ], [ 119.878695644425676, -0.864118683773231 ] ] } },
{ "type": "Feature", "properties": { "Id": 0, "Nama_Jalan": "SMK N 7", "Armada": 1.0, "kelurahan": "Talise" }, "geometry": { "type": "LineString", "coordinates": [ [ 119.872449694908767, -0.877172271498973 ], [ 119.872070112489951, -0.877072162862127 ], [ 119.872093316194722, -0.876972113105379 ], [ 119.872164034960406, -0.876621426406962 ], [ 119.872185533140978, -0.876471271219221 ] ] } },
{ "type": "Feature", "properties": { "Id": 0, "Nama_Jalan": "Lrg. Jabal Rahma", "Armada": 2.0, "kelurahan": "Talise" }, "geometry": { "type": "LineString", "coordinates": [ [ 119.882393429620521, -0.884414780472823 ], [ 119.882322319220179, -0.884764139120787 ] ] } },
{ "type": "Feature", "properties": { "Id": 0, "Nama_Jalan": "Bukit Aladin", "Armada": 2.0, "kelurahan": "Talise" }, "geometry": { "type": "LineString", "coordinates": [ [ 119.877834617395592, -0.880828350780691 ], [ 119.877922126957003, -0.880814881918315 ], [ 119.878380964835969, -0.88079683355585 ], [ 119.878640550509985, -0.880793284560482 ], [ 119.878690419220547, -0.880784878209459 ], [ 119.878723651869322, -0.880762140436245 ], [ 119.878752121654102, -0.880722671275514 ], [ 119.878958099295389, -0.88018794437035 ], [ 119.879016424254729, -0.880057365306789 ], [ 119.879057696511993, -0.879988480273519 ], [ 119.87910325478542, -0.879933936274868 ], [ 119.879235682105929, -0.879806168505108 ], [ 119.879341084986322, -0.879744405819397 ], [ 119.880091943358352, -0.879590337509071 ], [ 119.880374062829105, -0.879549953999946 ], [ 119.880800123817224, -0.87953097508112 ], [ 119.880904156570679, -0.879540935224315 ], [ 119.881001057707763, -0.87954229430565 ], [ 119.881093677230311, -0.879535050111605 ], [ 119.881223329136034, -0.879504826180506 ], [ 119.881647888829661, -0.879386872485289 ], [ 119.88171057890203, -0.879373913836003 ], [ 119.881754761592603, -0.879383920505814 ], [ 119.881833162984009, -0.87941828591863 ], [ 119.881922940143255, -0.879421084958491 ], [ 119.88210248563189, -0.879415207577779 ], [ 119.882381767789255, -0.879392039422252 ] ] } },
{ "type": "Feature", "properties": { "Id": 0, "Nama_Jalan": "Jl. Gn. Tinombala", "Armada": 2.0, "kelurahan": "Talise" }, "geometry": { "type": "LineString", "coordinates": [ [ 119.873122625766726, -0.883888936440983 ], [ 119.873211925657898, -0.883865002628255 ], [ 119.873306925529036, -0.883863733220137 ], [ 119.874247070872855, -0.884009791650513 ], [ 119.874309772812509, -0.884011655347866 ], [ 119.874374354156942, -0.883986741324182 ], [ 119.874416114725662, -0.883935068843657 ], [ 119.87445025905032, -0.883862363820728 ], [ 119.87447297239315, -0.883749503335843 ], [ 119.874493785731588, -0.883636644336318 ], [ 119.874539338976959, -0.883575405969916 ], [ 119.874588721672637, -0.883552416407719 ], [ 119.874657111855214, -0.883538974977294 ], [ 119.875975798702711, -0.883639792148137 ] ] } },
{ "type": "Feature", "properties": { "Id": 0, "Nama_Jalan": "Lrg. 3 Limbuo", "Armada": 2.0, "kelurahan": "Talise" }, "geometry": { "type": "LineString", "coordinates": [ [ 119.872109172073166, -0.882279126575903 ], [ 119.872591902536939, -0.882443234115797 ], [ 119.872856072312246, -0.88253100784272 ], [ 119.873062728204275, -0.882568859806652 ], [ 119.873122101850498, -0.882566422864456 ], [ 119.87315371241786, -0.882556569033219 ] ] } },
{ "type": "Feature", "properties": { "Id": 0, "Nama_Jalan": "Lrg. Pue Nggai", "Armada": 2.0, "kelurahan": "Talise" }, "geometry": { "type": "LineString", "coordinates": [ [ 119.87315371241786, -0.882556569033219 ], [ 119.873211138445427, -0.882531687855664 ], [ 119.873394013058942, -0.882529154805357 ], [ 119.873607762879558, -0.882526597717711 ], [ 119.873722962273675, -0.882540852490049 ], [ 119.873789478383884, -0.882561121994087 ], [ 119.87379424402944, -0.882581439559599 ], [ 119.873758690387177, -0.882674706026633 ], [ 119.873699528017497, -0.88295207773669 ], [ 119.873663639965642, -0.8832282359768 ], [ 119.873642880954989, -0.883411860865064 ] ] } },
{ "type": "Feature", "properties": { "Id": 0, "Nama_Jalan": "Lrg. Mangga", "Armada": 2.0, "kelurahan": "Talise" }, "geometry": { "type": "LineString", "coordinates": [ [ 119.872545444823004, -0.880861077955749 ], [ 119.872946509286052, -0.881071151624133 ], [ 119.873087136775339, -0.881105469033152 ], [ 119.873292379406749, -0.881158862139745 ], [ 119.873463427622653, -0.881219932151767 ], [ 119.873972700247208, -0.881309428115691 ], [ 119.874107135351736, -0.88132127730548 ], [ 119.874201180493927, -0.881314031986988 ], [ 119.874629203454546, -0.881372511351283 ], [ 119.875356011857136, -0.88144223377321 ] ] } },
{ "type": "Feature", "properties": { "Id": 0, "Nama_Jalan": "Lrg. Gapensi", "Armada": 2.0, "kelurahan": "Talise" }, "geometry": { "type": "LineString", "coordinates": [ [ 119.879084045203328, -0.886036819928828 ], [ 119.878435512477964, -0.885836506393449 ], [ 119.878211743301122, -0.885780738430745 ], [ 119.878156619426292, -0.885750180227788 ], [ 119.878139475049906, -0.885692816144101 ], [ 119.878133738110449, -0.885645006051383 ], [ 119.878065923986682, -0.885635257108728 ], [ 119.877844927917138, -0.885633756459525 ], [ 119.877859866724947, -0.885295217461514 ], [ 119.878199980061012, -0.885310252187509 ], [ 119.878154599815744, -0.885595262569243 ], [ 119.878133738110449, -0.885645006051383 ] ] } },
{ "type": "Feature", "properties": { "Id": 0, "Nama_Jalan": "Jl. Pue Yusu", "Armada": 2.0, "kelurahan": "Talise" }, "geometry": { "type": "LineString", "coordinates": [ [ 119.877537065893918, -0.882059473327997 ], [ 119.877684170457101, -0.882128354792635 ], [ 119.877851647208345, -0.882178429643588 ], [ 119.878185369026014, -0.882221202742937 ], [ 119.878563009088737, -0.882238838912302 ], [ 119.879132293672626, -0.882232418374112 ], [ 119.879334651926172, -0.8822423016802 ], [ 119.879423008767517, -0.88225083941355 ] ] } },
{ "type": "Feature", "properties": { "Id": 0, "Nama_Jalan": "Lrg. Tombolotutu I", "Armada": 2.0, "kelurahan": "Talise" }, "geometry": { "type": "LineString", "coordinates": [ [ 119.879445437108529, -0.884065109260554 ], [ 119.879473780665194, -0.884008387061246 ], [ 119.879588399302079, -0.883577966846306 ], [ 119.8796887709739, -0.883151382994772 ], [ 119.879752185460362, -0.882845320618801 ], [ 119.879771222723619, -0.882745604766355 ], [ 119.879791115274287, -0.882703281146459 ] ] } },
{ "type": "Feature", "properties": { "Id": 0, "Nama_Jalan": "Cafe Hutan Kota", "Armada": 2.0, "kelurahan": "Talise" }, "geometry": { "type": "MultiLineString", "coordinates": [ [ [ 119.883580005294689, -0.871105502450049 ], [ 119.883493079563891, -0.871104135026813 ], [ 119.882643910243374, -0.871033127822441 ] ], [ [ 119.882643910243374, -0.871033127822441 ], [ 119.881580850630911, -0.870944234844419 ], [ 119.881495142146022, -0.87093672507423 ] ], [ [ 119.881495142146022, -0.87093672507423 ], [ 119.880377240873727, -0.870838774424641 ], [ 119.880406373236539, -0.870576967679656 ], [ 119.880432933978355, -0.870525307594265 ], [ 119.880476622289876, -0.870509973340105 ], [ 119.880548820719795, -0.870508005202523 ], [ 119.88152085945481, -0.870602049191127 ] ], [ [ 119.88265852874666, -0.870691115199251 ], [ 119.88266998967714, -0.870744129361275 ], [ 119.882643910243374, -0.871033127822441 ] ], [ [ 119.88265852874666, -0.870691115199251 ], [ 119.882682294563025, -0.870684830037387 ], [ 119.882727881317678, -0.870667581743363 ], [ 119.882788679646552, -0.870665622337162 ], [ 119.882986296365786, -0.870688421015558 ] ], [ [ 119.88152085945481, -0.870602049191127 ], [ 119.881495142146022, -0.87093672507423 ] ], [ [ 119.88152085945481, -0.870602049191127 ], [ 119.882632429731743, -0.870698017404085 ], [ 119.88265852874666, -0.870691115199251 ] ] ] } },
{ "type": "Feature", "properties": { "Id": 0, "Nama_Jalan": "Cafe Hutan Kota", "Armada": 2.0, "kelurahan": "Talise" }, "geometry": { "type": "LineString", "coordinates": [ [ 119.880377240873727, -0.870838774424641 ], [ 119.880182828738739, -0.870814379298425 ], [ 119.880154060060775, -0.870460574154674 ], [ 119.880152294970273, -0.870012553662722 ], [ 119.880161680663477, -0.869861930776386 ], [ 119.880180580870913, -0.869730426377265 ], [ 119.880196220297819, -0.869683556147784 ], [ 119.880253199893943, -0.869656736229887 ], [ 119.8802873679181, -0.869614633211134 ], [ 119.880302525818706, -0.869559156748756 ], [ 119.880298677951188, -0.869496044576421 ], [ 119.880279648970813, -0.869457807606922 ], [ 119.880254453342758, -0.869430572708789 ], [ 119.880238716965977, -0.869349618924178 ], [ 119.880265249862646, -0.869104549254771 ], [ 119.880274074538889, -0.868996959865167 ], [ 119.880262133868598, -0.868910305266635 ], [ 119.880116296282566, -0.868423307052292 ], [ 119.880131691197164, -0.868367113198506 ], [ 119.880195792534792, -0.868335984575425 ], [ 119.880613679375131, -0.868187438931204 ] ] } },
{ "type": "Feature", "properties": { "Id": 0, "Nama_Jalan": "Lrg. IV (Sam Ratulangi)", "Armada": 1.0, "kelurahan": "Talise" }, "geometry": { "type": "LineString", "coordinates": [ [ 119.872152442735185, -0.88166972060783 ], [ 119.87186738595156, -0.881599176148124 ], [ 119.8715595640939, -0.881574551580016 ], [ 119.870788065843925, -0.881456569926412 ], [ 119.870599946386335, -0.881433764856309 ] ] } },
{ "type": "Feature", "properties": { "Id": 0, "Nama_Jalan": "Lrg. V (Sam Ratulangi)", "Armada": 1.0, "kelurahan": "Talise" }, "geometry": { "type": "LineString", "coordinates": [ [ 119.872275416555453, -0.881136848312863 ], [ 119.871831219922029, -0.881048735818339 ], [ 119.871382315226171, -0.881015613952291 ], [ 119.87114716788841, -0.880989498315747 ], [ 119.870719561242709, -0.880855948515685 ] ] } },
{ "type": "Feature", "properties": { "Id": 0, "Nama_Jalan": "BTN Teluk Palu Permai", "Armada": 1.0, "kelurahan": "Talise" }, "geometry": { "type": "MultiLineString", "coordinates": [ [ [ 119.887342318303851, -0.858109394386476 ], [ 119.887727546986468, -0.857486560825156 ] ], [ [ 119.887097582409652, -0.857958248502484 ], [ 119.887446733914132, -0.857365087089779 ], [ 119.887468478696547, -0.857362334203821 ] ], [ [ 119.88849411239039, -0.857909593077759 ], [ 119.888131202921059, -0.858524281046045 ] ], [ [ 119.88849411239039, -0.857909593077759 ], [ 119.888240824867609, -0.857755824102165 ] ], [ [ 119.88684312739349, -0.857831495174299 ], [ 119.8871866985032, -0.857225488856396 ] ], [ [ 119.888240824867609, -0.857755824102165 ], [ 119.887887896915544, -0.858379589234601 ] ], [ [ 119.888240824867609, -0.857755824102165 ], [ 119.887971554134268, -0.857616310399488 ] ], [ [ 119.888631688496204, -0.857679980568279 ], [ 119.88849411239039, -0.857909593077759 ] ], [ [ 119.886569409505242, -0.857670688769472 ], [ 119.886913344048168, -0.857087691698381 ], [ 119.88691434372825, -0.857082772610094 ] ], [ [ 119.887971554134268, -0.857616310399488 ], [ 119.887989146598869, -0.857625425353908 ], [ 119.887623375938119, -0.85824007199989 ] ], [ [ 119.886309476581474, -0.857523379319196 ], [ 119.88666244400045, -0.856950774918768 ], [ 119.88691434372825, -0.857082772610094 ] ], [ [ 119.887727546986468, -0.857486560825156 ], [ 119.887971554134268, -0.857616310399488 ] ], [ [ 119.887727546986468, -0.857486560825156 ], [ 119.88783902011437, -0.857285656575739 ] ], [ [ 119.887468478696547, -0.857362334203821 ], [ 119.887727546986468, -0.857486560825156 ] ], [ [ 119.887468478696547, -0.857362334203821 ], [ 119.887484729902823, -0.857360276803688 ], [ 119.887825295038994, -0.856718351802054 ] ], [ [ 119.8871866985032, -0.857225488856396 ], [ 119.887225534348602, -0.857245839167615 ], [ 119.887468478696547, -0.857362334203821 ] ], [ [ 119.8871866985032, -0.857225488856396 ], [ 119.887199614788003, -0.857202706537228 ], [ 119.887522172604776, -0.856617215857908 ] ], [ [ 119.88691434372825, -0.857082772610094 ], [ 119.8871866985032, -0.857225488856396 ] ], [ [ 119.88691434372825, -0.857082772610094 ], [ 119.886924228800225, -0.857034131512914 ], [ 119.887104960010433, -0.856711248382878 ] ] ] } },
{ "type": "Feature", "properties": { "Id": 0, "Nama_Jalan": "Belakang Angkatan Laut", "Armada": 1.0, "kelurahan": "Talise" }, "geometry": { "type": "MultiLineString", "coordinates": [ [ [ 119.876106234127491, -0.872572538532636 ], [ 119.87608204540571, -0.872696249322316 ], [ 119.876052235912255, -0.872848322937278 ], [ 119.876065124207315, -0.872931510534796 ], [ 119.876073727679042, -0.873001791471078 ], [ 119.876063787555665, -0.873047701213928 ], [ 119.876042450672358, -0.873097923060398 ], [ 119.875971258274873, -0.873174003253484 ] ], [ [ 119.876106234127491, -0.872572538532636 ], [ 119.876744999124227, -0.872657287671703 ], [ 119.877396294141036, -0.87274715547208 ] ], [ [ 119.876239929502589, -0.871888768083093 ], [ 119.876106234127491, -0.872572538532636 ] ], [ [ 119.876239929502589, -0.871888768083093 ], [ 119.877168677678213, -0.872002697803441 ] ], [ [ 119.875304062416845, -0.871380987876566 ], [ 119.876210510873847, -0.87157250575274 ], [ 119.876246151207837, -0.871592560492638 ], [ 119.876260856608766, -0.871723083207646 ], [ 119.876258535160545, -0.871793611621104 ], [ 119.876239929502589, -0.871888768083093 ] ] ] } },
{ "type": "Feature", "properties": { "Id": 0, "Nama_Jalan": "Jl. Kampung Nelayan", "Armada": 1.0, "kelurahan": "Talise" }, "geometry": { "type": "LineString", "coordinates": [ [ 119.875506714599808, -0.870408430589541 ], [ 119.875550992305264, -0.870073693731386 ], [ 119.875897619393697, -0.869126099260949 ], [ 119.876019646695582, -0.868748867421698 ], [ 119.876239956043094, -0.868000398998893 ], [ 119.876453175060703, -0.867297360202386 ], [ 119.877089274727297, -0.865192551349856 ], [ 119.877214908238784, -0.864872097397752 ], [ 119.877264720168085, -0.864788383770486 ], [ 119.877397617436415, -0.86465201063246 ] ] } },
{ "type": "Feature", "properties": { "Id": 0, "Nama_Jalan": "BTN Teluk Rinda Permai I", "Armada": 1.0, "kelurahan": "Talise" }, "geometry": { "type": "MultiLineString", "coordinates": [ [ [ 119.881275986374078, -0.856263417862416 ], [ 119.881258002997598, -0.856358991234183 ], [ 119.881114495942015, -0.856917094648622 ], [ 119.880901869892114, -0.857783175779131 ] ], [ [ 119.880984971203432, -0.856190055197241 ], [ 119.880832290680871, -0.856841283445511 ], [ 119.880622267108848, -0.857694213806629 ], [ 119.880475518915944, -0.858363727890709 ] ], [ [ 119.880704092175861, -0.856119247732176 ], [ 119.880538438098498, -0.85675233202177 ], [ 119.880346623601014, -0.85750077410186 ], [ 119.880178628355367, -0.858195694366599 ], [ 119.879882887808549, -0.858136759747652 ], [ 119.879886340255027, -0.857989727505081 ], [ 119.880052114666043, -0.857354864242039 ], [ 119.880243936504442, -0.856615984900284 ], [ 119.88039454535496, -0.856041213285901 ] ] ] } }
]
}
