{
"type": "FeatureCollection",
"name": "Talise Valangguni",
"crs": { "type": "name", "properties": { "name": "urn:ogc:def:crs:OGC:1.3:CRS84" } },
"features": [
{ "type": "Feature", "properties": { "Id": 0, "Nama_Jalan": "Lrg. Simaja IV", "Armada": 2.0, "kelurahan": "Talise Valangguni" }, "geometry": { "type": "LineString", "coordinates": [ [ 119.885830378707098, -0.890121302721613 ], [ 119.885970502612864, -0.89011999690184 ], [ 119.886288790310687, -0.890168755558189 ], [ 119.886547671403605, -0.890176918916791 ], [ 119.886580943672186, -0.890205581213242 ], [ 119.886576214147198, -0.890231882765471 ], [ 119.886638015208533, -0.890297578580783 ], [ 119.887216377716598, -0.890362866908048 ], [ 119.887566775933408, -0.890473758432043 ], [ 119.887621324462415, -0.89037569632162 ], [ 119.887769250657328, -0.890182215094304 ] ] } },
{ "type": "Feature", "properties": { "Id": 0, "Nama_Jalan": "Lrg. Pakora I", "Armada": 2.0, "kelurahan": "Talise Valangguni" }, "geometry": { "type": "LineString", "coordinates": [ [ 119.884100891637672, -0.886982808775702 ], [ 119.884021273949699, -0.88721811779077 ], [ 119.883872157925325, -0.888445002425979 ], [ 119.883849688959032, -0.888871523992893 ], [ 119.88385372256711, -0.88987401384588 ] ] } },
{ "type": "Feature", "properties": { "Id": 0, "Nama_Jalan": "Lrg. Pakora II", "Armada": 2.0, "kelurahan": "Talise Valangguni" }, "geometry": { "type": "LineString", "coordinates": [ [ 119.884522605328655, -0.88985631382612 ], [ 119.88452827322098, -0.889278994538042 ], [ 119.884554065831438, -0.888851036171241 ], [ 119.884572577748585, -0.888222263455283 ], [ 119.884600777262477, -0.887834945396507 ], [ 119.884547966259575, -0.887724057705534 ], [ 119.884551715827726, -0.887659027298698 ], [ 119.884642737803176, -0.887429447109317 ] ] } },
{ "type": "Feature", "properties": { "Id": 0, "Nama_Jalan": "Lrg. Kalantaro", "Armada": 2.0, "kelurahan": "Talise Valangguni" }, "geometry": { "type": "LineString", "coordinates": [ [ 119.883110656236326, -0.888730874460851 ], [ 119.883106570610124, -0.888633424083108 ], [ 119.883054022893745, -0.888249755060974 ], [ 119.883057486202517, -0.888121848893674 ], [ 119.883119959977421, -0.887983138130771 ], [ 119.883131545865893, -0.887610176949075 ], [ 119.88320002448036, -0.887098509449604 ], [ 119.883498872771767, -0.886579489128843 ] ] } },
{ "type": "Feature", "properties": { "Id": 0, "Nama_Jalan": "Lrg. Merdeka I", "Armada": 2.0, "kelurahan": "Talise Valangguni" }, "geometry": { "type": "LineString", "coordinates": [ [ 119.880177347051301, -0.884629588611552 ], [ 119.88014180129592, -0.884732417571484 ], [ 119.880087366219385, -0.884978704805231 ], [ 119.879837367869001, -0.886299770810302 ] ] } },
{ "type": "Feature", "properties": { "Id": 0, "Nama_Jalan": "Lrg. Merdeka II", "Armada": 2.0, "kelurahan": "Talise Valangguni" }, "geometry": { "type": "LineString", "coordinates": [ [ 119.880290465338206, -0.886354617792176 ], [ 119.880375286621188, -0.885683743254371 ], [ 119.880415262847634, -0.88516731552573 ], [ 119.880481475063945, -0.884794310760491 ] ] } },
{ "type": "Feature", "properties": { "Id": 0, "Nama_Jalan": "Bulu Bulava Indah RT 03 / RW 06", "Armada": 2.0, "kelurahan": "Talise Valangguni" }, "geometry": { "type": "MultiLineString", "coordinates": [ [ [ 119.895171961109256, -0.884033692332965 ], [ 119.895159151528588, -0.883739047474107 ] ], [ [ 119.895171961109256, -0.884033692332965 ], [ 119.896079618028452, -0.883885516292448 ], [ 119.89607403563727, -0.883574032474318 ], [ 119.895159151528588, -0.883739047474107 ] ], [ [ 119.894484686319274, -0.883902838965375 ], [ 119.894520969732511, -0.884139967357557 ], [ 119.895171961109256, -0.884033692332965 ] ], [ [ 119.894476342415118, -0.883862203710872 ], [ 119.894483974938211, -0.883904273940604 ] ], [ [ 119.894476342415118, -0.883862203710872 ], [ 119.894190675468977, -0.883917413968014 ], [ 119.894190425453417, -0.883594670330734 ] ], [ [ 119.895159151528588, -0.883739047474107 ], [ 119.894476342415118, -0.883862203710872 ] ], [ [ 119.895159151528588, -0.883739047474107 ], [ 119.895145167404692, -0.883417383817843 ] ], [ [ 119.894190425453417, -0.883594670330734 ], [ 119.895145167404692, -0.883417383817843 ] ], [ [ 119.894190425453417, -0.883594670330734 ], [ 119.894190194964438, -0.883297028975752 ], [ 119.895131962804157, -0.883113648834266 ] ], [ [ 119.895145167404692, -0.883417383817843 ], [ 119.896029600242215, -0.883280524082237 ], [ 119.896068616763614, -0.883271545644697 ], [ 119.896010356587425, -0.882965685157133 ], [ 119.895131962804157, -0.883113648834266 ] ], [ [ 119.895145167404692, -0.883417383817843 ], [ 119.895131962804157, -0.883113648834266 ] ], [ [ 119.895131962804157, -0.883113648834266 ], [ 119.895119636484466, -0.882830114523757 ], [ 119.895881880443909, -0.882671730922652 ] ] ] } },
{ "type": "Feature", "properties": { "Id": 0, "Nama_Jalan": "Jl. Jabal Rahma I", "Armada": 1.0, "kelurahan": "Talise Valangguni" }, "geometry": { "type": "LineString", "coordinates": [ [ 119.880873387213157, -0.884400596582977 ], [ 119.881708955365895, -0.884433307841139 ], [ 119.882055729656756, -0.88446411596453 ], [ 119.882100843613784, -0.884449736348771 ], [ 119.882143564110805, -0.884411451400224 ], [ 119.882160159591351, -0.884373186889696 ], [ 119.882827627097555, -0.884492200678234 ], [ 119.882927401099181, -0.884523201948823 ], [ 119.883079484178396, -0.884630665267935 ] ] } },
{ "type": "Feature", "properties": { "Id": 0, "Nama_Jalan": "Jl. Jabal Rahma II", "Armada": 1.0, "kelurahan": "Talise Valangguni" }, "geometry": { "type": "LineString", "coordinates": [ [ 119.881006965420511, -0.883925446164502 ], [ 119.882086200588347, -0.883940524294634 ], [ 119.882223970947095, -0.883966714505095 ], [ 119.882594555920761, -0.884076397836485 ], [ 119.883041094648206, -0.884126253673984 ], [ 119.88343543308811, -0.884240699641196 ] ] } },
{ "type": "Feature", "properties": { "Id": 0, "Nama_Jalan": "Jl. Jabal Rahma III", "Armada": 1.0, "kelurahan": "Talise Valangguni" }, "geometry": { "type": "LineString", "coordinates": [ [ 119.881110670032101, -0.883439528855078 ], [ 119.881469876699953, -0.883395636584797 ], [ 119.881522568573274, -0.883352562428927 ], [ 119.882019883950846, -0.883339264026903 ], [ 119.882256440667447, -0.883347685798093 ], [ 119.882302014131227, -0.883313223817766 ], [ 119.88325679267389, -0.883349772908375 ] ] } },
{ "type": "Feature", "properties": { "Id": 0, "Nama_Jalan": "Jl. Bukit Marwah", "Armada": 1.0, "kelurahan": "Talise Valangguni" }, "geometry": { "type": "LineString", "coordinates": [ [ 119.881566717979183, -0.882684466900693 ], [ 119.8817976576278, -0.882800475685832 ], [ 119.881897438621053, -0.882840561896872 ], [ 119.88236488404678, -0.88289900860319 ], [ 119.8827011055035, -0.88279690136078 ], [ 119.882876357218521, -0.882766641429542 ], [ 119.883067314852894, -0.882776533305857 ], [ 119.883486275568188, -0.882790550356812 ], [ 119.884555158971551, -0.882964715583494 ], [ 119.884897225777124, -0.883051948359645 ], [ 119.885344691316718, -0.883073114929956 ], [ 119.885850654585894, -0.883188907903642 ], [ 119.886276844522769, -0.88333918936943 ], [ 119.886409386797325, -0.883362036493645 ], [ 119.886825524066879, -0.883411915774767 ] ] } },
{ "type": "Feature", "properties": { "Id": 0, "Nama_Jalan": "Lrg. Ayu", "Armada": 1.0, "kelurahan": "Talise Valangguni" }, "geometry": { "type": "LineString", "coordinates": [ [ 119.882768549552935, -0.8860370838615 ], [ 119.882922739692475, -0.885797891103593 ], [ 119.882944074021083, -0.885745278568904 ], [ 119.883064827497634, -0.885264649496474 ] ] } },
{ "type": "Feature", "properties": { "Id": 0, "Nama_Jalan": "BTN Dayodara CPI III", "Armada": 1.0, "kelurahan": "Talise Valangguni" }, "geometry": { "type": "MultiLineString", "coordinates": [ [ [ 119.889446485243226, -0.883248476239714 ], [ 119.889488030091513, -0.883655478879309 ] ], [ [ 119.889446485243226, -0.883248476239714 ], [ 119.890066430149815, -0.883174416228006 ] ], [ [ 119.890066430149815, -0.883174416228006 ], [ 119.890090855216286, -0.883535769914642 ] ], [ [ 119.890057807752214, -0.883039549932085 ], [ 119.890066430149815, -0.883174416228006 ] ], [ [ 119.890057807752214, -0.883039549932085 ], [ 119.89066040627246, -0.882912829126956 ] ], [ [ 119.891089253228543, -0.882953604104724 ], [ 119.89066040627246, -0.882912829126956 ] ], [ [ 119.889410380038044, -0.882923620161045 ], [ 119.889446485243226, -0.883248476239714 ] ], [ [ 119.89066040627246, -0.882912829126956 ], [ 119.890046640899129, -0.882864884426563 ] ], [ [ 119.889739829077584, -0.882893207438416 ], [ 119.889410380038044, -0.882923620161045 ] ], [ [ 119.889739829077584, -0.882893207438416 ], [ 119.889687769444166, -0.882297038368494 ], [ 119.889374283291644, -0.882312584149309 ], [ 119.889376573122973, -0.882356093194122 ], [ 119.889410380038044, -0.882923620161045 ] ], [ [ 119.890046640899129, -0.882864884426563 ], [ 119.889739829077584, -0.882893207438416 ] ], [ [ 119.890046640899129, -0.882864884426563 ], [ 119.890057807752214, -0.883039549932085 ] ], [ [ 119.890046640899129, -0.882864884426563 ], [ 119.890087647442087, -0.882514518585644 ] ], [ [ 119.891134065005346, -0.882616151567427 ], [ 119.890087647442087, -0.882514518585644 ] ], [ [ 119.890087647442087, -0.882514518585644 ], [ 119.890125251799489, -0.882310083985125 ] ] ] } },
{ "type": "Feature", "properties": { "Id": 0, "Nama_Jalan": "Jl. Bukit Zaitun", "Armada": 1.0, "kelurahan": "Talise Valangguni" }, "geometry": { "type": "LineString", "coordinates": [ [ 119.887056460460485, -0.882230947950878 ], [ 119.885957971859028, -0.882160085051304 ], [ 119.885814307412858, -0.882189483525032 ], [ 119.88562622422387, -0.882210668742649 ], [ 119.885474227626361, -0.882214612628474 ], [ 119.885466465468994, -0.882004235898164 ], [ 119.885415053593192, -0.881858920659934 ], [ 119.885281893348406, -0.881650554382158 ], [ 119.885514900401077, -0.880751464208379 ], [ 119.88557552061846, -0.880518083305248 ], [ 119.88569667290723, -0.879936567410164 ], [ 119.8858429252859, -0.879875251191767 ], [ 119.885972073300252, -0.879808210601522 ], [ 119.886110703611351, -0.87971821179614 ], [ 119.88628721169097, -0.879469440228307 ], [ 119.88663266316992, -0.879017804843834 ], [ 119.886636410241451, -0.878948949445638 ], [ 119.886579216549606, -0.878696534870623 ], [ 119.886778665613136, -0.878631352280465 ], [ 119.886875509292437, -0.878558599293977 ], [ 119.887532883686646, -0.878529399055122 ] ] } },
{ "type": "Feature", "properties": { "Id": 0, "Nama_Jalan": "BTN Dayodara", "Armada": 1.0, "kelurahan": "Talise Valangguni" }, "geometry": { "type": "LineString", "coordinates": [ [ 119.890654087643, -0.886067042222434 ], [ 119.891499652084335, -0.886119969672319 ], [ 119.891560825145532, -0.886142155086553 ], [ 119.891650128946495, -0.886147822542725 ], [ 119.892442357530939, -0.886063046871912 ], [ 119.893919922616064, -0.885872541353027 ] ] } },
{ "type": "Feature", "properties": { "Id": 0, "Nama_Jalan": "BTN CPI I", "Armada": 1.0, "kelurahan": "Talise Valangguni" }, "geometry": { "type": "MultiLineString", "coordinates": [ [ [ 119.89185455512974, -0.886125947091022 ], [ 119.891801062955309, -0.885510135077917 ], [ 119.891845345961954, -0.885037219812874 ], [ 119.89200921188673, -0.885027050163074 ], [ 119.892364063838414, -0.884966619718855 ] ], [ [ 119.892154927826311, -0.88609380448025 ], [ 119.892099352106214, -0.8854989034372 ], [ 119.892108478308614, -0.885016931252185 ] ], [ [ 119.892442357530939, -0.886063046871912 ], [ 119.892398687733618, -0.885513584418031 ], [ 119.892364063838414, -0.884966619718855 ] ], [ [ 119.892739996334569, -0.886024671715042 ], [ 119.892704248530677, -0.885484083796574 ], [ 119.892628437588144, -0.884932103749819 ] ], [ [ 119.893038102062292, -0.885986236342095 ], [ 119.892989335436653, -0.885445967129198 ], [ 119.892911008925225, -0.884895211937125 ], [ 119.892628437588144, -0.884932103749819 ] ], [ [ 119.893330051033871, -0.88594859475792 ], [ 119.893279946802537, -0.885334810323028 ], [ 119.893302561151373, -0.885095722852486 ], [ 119.893657873664282, -0.885087015179883 ] ], [ [ 119.893633670992912, -0.885909448394275 ], [ 119.893584523201014, -0.885366522470314 ], [ 119.893657873664282, -0.885087015179883 ] ], [ [ 119.890726358516133, -0.885690290885305 ], [ 119.891492570854268, -0.885717142161129 ], [ 119.891516132139003, -0.885780238142015 ], [ 119.891520492519334, -0.886127527798257 ] ], [ [ 119.893657873664282, -0.885087015179883 ], [ 119.893735126723513, -0.884792637017179 ] ], [ [ 119.892364063838414, -0.884966619718855 ], [ 119.892628437588144, -0.884932103749819 ] ], [ [ 119.892628437588144, -0.884932103749819 ], [ 119.892627817557994, -0.884927589296645 ] ], [ [ 119.893735126723513, -0.884792637017179 ], [ 119.893341214157388, -0.884866305112062 ] ], [ [ 119.893735126723513, -0.884792637017179 ], [ 119.894057924561253, -0.884727142288083 ], [ 119.893919922616064, -0.885872541353027 ] ] ] } },
{ "type": "Feature", "properties": { "Id": 0, "Nama_Jalan": "BTN CPI V", "Armada": 1.0, "kelurahan": "Talise Valangguni" }, "geometry": { "type": "LineString", "coordinates": [ [ 119.889488030091513, -0.883655478879309 ], [ 119.890858661198237, -0.883383299006866 ], [ 119.891033924906438, -0.883370251857517 ] ] } },
{ "type": "Feature", "properties": { "Id": 0, "Nama_Jalan": "Perumahan Jl. Dayodara", "Armada": 1.0, "kelurahan": "Talise Valangguni" }, "geometry": { "type": "LineString", "coordinates": [ [ 119.89062851444713, -0.886200356593762 ], [ 119.89072786215506, -0.88568245235353 ], [ 119.890830339043816, -0.884911609452858 ], [ 119.89095629277827, -0.883940885591067 ], [ 119.891033924906438, -0.883370251857517 ], [ 119.891309309020684, -0.881296493215309 ], [ 119.891353578880853, -0.880958174390148 ] ] } },
{ "type": "Feature", "properties": { "Id": 0, "Nama_Jalan": "Jl. Meteorologi", "Armada": 2.0, "kelurahan": "Talise Valangguni" }, "geometry": { "type": "LineString", "coordinates": [ [ 119.890830339043816, -0.884911609452841 ], [ 119.892104395522736, -0.884711075727147 ], [ 119.893398120809479, -0.884499200182487 ], [ 119.894092475895988, -0.884384857683791 ], [ 119.894057924561253, -0.884727142288083 ] ] } },
{ "type": "Feature", "properties": { "Id": 0, "Nama_Jalan": "BTN Bukit Permata Indah", "Armada": 2.0, "kelurahan": "Talise Valangguni" }, "geometry": { "type": "MultiLineString", "coordinates": [ [ [ 119.890954742179105, -0.883952836003252 ], [ 119.891822482887136, -0.884035893041669 ] ], [ [ 119.8910030400355, -0.883597270379915 ], [ 119.891869464995878, -0.883674143273579 ], [ 119.891882710119503, -0.883603368167328 ], [ 119.891901553085461, -0.883400622037535 ], [ 119.891337159984545, -0.883274835463414 ], [ 119.891320029053688, -0.883234685110159 ], [ 119.891341246016935, -0.883077475633157 ] ], [ [ 119.891341246016935, -0.883077475633157 ], [ 119.891077261097109, -0.883043910287894 ] ], [ [ 119.891341246016935, -0.883077475633157 ], [ 119.891361590607559, -0.882926730239994 ], [ 119.89140291004496, -0.882902314101035 ], [ 119.89198487546534, -0.883024979163333 ] ] ] } },
{ "type": "Feature", "properties": { "Id": 0, "Nama_Jalan": "Lrg. Torulemba", "Armada": 2.0, "kelurahan": "Talise Valangguni" }, "geometry": { "type": "LineString", "coordinates": [ [ 119.888076529348183, -0.889270092523009 ], [ 119.888108121889388, -0.889519960727384 ], [ 119.888132465683171, -0.889672707766476 ], [ 119.888160329376134, -0.88977070481423 ], [ 119.888180299406599, -0.889796508708797 ], [ 119.888205015700365, -0.889817527443605 ], [ 119.888222145417771, -0.889855765256082 ], [ 119.888237503191405, -0.890058485149743 ], [ 119.88823290064073, -0.890247832825442 ], [ 119.888218678240406, -0.890283226521416 ], [ 119.888193988000111, -0.890295677684681 ], [ 119.888159791086437, -0.890299529802095 ], [ 119.888031522863159, -0.8902757239362 ], [ 119.887769250657328, -0.890182215094304 ] ] } },
{ "type": "Feature", "properties": { "Id": 0, "Nama_Jalan": "Lrg. Bersatu I", "Armada": 2.0, "kelurahan": "Talise Valangguni" }, "geometry": { "type": "LineString", "coordinates": [ [ 119.885141812351321, -0.889904453824976 ], [ 119.885135988264395, -0.89005029197971 ], [ 119.885124300157472, -0.890290567969306 ], [ 119.885107690043313, -0.890309706776451 ], [ 119.884958066025987, -0.890311020075889 ] ] } },
{ "type": "Feature", "properties": { "Id": 0, "Nama_Jalan": "Lrg. Simaja II", "Armada": 2.0, "kelurahan": "Talise Valangguni" }, "geometry": { "type": "LineString", "coordinates": [ [ 119.885702706857359, -0.889944930393055 ], [ 119.885488962638377, -0.889952270982686 ], [ 119.885298001629792, -0.889938077184376 ], [ 119.885141812351321, -0.889904453824976 ], [ 119.885055707154791, -0.889880890959814 ], [ 119.884951671047787, -0.889866628639189 ], [ 119.884830536052604, -0.889853814212385 ], [ 119.884596832752251, -0.889849695028341 ], [ 119.884485927876725, -0.88985958432369 ], [ 119.883982435935394, -0.889870500047417 ], [ 119.883896936264549, -0.889871045527674 ], [ 119.883675122829743, -0.889886281730795 ], [ 119.883338587447369, -0.889889654673976 ] ] } },
{ "type": "Feature", "properties": { "Id": 0, "Nama_Jalan": "Lrg. Bersatu III", "Armada": 2.0, "kelurahan": "Talise Valangguni" }, "geometry": { "type": "LineString", "coordinates": [ [ 119.883691710609469, -0.889885142328646 ], [ 119.883670542578514, -0.890002832805943 ], [ 119.883662347153702, -0.890153454451292 ], [ 119.883665962628683, -0.8902215870463 ], [ 119.883679042797809, -0.890244288555737 ], [ 119.883707558621168, -0.890264587186365 ], [ 119.883755069811968, -0.890278894056841 ] ] } },
{ "type": "Feature", "properties": { "Id": 0, "Nama_Jalan": "Lrg. Bersatu II", "Armada": 2.0, "kelurahan": "Talise Valangguni" }, "geometry": { "type": "LineString", "coordinates": [ [ 119.884522605328655, -0.88985631382612 ], [ 119.884520961461462, -0.889964389601711 ], [ 119.884486489463939, -0.890225482898822 ], [ 119.88442025816623, -0.89057099350987 ] ] } },
{ "type": "Feature", "properties": { "Id": 0, "Nama_Jalan": "Lrg. Ar-Rahman", "Armada": 2.0, "kelurahan": "Talise Valangguni" }, "geometry": { "type": "LineString", "coordinates": [ [ 119.883509218639148, -0.886453939508886 ], [ 119.883647282619165, -0.886245838793011 ], [ 119.883758286045733, -0.886056406935376 ], [ 119.884056146423532, -0.886102075114612 ], [ 119.884184376352067, -0.886076154810484 ], [ 119.88434868283052, -0.886052269778294 ], [ 119.884372379147109, -0.885982920433553 ], [ 119.884399584308952, -0.88584423758203 ], [ 119.884475740700353, -0.885739464519927 ], [ 119.884524089647883, -0.8856088935432 ] ] } },
{ "type": "Feature", "properties": { "Id": 0, "Nama_Jalan": "Lrg. Soekarno Hatta", "Armada": 2.0, "kelurahan": "Talise Valangguni" }, "geometry": { "type": "LineString", "coordinates": [ [ 119.884524089647883, -0.8856088935432 ], [ 119.884564447953167, -0.885587345464781 ], [ 119.884936409071571, -0.885634389997373 ], [ 119.885043995662485, -0.885633349352188 ], [ 119.885289793861361, -0.885615226254117 ], [ 119.885742231362613, -0.885616066794025 ], [ 119.885959521147697, -0.885587207818224 ], [ 119.886077310120399, -0.885573249299959 ], [ 119.886427855840438, -0.885568671052324 ], [ 119.88644232768911, -0.885609851658755 ], [ 119.886448314222463, -0.88567320081607 ], [ 119.886422253159452, -0.885755700809046 ], [ 119.886269250286503, -0.885993696680161 ], [ 119.886228912423164, -0.886041542574418 ], [ 119.886113912432378, -0.886283333824642 ], [ 119.885788600883558, -0.886916219608898 ], [ 119.885640622005511, -0.887262463287811 ], [ 119.885536270496331, -0.887453802347728 ], [ 119.885381113356573, -0.887670044795584 ], [ 119.885267199558569, -0.887781063458559 ] ] } },
{ "type": "Feature", "properties": { "Id": 0, "Nama_Jalan": "Lrg. Al Khairat", "Armada": 2.0, "kelurahan": "Talise Valangguni" }, "geometry": { "type": "LineString", "coordinates": [ [ 119.884412177194463, -0.887077956575027 ], [ 119.884555867570867, -0.886775179166558 ], [ 119.884867971149575, -0.886812229303189 ], [ 119.885241331775404, -0.886826280436664 ], [ 119.885419474285669, -0.886849091400177 ], [ 119.885788600883558, -0.886916219608898 ] ] } },
{ "type": "Feature", "properties": { "Id": 0, "Nama_Jalan": "Lrg. Singgani", "Armada": 2.0, "kelurahan": "Talise Valangguni" }, "geometry": { "type": "LineString", "coordinates": [ [ 119.888399055194256, -0.888582077104461 ], [ 119.888182470490889, -0.888600895210961 ], [ 119.887765496054385, -0.888696612873083 ] ] } },
{ "type": "Feature", "properties": { "Id": 0, "Nama_Jalan": "Lrg. Merdeka", "Armada": 2.0, "kelurahan": "Talise Valangguni" }, "geometry": { "type": "MultiLineString", "coordinates": [ [ [ 119.881780485622471, -0.886921160670005 ], [ 119.88182609883502, -0.886938099012672 ], [ 119.881958155698641, -0.886946602020489 ], [ 119.882099729588887, -0.886977092185515 ], [ 119.88235513202963, -0.886990399380063 ], [ 119.882374140381131, -0.887001142706524 ], [ 119.882389598261625, -0.887027428498536 ], [ 119.88238607741205, -0.887081222461921 ], [ 119.882418147353135, -0.887090760177139 ], [ 119.882619232647883, -0.887092873564678 ] ], [ [ 119.881780485622471, -0.886921160670005 ], [ 119.881584535760922, -0.886905774670884 ], [ 119.881551257019609, -0.886868744583456 ], [ 119.881551195034646, -0.88678865545161 ], [ 119.881530983446297, -0.886757591917271 ], [ 119.88098041071315, -0.886697777392422 ], [ 119.88063267880338, -0.886657885823359 ], [ 119.880594905110243, -0.886643571088172 ], [ 119.880583002340643, -0.886607719559773 ], [ 119.880607655113721, -0.886393013240248 ] ], [ [ 119.880607655113721, -0.886393013240248 ], [ 119.880637527945794, -0.886171847886215 ], [ 119.880675518795513, -0.88615986450578 ], [ 119.880993772283318, -0.886163201257706 ], [ 119.881054321969273, -0.886146418757307 ], [ 119.881513948181194, -0.8862273431611 ], [ 119.881812063472509, -0.886294766932149 ], [ 119.881838199605539, -0.88630909077311 ], [ 119.881838231970761, -0.886350928368789 ], [ 119.881792159875886, -0.886661758252434 ], [ 119.881780485622471, -0.886921160670005 ] ], [ [ 119.879133337824683, -0.886199911673663 ], [ 119.879837367869001, -0.886299770810302 ], [ 119.880607655113721, -0.886393013240248 ] ] ] } },
{ "type": "Feature", "properties": { "Id": 0, "Nama_Jalan": "Lrg. Cempaka Putih", "Armada": 2.0, "kelurahan": "Talise Valangguni" }, "geometry": { "type": "LineString", "coordinates": [ [ 119.882099729588887, -0.886977092185515 ], [ 119.882032445358149, -0.887191353552216 ], [ 119.882014245875681, -0.887611656553203 ] ] } },
{ "type": "Feature", "properties": { "Id": 0, "Nama_Jalan": "Lrg. Kalantaro II", "Armada": 2.0, "kelurahan": "Talise Valangguni" }, "geometry": { "type": "LineString", "coordinates": [ [ 119.882619232647883, -0.887092873564678 ], [ 119.882575332054515, -0.887447212665499 ], [ 119.882552764339394, -0.887747026630195 ], [ 119.882477739690231, -0.888392579902434 ], [ 119.882497720868599, -0.888432728292398 ], [ 119.882760076990621, -0.888633342512028 ], [ 119.882941150143381, -0.888759430111691 ], [ 119.883110656236326, -0.888730874460851 ] ] } },
{ "type": "Feature", "properties": { "Id": 0, "Nama_Jalan": "BTN CPI IV", "Armada": 2.0, "kelurahan": "Talise Valangguni" }, "geometry": { "type": "MultiLineString", "coordinates": [ [ [ 119.893830708575166, -0.8834819120724 ], [ 119.893767986770172, -0.882994922846766 ], [ 119.893757619352485, -0.882794590652405 ], [ 119.893765572467302, -0.882739473894614 ] ], [ [ 119.89285472561015, -0.882837847828795 ], [ 119.893169047884655, -0.882829831694108 ] ], [ [ 119.893169047884655, -0.882829831694108 ], [ 119.893554693817961, -0.882764502444767 ], [ 119.893765572467302, -0.882739473894614 ] ], [ [ 119.893765572467302, -0.882739473894614 ], [ 119.893771040143207, -0.882439198195192 ], [ 119.893163148449446, -0.88243776229492 ] ], [ [ 119.892526958651587, -0.882474617395206 ], [ 119.892528865837406, -0.882847202809037 ], [ 119.89285472561015, -0.882837847828795 ] ], [ [ 119.892526958651587, -0.882474617395206 ], [ 119.891956336522398, -0.882487970660969 ], [ 119.89195320891055, -0.882174167918041 ] ], [ [ 119.893163148449446, -0.88243776229492 ], [ 119.893169047884655, -0.882829831694108 ] ], [ [ 119.893163148449446, -0.88243776229492 ], [ 119.893163044709908, -0.882437762049877 ] ], [ [ 119.891775972827801, -0.882175895438639 ], [ 119.891678592926681, -0.882168560503482 ], [ 119.891598783622726, -0.882155713198497 ], [ 119.891543190247617, -0.882131371570646 ], [ 119.891504686756761, -0.882094106778228 ], [ 119.891494674166509, -0.88204534431915 ], [ 119.891543105501967, -0.881406511184836 ], [ 119.891541177469335, -0.881370174042117 ], [ 119.891527850273107, -0.881334802094518 ], [ 119.891498641491836, -0.881300702033724 ] ], [ [ 119.89195320891055, -0.882174167918041 ], [ 119.891775972827801, -0.882175895438639 ] ], [ [ 119.89252539225744, -0.882168590789152 ], [ 119.89195320891055, -0.882174167918041 ] ], [ [ 119.89252539225744, -0.882168590789152 ], [ 119.892526958651587, -0.882474617395206 ] ], [ [ 119.89252539225744, -0.882168590789152 ], [ 119.892833319189123, -0.882166490773976 ] ], [ [ 119.892833319189123, -0.882166490773976 ], [ 119.892833308231204, -0.882168469187387 ], [ 119.89285472561015, -0.882837847828795 ] ], [ [ 119.892833319189123, -0.882166490773976 ], [ 119.893159033305793, -0.882164269425519 ] ], [ [ 119.893159033305793, -0.882164269425519 ], [ 119.893163148449446, -0.88243776229492 ] ], [ [ 119.892517422411458, -0.881422493685107 ], [ 119.89252539225744, -0.882168590789152 ] ], [ [ 119.892517422411458, -0.881422493685107 ], [ 119.892837472979693, -0.881416582868285 ] ], [ [ 119.892837472979693, -0.881416582868285 ], [ 119.892833319189123, -0.882166490773976 ] ], [ [ 119.892837472979693, -0.881416582868285 ], [ 119.893154651111445, -0.881410725075008 ], [ 119.893159033305793, -0.882164269425519 ] ], [ [ 119.89135779672678, -0.881328480191937 ], [ 119.891498641491836, -0.881300702033724 ] ], [ [ 119.891498641491836, -0.881300702033724 ], [ 119.891766706230172, -0.881247832865622 ], [ 119.891805197499707, -0.88126931906425 ], [ 119.89182659666956, -0.881300859569463 ], [ 119.891830913706499, -0.881355364155115 ], [ 119.891775972827801, -0.882175895438639 ] ], [ [ 119.891942040730811, -0.880865159854612 ], [ 119.891937963894577, -0.881121924207744 ], [ 119.892527945007132, -0.881168798630792 ], [ 119.892517199883613, -0.8814016610829 ], [ 119.892517422411458, -0.881422493685107 ] ] ] } },
{ "type": "Feature", "properties": { "Id": 0, "Nama_Jalan": "Perumahan Meteolorogi", "Armada": 2.0, "kelurahan": "Talise Valangguni" }, "geometry": { "type": "MultiLineString", "coordinates": [ [ [ 119.893118414171383, -0.884249449661852 ], [ 119.893331485782866, -0.884222061174354 ] ], [ [ 119.893143422421645, -0.883347213616241 ], [ 119.893118414171383, -0.884249449661852 ] ], [ [ 119.892803498314791, -0.883263805771731 ], [ 119.892775646392451, -0.884100571934492 ], [ 119.892778123227174, -0.8842320583836 ], [ 119.892797150840465, -0.88426790391744 ], [ 119.892863661362583, -0.884282195892 ], [ 119.893118414171383, -0.884249449661852 ] ] ] } },
{ "type": "Feature", "properties": { "Id": 0, "Nama_Jalan": "BTN CPI", "Armada": 2.0, "kelurahan": "Talise Valangguni" }, "geometry": { "type": "MultiLineString", "coordinates": [ [ [ 119.893333358280572, -0.884173352801344 ], [ 119.893331485782866, -0.884222061174354 ], [ 119.893344233743122, -0.884509792257285 ] ], [ [ 119.893333358280572, -0.884173352801344 ], [ 119.894201053449777, -0.8840292860065 ] ], [ [ 119.894201053449777, -0.8840292860065 ], [ 119.894205831313627, -0.884167454466219 ], [ 119.894225885620017, -0.884302273914364 ], [ 119.894221631789293, -0.884329531178394 ], [ 119.89420169866959, -0.884351063090354 ], [ 119.894092475895988, -0.884384857683791 ] ], [ [ 119.894190675468977, -0.883917413968014 ], [ 119.894201053449777, -0.8840292860065 ] ], [ [ 119.89334518544122, -0.883865699835671 ], [ 119.893333358280572, -0.884173352801344 ] ], [ [ 119.89334518544122, -0.883865699835671 ], [ 119.894190522111899, -0.883719460195543 ] ], [ [ 119.894190291497807, -0.88342169930619 ], [ 119.893387019550119, -0.883556208523274 ], [ 119.893356163355662, -0.883580139699699 ], [ 119.89334518544122, -0.883865699835671 ] ] ] } },
{ "type": "Feature", "properties": { "Id": 0, "Nama_Jalan": "Perum Valangguni Permai", "Armada": 2.0, "kelurahan": "Talise Valangguni" }, "geometry": { "type": "MultiLineString", "coordinates": [ [ [ 119.89211078452594, -0.883070303776881 ], [ 119.892099744386584, -0.883535303483365 ], [ 119.892072451202409, -0.884716103696692 ] ], [ [ 119.89211078452594, -0.883070303776881 ], [ 119.892207477354162, -0.883110511273441 ], [ 119.892286351082177, -0.883142006677013 ], [ 119.892346214615799, -0.883160129062861 ], [ 119.892409873674609, -0.883172510793063 ], [ 119.892449776281865, -0.883176304629501 ], [ 119.892412338125141, -0.884660643475134 ] ], [ [ 119.89198487546534, -0.883024979163333 ], [ 119.892098894834305, -0.883051187499598 ], [ 119.89211078452594, -0.883070303776881 ] ] ] } },
{ "type": "Feature", "properties": { "Id": 0, "Nama_Jalan": "Perum Nakertrans", "Armada": 2.0, "kelurahan": "Talise Valangguni" }, "geometry": { "type": "LineString", "coordinates": [ [ 119.889140787112453, -0.872141964710175 ], [ 119.889111533736795, -0.87302128897652 ], [ 119.889093191673325, -0.873881957324283 ], [ 119.889489811469048, -0.873879259294007 ], [ 119.889527167880047, -0.873037702167309 ], [ 119.889545514118751, -0.87218181556615 ], [ 119.889506068678358, -0.872154592035629 ], [ 119.889138395713729, -0.872120450206387 ] ] } },
{ "type": "Feature", "properties": { "Id": 0, "Nama_Jalan": "Jl. Bukit Uhud", "Armada": 1.0, "kelurahan": "Talise Valangguni" }, "geometry": { "type": "LineString", "coordinates": [ [ 119.884917797425871, -0.883052921466667 ], [ 119.884833538020288, -0.883310673502125 ], [ 119.884802287538861, -0.883439557476639 ], [ 119.884808020005693, -0.883481629576316 ], [ 119.884777760328646, -0.88366334758489 ], [ 119.884738575302279, -0.883666486168977 ], [ 119.884528556285332, -0.883576759555974 ], [ 119.884503856327399, -0.883576778875229 ], [ 119.884484865955443, -0.883589225449889 ], [ 119.884385535593154, -0.883825027722806 ], [ 119.884364193851169, -0.883868077305216 ], [ 119.884341651689809, -0.883894392816822 ], [ 119.884302251113553, -0.883925981094662 ] ] } }
]
}
