{
"type": "FeatureCollection",
"name": "Tanamodindi",
"crs": { "type": "name", "properties": { "name": "urn:ogc:def:crs:OGC:1.3:CRS84" } },
"features": [
{ "type": "Feature", "properties": { "Id": 0, "Nama_Jalan": "Jl. Kasturi", "Armada": 2.0, "kelurahan": "Tanamodindi" }, "geometry": { "type": "LineString", "coordinates": [ [ 119.894730250475092, -0.907160651992026 ], [ 119.893566568675922, -0.907281481730241 ], [ 119.893534994966075, -0.907298720180555 ], [ 119.893544596639529, -0.907426614691733 ], [ 119.893522060829, -0.907460102598116 ], [ 119.893473387743498, -0.907478072041413 ], [ 119.892820203800412, -0.907402095994544 ], [ 119.89275133467973, -0.907409323565612 ] ] } },
{ "type": "Feature", "properties": { "Id": 0, "Nama_Jalan": "Lrg Beo I", "Armada": 2.0, "kelurahan": "Tanamodindi" }, "geometry": { "type": "LineString", "coordinates": [ [ 119.891567426856128, -0.908191438415113 ], [ 119.891634251999037, -0.908600194301791 ], [ 119.891693703024515, -0.908695774371311 ], [ 119.891712811457452, -0.908832028866784 ], [ 119.891815206598039, -0.909171425661607 ], [ 119.891915007873692, -0.909235894026279 ] ] } },
{ "type": "Feature", "properties": { "Id": 0, "Nama_Jalan": "Jl. Beo Lrg II", "Armada": 2.0, "kelurahan": "Tanamodindi" }, "geometry": { "type": "LineString", "coordinates": [ [ 119.892348728599174, -0.908100320725661 ], [ 119.892367947680839, -0.908375713723515 ], [ 119.892396475020121, -0.908410116782212 ], [ 119.892955069222438, -0.908403928651629 ], [ 119.892979793518236, -0.908434509638408 ], [ 119.892989410723004, -0.908581768840024 ] ] } },
{ "type": "Feature", "properties": { "Id": 0, "Nama_Jalan": "Jl. Kakatua II", "Armada": 2.0, "kelurahan": "Tanamodindi" }, "geometry": { "type": "LineString", "coordinates": [ [ 119.890950563913634, -0.905853231549 ], [ 119.891070496184071, -0.906894166113785 ], [ 119.891137091506508, -0.907014245270441 ], [ 119.891291213154688, -0.908189748446679 ] ] } },
{ "type": "Feature", "properties": { "Id": 0, "Nama_Jalan": "Jl. Kakatua", "Armada": 2.0, "kelurahan": "Tanamodindi" }, "geometry": { "type": "LineString", "coordinates": [ [ 119.890950563913634, -0.905853231548983 ], [ 119.890913899850545, -0.905740898029768 ], [ 119.890751608056533, -0.904741714937455 ], [ 119.890707177963151, -0.904119570336678 ], [ 119.890327142064322, -0.902196255669297 ], [ 119.890143763177278, -0.900805012990351 ], [ 119.890141590820647, -0.900740439968972 ] ] } },
{ "type": "Feature", "properties": { "Id": 0, "Nama_Jalan": "Jl. Maleo II", "Armada": 2.0, "kelurahan": "Tanamodindi" }, "geometry": { "type": "LineString", "coordinates": [ [ 119.892151238762253, -0.905588669767038 ], [ 119.892313819900551, -0.905937902014271 ], [ 119.892391124841154, -0.906086063168418 ], [ 119.892466054808182, -0.906234226211046 ], [ 119.892513638198949, -0.906339378663306 ], [ 119.892553612507697, -0.906433061876601 ], [ 119.892586020261732, -0.906568827460879 ], [ 119.892640818684725, -0.906787293170261 ], [ 119.892722592438133, -0.90732860089574 ], [ 119.89275133467973, -0.907409323565612 ] ] } },
{ "type": "Feature", "properties": { "Id": 0, "Nama_Jalan": "Jl. Maleo", "Armada": 2.0, "kelurahan": "Tanamodindi" }, "geometry": { "type": "LineString", "coordinates": [ [ 119.89818456593683, -0.904372901920053 ], [ 119.896968143228506, -0.904660875447918 ], [ 119.895571925376046, -0.905006257762356 ], [ 119.894321605280609, -0.905147118681568 ], [ 119.89209184656788, -0.905600752828317 ], [ 119.890253920887247, -0.906007453795304 ], [ 119.889356313342319, -0.906187477887606 ] ] } },
{ "type": "Feature", "properties": { "Id": 0, "Nama_Jalan": "Jl. Nggoriovala", "Armada": 2.0, "kelurahan": "Tanamodindi" }, "geometry": { "type": "LineString", "coordinates": [ [ 119.892047947421617, -0.90139884515815 ], [ 119.890838113238459, -0.901582870738021 ] ] } },
{ "type": "Feature", "properties": { "Id": 0, "Nama_Jalan": "Jl. Pipit II", "Armada": 2.0, "kelurahan": "Tanamodindi" }, "geometry": { "type": "LineString", "coordinates": [ [ 119.893386545436101, -0.90256603755856 ], [ 119.893401008422501, -0.903135489886612 ], [ 119.893384121951769, -0.903405174003193 ], [ 119.893449183637742, -0.903988451744355 ], [ 119.893447318493884, -0.904032442056044 ], [ 119.893421682235157, -0.904049675650038 ], [ 119.8933604188462, -0.904064069008408 ], [ 119.892960034011068, -0.904113160621705 ], [ 119.892858855965457, -0.904108938577793 ], [ 119.892281655618206, -0.904011861303069 ] ] } },
{ "type": "Feature", "properties": { "Id": 0, "Nama_Jalan": "Jl. Pipit", "Armada": 2.0, "kelurahan": "Tanamodindi" }, "geometry": { "type": "LineString", "coordinates": [ [ 119.893884266252869, -0.902481982089629 ], [ 119.893376554408206, -0.902545724644383 ], [ 119.892590176689012, -0.902523045455173 ], [ 119.891142509658934, -0.902686772674828 ], [ 119.890437591644897, -0.902755229303057 ] ] } },
{ "type": "Feature", "properties": { "Id": 0, "Nama_Jalan": "Lrg Nuri I", "Armada": 2.0, "kelurahan": "Tanamodindi" }, "geometry": { "type": "LineString", "coordinates": [ [ 119.896877144135956, -0.900204512755304 ], [ 119.896986846564204, -0.900778190310611 ], [ 119.897070362124097, -0.901272996005054 ], [ 119.897148999332686, -0.901605238709142 ], [ 119.897184692045627, -0.901704639856501 ] ] } },
{ "type": "Feature", "properties": { "Id": 0, "Nama_Jalan": "Lrg Nuri II", "Armada": 2.0, "kelurahan": "Tanamodindi" }, "geometry": { "type": "LineString", "coordinates": [ [ 119.896456842353274, -0.900293304628566 ], [ 119.896535432967056, -0.900566975731273 ], [ 119.896645871670941, -0.900963598468899 ] ] } },
{ "type": "Feature", "properties": { "Id": 0, "Nama_Jalan": "Lrg. Swadaya I", "Armada": 2.0, "kelurahan": "Tanamodindi" }, "geometry": { "type": "LineString", "coordinates": [ [ 119.895958130828163, -0.90123946110764 ], [ 119.896491881774224, -0.901055428563817 ], [ 119.896689387278883, -0.900937648440172 ], [ 119.896998587503191, -0.900847752087697 ] ] } },
{ "type": "Feature", "properties": { "Id": 0, "Nama_Jalan": "Lrg. Swadaya II", "Armada": 2.0, "kelurahan": "Tanamodindi" }, "geometry": { "type": "LineString", "coordinates": [ [ 119.896179569477994, -0.902046054197443 ], [ 119.896625997820323, -0.901867199370903 ], [ 119.897229104656688, -0.901691717416121 ], [ 119.897614728829325, -0.901599605831658 ] ] } },
{ "type": "Feature", "properties": { "Id": 0, "Nama_Jalan": "Jl. Sawerigading I", "Armada": 2.0, "kelurahan": "Tanamodindi" }, "geometry": { "type": "LineString", "coordinates": [ [ 119.895993903184234, -0.903166711956089 ], [ 119.895629652106905, -0.903257372465414 ], [ 119.895467394520537, -0.903314110117922 ], [ 119.8954460218864, -0.903352071730049 ], [ 119.895402449676709, -0.903396919966121 ], [ 119.895292125148174, -0.903538776591351 ], [ 119.895249843839622, -0.903642602986371 ], [ 119.894904563673649, -0.903996702810036 ], [ 119.894562809915655, -0.904305376796913 ], [ 119.894430358539836, -0.904397524924461 ], [ 119.894245179932696, -0.90448660752537 ] ] } },
{ "type": "Feature", "properties": { "Id": 0, "Nama_Jalan": "Jl. Sawerigading II", "Armada": 2.0, "kelurahan": "Tanamodindi" }, "geometry": { "type": "LineString", "coordinates": [ [ 119.894411984323511, -0.902322571134321 ], [ 119.89448907861447, -0.902675556055319 ], [ 119.894631954805661, -0.903151667723585 ], [ 119.894683363570067, -0.903289330443048 ], [ 119.894751858626648, -0.903409766441805 ], [ 119.895090368900952, -0.903803480954068 ], [ 119.895116533731013, -0.903853903563968 ], [ 119.895137973033712, -0.90393516990427 ], [ 119.895184514593481, -0.904224406348725 ], [ 119.895222791183372, -0.904573416727294 ], [ 119.895247911560816, -0.904804098374918 ], [ 119.895302138378909, -0.905036651958949 ] ] } },
{ "type": "Feature", "properties": { "Id": 0, "Nama_Jalan": "Jl. Sawerigading III", "Armada": 2.0, "kelurahan": "Tanamodindi" }, "geometry": { "type": "LineString", "coordinates": [ [ 119.895257519188888, -0.902842288301068 ], [ 119.895313893039585, -0.902951736794366 ], [ 119.895347210041237, -0.903036579644941 ], [ 119.8954460218864, -0.903352071730049 ], [ 119.89548285878395, -0.903383121158855 ], [ 119.895610213192541, -0.903752380817231 ], [ 119.895654211061498, -0.903828847618908 ], [ 119.895725529796579, -0.903916050580588 ], [ 119.895746933094159, -0.903951893761308 ], [ 119.895763595899226, -0.903999694206407 ], [ 119.895832703653809, -0.904293693727172 ], [ 119.895894642910932, -0.904532713074402 ], [ 119.895937877275585, -0.904915732280928 ] ] } },
{ "type": "Feature", "properties": { "Id": 0, "Nama_Jalan": "Jl. Sawerigading IV", "Armada": 2.0, "kelurahan": "Tanamodindi" }, "geometry": { "type": "LineString", "coordinates": [ [ 119.894640268626674, -0.90317393053109 ], [ 119.895257519188888, -0.902842288301068 ], [ 119.895758210406868, -0.902597916545558 ] ] } },
{ "type": "Feature", "properties": { "Id": 0, "Nama_Jalan": "Jl. Balai Kota Timur", "Armada": 2.0, "kelurahan": "Tanamodindi" }, "geometry": { "type": "LineString", "coordinates": [ [ 119.892044493399084, -0.897772577050962 ], [ 119.891988828008763, -0.898713959369973 ], [ 119.891981160193538, -0.899532541029791 ], [ 119.892006945725456, -0.900608335236301 ], [ 119.892079296738373, -0.902003250489211 ], [ 119.892122384847283, -0.902575951487224 ] ] } },
{ "type": "Feature", "properties": { "Id": 0, "Nama_Jalan": "Jl. Balai Kota Utara", "Armada": 2.0, "kelurahan": "Tanamodindi" }, "geometry": { "type": "LineString", "coordinates": [ [ 119.891982128324358, -0.899572933041878 ], [ 119.89003260081833, -0.899689013723295 ], [ 119.887900006416928, -0.89979397818264 ] ] } },
{ "type": "Feature", "properties": { "Id": 0, "Nama_Jalan": "Jl. Balai Kota Selatan", "Armada": 2.0, "kelurahan": "Tanamodindi" }, "geometry": { "type": "LineString", "coordinates": [ [ 119.892010012655717, -0.900667465821562 ], [ 119.88812312384816, -0.900819273411311 ] ] } },
{ "type": "Feature", "properties": { "Id": 0, "Nama_Jalan": "Jl. Balaikota", "Armada": 2.0, "kelurahan": "Tanamodindi" }, "geometry": { "type": "LineString", "coordinates": [ [ 119.890141590820647, -0.900740439968972 ], [ 119.890054719505727, -0.898823481649283 ] ] } },
{ "type": "Feature", "properties": { "Id": 0, "Nama_Jalan": "Jl. Baruga", "Armada": 2.0, "kelurahan": "Tanamodindi" }, "geometry": { "type": "LineString", "coordinates": [ [ 119.891988436633085, -0.898755739378334 ], [ 119.890054719505727, -0.898823481649283 ], [ 119.887973118536848, -0.89893102890911 ], [ 119.887814008662033, -0.898950281335973 ], [ 119.887719909691953, -0.898966374407004 ] ] } },
{ "type": "Feature", "properties": { "Id": 0, "Nama_Jalan": "Lrg. Maleo II", "Armada": 2.0, "kelurahan": "Tanamodindi" }, "geometry": { "type": "LineString", "coordinates": [ [ 119.893110729080774, -0.90743588888857 ], [ 119.893084809623858, -0.907561027556763 ], [ 119.893086352119582, -0.907708771399254 ], [ 119.893066426132933, -0.90773891024255 ], [ 119.892771470153676, -0.907762098642093 ] ] } },
{ "type": "Feature", "properties": { "Id": 0, "Nama_Jalan": "Lrg. Maleo V", "Armada": 2.0, "kelurahan": "Tanamodindi" }, "geometry": { "type": "LineString", "coordinates": [ [ 119.897109613719167, -0.904627384007842 ], [ 119.89724438185759, -0.905089885423863 ] ] } },
{ "type": "Feature", "properties": { "Id": 0, "Nama_Jalan": "Jl. Maleo Lrg IV", "Armada": 2.0, "kelurahan": "Tanamodindi" }, "geometry": { "type": "LineString", "coordinates": [ [ 119.895673320657835, -0.905827681640526 ], [ 119.895618323821324, -0.905359150313421 ], [ 119.895589420552625, -0.905001929982683 ] ] } },
{ "type": "Feature", "properties": { "Id": 0, "Nama_Jalan": "Lrg. Tani Junudix", "Armada": 1.0, "kelurahan": "Tanamodindi" }, "geometry": { "type": "LineString", "coordinates": [ [ 119.894907242573737, -0.896930376560558 ], [ 119.894850238904027, -0.897529051643375 ], [ 119.894827603129698, -0.897737538171966 ], [ 119.894816010308645, -0.897794206855958 ], [ 119.894768592501947, -0.897898239851133 ], [ 119.89474010493214, -0.897913802083874 ], [ 119.894806862357527, -0.898241273858475 ], [ 119.894818901092734, -0.898449254594005 ], [ 119.894758568784169, -0.898740967381668 ], [ 119.894743153050712, -0.898768472667722 ] ] } },
{ "type": "Feature", "properties": { "Id": 0, "Nama_Jalan": "Lrg. Taipalosi", "Armada": 1.0, "kelurahan": "Tanamodindi" }, "geometry": { "type": "LineString", "coordinates": [ [ 119.896405351787095, -0.897723905904456 ], [ 119.896637154326243, -0.897729458583798 ], [ 119.896711271759415, -0.89775235005528 ], [ 119.896743615163928, -0.897807788239437 ], [ 119.896765695501188, -0.898100391006025 ], [ 119.896773891282777, -0.89832747186968 ], [ 119.896770407929168, -0.898729110477625 ], [ 119.896783740993598, -0.898771175958804 ], [ 119.896749770548823, -0.899061910941724 ] ] } },
{ "type": "Feature", "properties": { "Id": 0, "Nama_Jalan": "Jl. Merpati Ramba", "Armada": 1.0, "kelurahan": "Tanamodindi" }, "geometry": { "type": "LineString", "coordinates": [ [ 119.890580967498806, -0.894482544301363 ], [ 119.890324802665063, -0.894488373594392 ], [ 119.890314707591301, -0.894470230547865 ], [ 119.890300851840493, -0.894348136119546 ], [ 119.890255605297739, -0.894345815154356 ], [ 119.890152296002384, -0.894349483159846 ], [ 119.890047792651615, -0.894344784647097 ], [ 119.889836784511331, -0.894294309045485 ], [ 119.889684908256214, -0.894210202891475 ], [ 119.889623840439597, -0.89417504558706 ], [ 119.889579068252175, -0.894127452274223 ], [ 119.889559403916849, -0.894076422944762 ], [ 119.889561227594029, -0.893978880743784 ], [ 119.889126138703332, -0.893991657303766 ] ] } },
{ "type": "Feature", "properties": { "Id": 0, "Nama_Jalan": "Jl. Merpati Lrg II A", "Armada": 1.0, "kelurahan": "Tanamodindi" }, "geometry": { "type": "LineString", "coordinates": [ [ 119.890580967498806, -0.894482544301363 ], [ 119.890855354801104, -0.894483069959001 ], [ 119.891275192651435, -0.894557446182513 ], [ 119.89169526736822, -0.89469911900694 ], [ 119.892100093604412, -0.894794665927609 ], [ 119.892525998846949, -0.894867897572568 ], [ 119.893397737345083, -0.894984173668208 ], [ 119.89372148638877, -0.895063526547016 ], [ 119.894256676235216, -0.895168052611544 ], [ 119.894616773860591, -0.895231836882283 ], [ 119.895278982495455, -0.895312593749781 ] ] } },
{ "type": "Feature", "properties": { "Id": 0, "Nama_Jalan": "Lrg. Merpati I", "Armada": 1.0, "kelurahan": "Tanamodindi" }, "geometry": { "type": "LineString", "coordinates": [ [ 119.889045758105524, -0.896261513202909 ], [ 119.889350051493224, -0.89633347068671 ], [ 119.889519322590075, -0.896329989162995 ], [ 119.889772127171284, -0.896161243565489 ], [ 119.890430452837109, -0.896051704253896 ] ] } },
{ "type": "Feature", "properties": { "Id": 0, "Nama_Jalan": "Lrg. Merpati II", "Armada": 1.0, "kelurahan": "Tanamodindi" }, "geometry": { "type": "LineString", "coordinates": [ [ 119.889126138703332, -0.893991657303766 ], [ 119.889103077002005, -0.893656976777558 ], [ 119.889076311846495, -0.893445659590495 ], [ 119.888968675916146, -0.893079488685755 ], [ 119.888941046272478, -0.893008280380537 ], [ 119.888902157953325, -0.892783106645718 ], [ 119.888867975141039, -0.892500910826849 ], [ 119.888847272196728, -0.892449048880998 ], [ 119.888859833429692, -0.892415449519333 ], [ 119.888848836010936, -0.892267810575483 ] ] } },
{ "type": "Feature", "properties": { "Id": 0, "Nama_Jalan": "Lrg. Merpati IV", "Armada": 1.0, "kelurahan": "Tanamodindi" }, "geometry": { "type": "LineString", "coordinates": [ [ 119.890371390087566, -0.892254195735979 ], [ 119.889951424536989, -0.892225457206124 ], [ 119.889726010812112, -0.892212690133727 ], [ 119.889352016648786, -0.892219619931542 ], [ 119.888857345046048, -0.892270216080794 ], [ 119.88880674650953, -0.892255911867571 ], [ 119.888440052838035, -0.892262895889372 ], [ 119.888261679635576, -0.892248692718642 ] ] } },
{ "type": "Feature", "properties": { "Id": 0, "Nama_Jalan": "Lrg. Merpati V", "Armada": 1.0, "kelurahan": "Tanamodindi" }, "geometry": { "type": "LineString", "coordinates": [ [ 119.890255605573216, -0.890921658596202 ], [ 119.889668567901154, -0.890998624990071 ] ] } },
{ "type": "Feature", "properties": { "Id": 0, "Nama_Jalan": "Lrg. Merpati VI", "Armada": 1.0, "kelurahan": "Tanamodindi" }, "geometry": { "type": "LineString", "coordinates": [ [ 119.889668567901154, -0.890998624990071 ], [ 119.889423485326446, -0.891019856835481 ], [ 119.889191692206666, -0.891027690223041 ], [ 119.888880103798869, -0.891041324329497 ], [ 119.888826877149341, -0.891006940204275 ], [ 119.888851199946927, -0.890523042032301 ], [ 119.889090599040827, -0.890522853021018 ], [ 119.889090521550017, -0.890423399720301 ], [ 119.889383115894859, -0.890417431022179 ], [ 119.889833440752668, -0.890451501584673 ], [ 119.890217261295362, -0.890479886903913 ] ] } },
{ "type": "Feature", "properties": { "Id": 0, "Nama_Jalan": "Jl. Lagarutu", "Armada": 1.0, "kelurahan": "Tanamodindi" }, "geometry": { "type": "LineString", "coordinates": [ [ 119.888065837338715, -0.88927182486974 ], [ 119.888292311466103, -0.889235130948965 ], [ 119.888450010898381, -0.889235006647369 ], [ 119.888660476174195, -0.889287627548973 ], [ 119.889386658743973, -0.889629882120657 ], [ 119.891042329674747, -0.89047631849372 ], [ 119.892920209878, -0.891361783237007 ], [ 119.893747014765282, -0.89175917972421 ], [ 119.893871706905159, -0.89176625306178 ], [ 119.89399279451672, -0.8917195386017 ], [ 119.895000525122583, -0.891144973994805 ], [ 119.895712640251162, -0.890660295042843 ], [ 119.896243066540947, -0.890172174285839 ], [ 119.896333247936496, -0.890085440404097 ], [ 119.896561587310046, -0.88976251660037 ], [ 119.896861103613361, -0.889346897420725 ], [ 119.897016104616412, -0.889195391738737 ], [ 119.897147127403343, -0.889098226194265 ], [ 119.897204101385512, -0.889065667791007 ] ] } },
{ "type": "Feature", "properties": { "Id": 0, "Nama_Jalan": "Jl. Kayu Langa II", "Armada": 1.0, "kelurahan": "Tanamodindi" }, "geometry": { "type": "LineString", "coordinates": [ [ 119.890545749621467, -0.887953701508368 ], [ 119.890840235772501, -0.887937929972872 ], [ 119.891168125659533, -0.887890206419114 ], [ 119.89114757704165, -0.887655585079379 ], [ 119.891123693420141, -0.887483473379066 ], [ 119.89110988079743, -0.8874349530136 ] ] } },
{ "type": "Feature", "properties": { "Id": 0, "Nama_Jalan": "Lrg. Puskesmas", "Armada": 1.0, "kelurahan": "Tanamodindi" }, "geometry": { "type": "LineString", "coordinates": [ [ 119.891207849601585, -0.889591429004037 ], [ 119.89124435426443, -0.889339207274454 ], [ 119.891185412442624, -0.889000962567603 ] ] } },
{ "type": "Feature", "properties": { "Id": 0, "Nama_Jalan": "Jl. Lagarutu II", "Armada": 1.0, "kelurahan": "Tanamodindi" }, "geometry": { "type": "LineString", "coordinates": [ [ 119.890545749621467, -0.887953701508368 ], [ 119.890528072614487, -0.888498215133157 ], [ 119.890508006903104, -0.88860856572327 ], [ 119.890470134522019, -0.888772358725081 ], [ 119.890433518330724, -0.888910296225254 ], [ 119.890368298006734, -0.889279335261321 ], [ 119.8903575528728, -0.889388366084399 ], [ 119.890350505173814, -0.889475270801409 ], [ 119.890352515544976, -0.889540774481559 ], [ 119.89028691934773, -0.889673040365548 ], [ 119.890238758798873, -0.889834175215273 ], [ 119.890204421001158, -0.889952220979095 ], [ 119.890194876395967, -0.890043071338721 ] ] } },
{ "type": "Feature", "properties": { "Id": 0, "Nama_Jalan": "Jl. Vatu Gusu", "Armada": 1.0, "kelurahan": "Tanamodindi" }, "geometry": { "type": "LineString", "coordinates": [ [ 119.892948150598329, -0.89137521270847 ], [ 119.893076416432621, -0.890844511937265 ], [ 119.893255378048451, -0.890092018045423 ], [ 119.893418877060725, -0.889611358800988 ], [ 119.89349460998092, -0.88926942937881 ], [ 119.893537035528254, -0.888853414703686 ], [ 119.893553442542483, -0.888573690278613 ], [ 119.893570043201876, -0.888542598127505 ], [ 119.893642907333287, -0.888514631528858 ], [ 119.894063952089311, -0.888464094690999 ], [ 119.895098978136318, -0.888172091397796 ], [ 119.89584886086287, -0.887998652583123 ], [ 119.896468706792305, -0.887969475088437 ], [ 119.89687957248826, -0.887963174042817 ], [ 119.897763294823704, -0.887956499595133 ], [ 119.89818651342722, -0.887954730964576 ], [ 119.898518529702002, -0.887948731089314 ], [ 119.898599760355523, -0.887957273396859 ], [ 119.898643944842846, -0.887970148198267 ], [ 119.898675072963826, -0.887990683505321 ] ] } },
{ "type": "Feature", "properties": { "Id": 0, "Nama_Jalan": "Jl. Cendrawasih", "Armada": 2.0, "kelurahan": "Tanamodindi" }, "geometry": { "type": "LineString", "coordinates": [ [ 119.89498358041439, -0.90844431226741 ], [ 119.894852440121369, -0.907796540189567 ], [ 119.894821464414193, -0.907669858415562 ], [ 119.894654473566504, -0.906737622463803 ], [ 119.894361148514363, -0.905142663749779 ], [ 119.894076612875693, -0.90356264710938 ], [ 119.893776027962787, -0.901873861762273 ], [ 119.893561916347295, -0.900663145602125 ], [ 119.893454533544457, -0.90001893878621 ], [ 119.893418667419425, -0.899712958291746 ], [ 119.893392056420694, -0.899096179826733 ], [ 119.89339188691703, -0.898881017267103 ], [ 119.893552894667692, -0.898256917027382 ] ] } },
{ "type": "Feature", "properties": { "Id": 0, "Nama_Jalan": "Jl. Sawerigading Raya", "Armada": 2.0, "kelurahan": "Tanamodindi" }, "geometry": { "type": "LineString", "coordinates": [ [ 119.893872410392405, -0.902415371847292 ], [ 119.894381882723067, -0.902328110469274 ], [ 119.894885544395493, -0.902235425990068 ], [ 119.895097852245016, -0.902215173988757 ], [ 119.895247485408049, -0.902226529366505 ], [ 119.895496895157109, -0.902272230710209 ], [ 119.896173215286566, -0.902025355274367 ] ] } },
{ "type": "Feature", "properties": { "Id": 0, "Nama_Jalan": "Jl. Swadaya", "Armada": 2.0, "kelurahan": "Tanamodindi" }, "geometry": { "type": "LineString", "coordinates": [ [ 119.895511602746694, -0.898880341521401 ], [ 119.89549873654866, -0.899191344297394 ], [ 119.895563704168325, -0.899657955464557 ], [ 119.895749193054769, -0.900445069607678 ], [ 119.895874803984853, -0.900982149739302 ], [ 119.89598915390205, -0.901425770440341 ], [ 119.896191072864141, -0.902083526735302 ], [ 119.896537519968874, -0.902903733719836 ], [ 119.896611749734177, -0.903068153596263 ], [ 119.896663134224355, -0.903175215241457 ], [ 119.89671072936207, -0.903295667780169 ], [ 119.896739300396746, -0.903385534761423 ], [ 119.896818065270949, -0.903877953499761 ], [ 119.896837168278196, -0.904007991644694 ], [ 119.896860068240102, -0.904134201630371 ], [ 119.896985581572594, -0.904653255559136 ] ] } },
{ "type": "Feature", "properties": { "Id": 0, "Nama_Jalan": "Lrg. Cansel", "Armada": 2.0, "kelurahan": "Tanamodindi" }, "geometry": { "type": "LineString", "coordinates": [ [ 119.89456845986723, -0.906269923324714 ], [ 119.894110180832314, -0.906336179561228 ], [ 119.893323648300282, -0.906418096298195 ] ] } },
{ "type": "Feature", "properties": { "Id": 0, "Nama_Jalan": "Lrg. Bidan Gosal", "Armada": 2.0, "kelurahan": "Tanamodindi" }, "geometry": { "type": "LineString", "coordinates": [ [ 119.894523900016992, -0.906027628847951 ], [ 119.894779016216617, -0.905985245114711 ], [ 119.894809373536688, -0.905931669146466 ], [ 119.895160847494154, -0.905900785393164 ], [ 119.895200767040279, -0.905925616466727 ], [ 119.895258403617248, -0.906726930225618 ], [ 119.895278372906802, -0.906751299201396 ], [ 119.895325396531518, -0.906749826900336 ], [ 119.895704352177361, -0.906633333951575 ], [ 119.895741373463906, -0.906597443750901 ], [ 119.895759841339427, -0.906525708126792 ], [ 119.895764058156331, -0.906452549569805 ], [ 119.895673320657835, -0.905827681640526 ] ] } },
{ "type": "Feature", "properties": { "Id": 0, "Nama_Jalan": "Lrg Pemadam", "Armada": 2.0, "kelurahan": "Tanamodindi" }, "geometry": { "type": "LineString", "coordinates": [ [ 119.891985230159577, -0.899098041900793 ], [ 119.892399169395006, -0.899094835204051 ], [ 119.89264429199163, -0.899124762368389 ], [ 119.892681319218312, -0.899096044437032 ], [ 119.892603931334762, -0.898539551642621 ] ] } },
{ "type": "Feature", "properties": { "Id": 0, "Nama_Jalan": "Lrg. Bimbers", "Armada": 1.0, "kelurahan": "Tanamodindi" }, "geometry": { "type": "LineString", "coordinates": [ [ 119.892881222545768, -0.897781658181813 ], [ 119.892928450043243, -0.897435447525891 ], [ 119.893283787165231, -0.897484890891046 ], [ 119.893698049405685, -0.897566800690005 ], [ 119.893775954947898, -0.897574388819496 ], [ 119.893777779713787, -0.897478759532727 ], [ 119.894304083867226, -0.897487902801124 ], [ 119.894659391988043, -0.897501007429447 ], [ 119.894850238904027, -0.897529051643375 ] ] } },
{ "type": "Feature", "properties": { "Id": 0, "Nama_Jalan": "Lrg. Kanuna", "Armada": 2.0, "kelurahan": "Tanamodindi" }, "geometry": { "type": "LineString", "coordinates": [ [ 119.894202870123635, -0.898520641898985 ], [ 119.894306671933123, -0.898237978947121 ], [ 119.89426807972977, -0.898088830384135 ], [ 119.894273705167336, -0.897994154384723 ] ] } },
{ "type": "Feature", "properties": { "Id": 0, "Nama_Jalan": "Lrg. Bintang Timur", "Armada": 1.0, "kelurahan": "Tanamodindi" }, "geometry": { "type": "LineString", "coordinates": [ [ 119.89049320085789, -0.89588318885029 ], [ 119.890670737158615, -0.895890339401311 ], [ 119.891297787091929, -0.895956780630295 ], [ 119.891617089204203, -0.896088493439613 ], [ 119.891826176783667, -0.896201168208318 ], [ 119.89204472075869, -0.896258371172237 ], [ 119.892428502271471, -0.896237027723085 ], [ 119.892500709394085, -0.896246533072733 ], [ 119.892749678616809, -0.896336225236805 ], [ 119.893118351614376, -0.896431559747294 ], [ 119.89332372619171, -0.896655165501683 ], [ 119.893390291917157, -0.896739265025793 ], [ 119.893791309691196, -0.896891950222851 ], [ 119.894281572639912, -0.896975712151435 ], [ 119.89453232580226, -0.896918135704861 ], [ 119.894907242573737, -0.896930376560558 ] ] } },
{ "type": "Feature", "properties": { "Id": 0, "Nama_Jalan": "Lrg. UD Madju", "Armada": 1.0, "kelurahan": "Tanamodindi" }, "geometry": { "type": "LineString", "coordinates": [ [ 119.897708097391472, -0.898233472949403 ], [ 119.897698117466874, -0.898200337628546 ], [ 119.897306253641787, -0.898210213357168 ], [ 119.897142430996809, -0.898274892782206 ], [ 119.897092559268174, -0.898278518645128 ], [ 119.896993994814466, -0.898275011327869 ], [ 119.896923920682582, -0.898259527809828 ], [ 119.896766379124827, -0.898133240563685 ] ] } },
{ "type": "Feature", "properties": { "Id": 0, "Nama_Jalan": "Lrg. Toparua", "Armada": 1.0, "kelurahan": "Tanamodindi" }, "geometry": { "type": "LineString", "coordinates": [ [ 119.894768592501947, -0.897898239851133 ], [ 119.895066771917087, -0.897824546154257 ], [ 119.895262693869341, -0.897806459671506 ], [ 119.895391410945422, -0.897797511427788 ], [ 119.895485205796504, -0.897775920372778 ], [ 119.895562371061345, -0.897748365855199 ], [ 119.895779591525255, -0.897633439367188 ], [ 119.895840133782798, -0.897608288811873 ], [ 119.895914933450655, -0.897592689650263 ], [ 119.896047920139878, -0.897577044072142 ], [ 119.896116784223835, -0.897563840337036 ], [ 119.896167835009649, -0.897549455467239 ], [ 119.896328103822214, -0.897495537077509 ], [ 119.896367296637692, -0.89750267788279 ], [ 119.896386312475641, -0.897522983580128 ], [ 119.896395834982485, -0.897551664266275 ], [ 119.896405351787095, -0.897723905904456 ] ] } },
{ "type": "Feature", "properties": { "Id": 0, "Nama_Jalan": "Perumahan Bomba Indah", "Armada": 1.0, "kelurahan": "Tanamodindi" }, "geometry": { "type": "MultiLineString", "coordinates": [ [ [ 119.893032588149012, -0.894106381061615 ], [ 119.893031536203807, -0.894205816431949 ], [ 119.893622930874002, -0.894235469645007 ] ], [ [ 119.893032588149012, -0.894106381061615 ], [ 119.892810112419113, -0.894065376989133 ] ], [ [ 119.892810112419113, -0.894065376989133 ], [ 119.892606274141343, -0.894027807929409 ] ], [ [ 119.892810112419113, -0.894065376989133 ], [ 119.892765627149188, -0.893713543742908 ] ], [ [ 119.893034631950016, -0.893913192610389 ], [ 119.893032588149012, -0.894106381061615 ] ], [ [ 119.893034631950016, -0.893913192610389 ], [ 119.893118189461433, -0.893859574676206 ], [ 119.893528568714856, -0.893836298282508 ] ], [ [ 119.893461780100722, -0.893467227751038 ], [ 119.89301153106527, -0.893528786791177 ], [ 119.892979249244874, -0.893551763096512 ], [ 119.892969779254813, -0.893590021770078 ], [ 119.89300226774813, -0.893830978302377 ], [ 119.893034631950016, -0.893913192610389 ] ] ] } },
{ "type": "Feature", "properties": { "Id": 0, "Nama_Jalan": "BTN Alexandria II", "Armada": 1.0, "kelurahan": "Tanamodindi" }, "geometry": { "type": "MultiLineString", "coordinates": [ [ [ 119.896585681531931, -0.895093166423027 ], [ 119.896342482080726, -0.895091208300028 ], [ 119.895922060340339, -0.895027233168374 ], [ 119.895646983668087, -0.894958600036213 ], [ 119.895373349941693, -0.894912916349669 ] ], [ [ 119.896585681531931, -0.895093166423027 ], [ 119.896646584348829, -0.894619761395417 ] ], [ [ 119.896983716677767, -0.895078744631571 ], [ 119.896585681531931, -0.895093166423027 ] ] ] } },
{ "type": "Feature", "properties": { "Id": 0, "Nama_Jalan": "Lrg. Mayapada", "Armada": 1.0, "kelurahan": "Tanamodindi" }, "geometry": { "type": "LineString", "coordinates": [ [ 119.891338800073456, -0.895973698578085 ], [ 119.891371821227921, -0.896337643796623 ], [ 119.891409863285531, -0.896391404308998 ], [ 119.891432573958767, -0.896580251607487 ] ] } },
{ "type": "Feature", "properties": { "Id": 0, "Nama_Jalan": "Mahkota Indah Residence", "Armada": 1.0, "kelurahan": "Tanamodindi" }, "geometry": { "type": "MultiLineString", "coordinates": [ [ [ 119.895810865855353, -0.894221005507014 ], [ 119.895613655409932, -0.894206432275496 ] ], [ [ 119.896320008590607, -0.893819265623543 ], [ 119.896318745267365, -0.893850376263571 ], [ 119.896151382113302, -0.894246168555844 ], [ 119.895810865855353, -0.894221005507014 ] ], [ [ 119.896320008590607, -0.893819265623543 ], [ 119.8966131031342, -0.893823904565839 ], [ 119.896639217570538, -0.89381073502285 ], [ 119.89666057174216, -0.893784420469015 ], [ 119.896667672303593, -0.893753335861245 ], [ 119.89668201261162, -0.893262754945867 ] ], [ [ 119.896334693714323, -0.893447020188736 ], [ 119.896016336441988, -0.893453044583988 ], [ 119.895965290999627, -0.893777262843237 ], [ 119.895855772795187, -0.894039847754122 ], [ 119.895810865855353, -0.894221005507014 ] ], [ [ 119.896334693714323, -0.893447020188736 ], [ 119.89632165775663, -0.89377865323638 ], [ 119.896320008590607, -0.893819265623543 ] ], [ [ 119.896347853968805, -0.893112227479405 ], [ 119.896334693714323, -0.893447020188736 ] ] ] } },
{ "type": "Feature", "properties": { "Id": 0, "Nama_Jalan": "Lrg. Taipambali", "Armada": 1.0, "kelurahan": "Tanamodindi" }, "geometry": { "type": "LineString", "coordinates": [ [ 119.893170626045077, -0.890448381181973 ], [ 119.893949120863454, -0.890432922968525 ] ] } },
{ "type": "Feature", "properties": { "Id": 0, "Nama_Jalan": "Jl. Merpati Ramba Lrg. I", "Armada": 1.0, "kelurahan": "Tanamodindi" }, "geometry": { "type": "LineString", "coordinates": [ [ 119.889126138703332, -0.893991657303766 ], [ 119.889101444545119, -0.894029821494019 ], [ 119.888729054559477, -0.89404159204802 ], [ 119.888556146023916, -0.894030253693894 ], [ 119.888557796204736, -0.893862663831909 ], [ 119.888526745572292, -0.893637961979473 ], [ 119.888492297880205, -0.893624840378709 ], [ 119.888092173923454, -0.893705246026197 ], [ 119.88805797493886, -0.893402609485766 ], [ 119.888072180071362, -0.893345221247088 ], [ 119.888006666729623, -0.892783934859888 ] ] } },
{ "type": "Feature", "properties": { "Id": 0, "Nama_Jalan": "Jl. Merpati Ramba Lrg. IV", "Armada": 1.0, "kelurahan": "Tanamodindi" }, "geometry": { "type": "LineString", "coordinates": [ [ 119.888847272196728, -0.892449048880998 ], [ 119.88813839083528, -0.892518940203557 ], [ 119.888119258380058, -0.892349215080894 ], [ 119.888139388915775, -0.892276282571165 ], [ 119.888178557655024, -0.892252344517068 ], [ 119.888261679635576, -0.892248692718642 ] ] } },
{ "type": "Feature", "properties": { "Id": 0, "Nama_Jalan": "Jl. Merpati Ramba Lrg. III", "Armada": 1.0, "kelurahan": "Tanamodindi" }, "geometry": { "type": "LineString", "coordinates": [ [ 119.888867975141039, -0.892500910826849 ], [ 119.889275006025471, -0.892445841587739 ] ] } },
{ "type": "Feature", "properties": { "Id": 0, "Nama_Jalan": "Jl. Merpati Ramba Lrg. II", "Armada": 1.0, "kelurahan": "Tanamodindi" }, "geometry": { "type": "LineString", "coordinates": [ [ 119.888902157953325, -0.892783106645718 ], [ 119.888581341409349, -0.892840976596124 ], [ 119.888304930058723, -0.892889726718665 ], [ 119.888274046734423, -0.892878992976946 ], [ 119.888230024390651, -0.892770250620373 ], [ 119.888137397753468, -0.892767933207988 ], [ 119.888006666729623, -0.892783934859888 ], [ 119.887660301823985, -0.892820189077039 ] ] } },
{ "type": "Feature", "properties": { "Id": 0, "Nama_Jalan": "Jl. Merpati II B", "Armada": 1.0, "kelurahan": "Tanamodindi" }, "geometry": { "type": "LineString", "coordinates": [ [ 119.891344150914051, -0.894580702795791 ], [ 119.891508623887134, -0.894422783981214 ], [ 119.891811161464631, -0.894073501649549 ], [ 119.892076904499334, -0.893746960310658 ], [ 119.89218606685013, -0.893635706203834 ], [ 119.892221654216058, -0.89358786399406 ], [ 119.892286886805081, -0.893486207547428 ], [ 119.892333118574399, -0.893383370829294 ], [ 119.89239466897105, -0.893128712599938 ], [ 119.892471682996202, -0.892907511921927 ], [ 119.892549856498334, -0.892650449876578 ], [ 119.892619728810672, -0.892407738630919 ], [ 119.892691978948278, -0.892168611577762 ], [ 119.892763095809286, -0.891998815693375 ], [ 119.892897856379591, -0.891517461524651 ], [ 119.892948150598329, -0.89137521270847 ] ] } },
{ "type": "Feature", "properties": { "Id": 0, "Nama_Jalan": "Jl. Dengelo", "Armada": 1.0, "kelurahan": "Tanamodindi" }, "geometry": { "type": "LineString", "coordinates": [ [ 119.89254219333678, -0.892675649046911 ], [ 119.892664232079881, -0.892676019405486 ], [ 119.89280175321619, -0.892688102984279 ], [ 119.892866592530225, -0.892690920436285 ], [ 119.892911475803814, -0.89268586440022 ], [ 119.892939985709987, -0.892698751572572 ], [ 119.892994208837237, -0.892792663010485 ], [ 119.893017023270616, -0.892811292367001 ], [ 119.893044103136887, -0.892817725784713 ], [ 119.893159517248918, -0.892804724532279 ], [ 119.893558936493591, -0.892736751186696 ], [ 119.893873801551962, -0.892662868139425 ], [ 119.893988720749832, -0.892624525907089 ], [ 119.894066592467098, -0.892589081882825 ], [ 119.894124506853188, -0.892544090902335 ] ] } },
{ "type": "Feature", "properties": { "Id": 0, "Nama_Jalan": "Jl. Kayulanga I", "Armada": 1.0, "kelurahan": "Tanamodindi" }, "geometry": { "type": "LineString", "coordinates": [ [ 119.892040871057077, -0.890947154670449 ], [ 119.892078224376021, -0.890877661689612 ], [ 119.892123698726735, -0.890716970734802 ], [ 119.892131247944675, -0.890651937743899 ], [ 119.892131212135823, -0.890606036344357 ], [ 119.892092119175771, -0.890422461527775 ], [ 119.892135675362937, -0.889933768155779 ], [ 119.892147359290021, -0.889688712244511 ] ] } },
{ "type": "Feature", "properties": { "Id": 0, "Nama_Jalan": "Jl. Kayulanga", "Armada": 1.0, "kelurahan": "Tanamodindi" }, "geometry": { "type": "LineString", "coordinates": [ [ 119.893274087486546, -0.890037015457573 ], [ 119.892886908345048, -0.889903116231237 ], [ 119.892764329053449, -0.889864483764318 ], [ 119.892167114053208, -0.889679915376601 ], [ 119.892035751177147, -0.889646310240987 ], [ 119.891946678096815, -0.889632036372061 ], [ 119.891207849601585, -0.889591429004037 ], [ 119.890352515544976, -0.889540774481559 ] ] } },
{ "type": "Feature", "properties": { "Id": 0, "Nama_Jalan": "Lrg. Tirotasi I", "Armada": 1.0, "kelurahan": "Tanamodindi" }, "geometry": { "type": "LineString", "coordinates": [ [ 119.89349460998092, -0.88926942937881 ], [ 119.893102952696736, -0.889240549531919 ], [ 119.892633526642811, -0.889074527518885 ], [ 119.892582194250707, -0.88903249173988 ], [ 119.892587749732812, -0.888846969158569 ], [ 119.892676853989542, -0.888596353677587 ] ] } },
{ "type": "Feature", "properties": { "Id": 0, "Nama_Jalan": "Lrg. Tirotasi II", "Armada": 1.0, "kelurahan": "Tanamodindi" }, "geometry": { "type": "LineString", "coordinates": [ [ 119.892676853989542, -0.888596353677587 ], [ 119.892698210401889, -0.888572668918967 ], [ 119.893109204127512, -0.888728935372449 ], [ 119.893542460303649, -0.88876092717308 ] ] } },
{ "type": "Feature", "properties": { "Id": 0, "Nama_Jalan": "BTN Permata Asri", "Armada": 1.0, "kelurahan": "Tanamodindi" }, "geometry": { "type": "MultiLineString", "coordinates": [ [ [ 119.896978554825921, -0.889852570578177 ], [ 119.896663340254065, -0.890219890558504 ] ], [ [ 119.896978554825921, -0.889852570578177 ], [ 119.897242121644169, -0.890055143738895 ], [ 119.897105327102722, -0.890212320246652 ], [ 119.89697472595185, -0.890241111880883 ], [ 119.89645457853149, -0.890205663169324 ], [ 119.896316152608932, -0.890101882199695 ] ], [ [ 119.896668450602519, -0.889614229377248 ], [ 119.896978554825921, -0.889852570578177 ] ], [ [ 119.897200766410805, -0.889559586716846 ], [ 119.896978554825921, -0.889852570578177 ] ] ] } },
{ "type": "Feature", "properties": { "Id": 0, "Nama_Jalan": "Lrg. Dayodara", "Armada": 1.0, "kelurahan": "Tanamodindi" }, "geometry": { "type": "LineString", "coordinates": [ [ 119.888450978888855, -0.88774189519915 ], [ 119.889126780606233, -0.88758644560349 ], [ 119.88956773869333, -0.887486645238015 ], [ 119.889730408634733, -0.887465000873503 ], [ 119.889808765577527, -0.887442227513082 ], [ 119.889885927593326, -0.887409892277915 ], [ 119.890208768887476, -0.887207623739333 ], [ 119.890361872872319, -0.887101116964816 ], [ 119.890750994420529, -0.886896883847323 ], [ 119.890996031578425, -0.886817797885295 ], [ 119.89115417990854, -0.886784681771696 ], [ 119.89146480995322, -0.886761486625211 ] ] } },
{ "type": "Feature", "properties": { "Id": 0, "Nama_Jalan": "Jl. Jepang", "Armada": 1.0, "kelurahan": "Tanamodindi" }, "geometry": { "type": "LineString", "coordinates": [ [ 119.897204101385512, -0.889065667791007 ], [ 119.897190266492501, -0.888988698552976 ], [ 119.897255387314118, -0.888439266861472 ], [ 119.897280992284649, -0.888381870112075 ], [ 119.897326564911936, -0.888347408201837 ], [ 119.89744624560312, -0.888324363060992 ], [ 119.897820418609243, -0.888319286111861 ], [ 119.898133959468211, -0.88837641488456 ], [ 119.898300694676109, -0.888392061668847 ], [ 119.89842181813799, -0.888391965957117 ], [ 119.898470258569859, -0.888380452385927 ], [ 119.898524376553567, -0.888340246098815 ], [ 119.898584139652527, -0.888229749194905 ], [ 119.898639613272394, -0.888100608343127 ], [ 119.898675072963826, -0.887990683505321 ] ] } },
{ "type": "Feature", "properties": { "Id": 0, "Nama_Jalan": "Jl. Hi. Latanga", "Armada": 1.0, "kelurahan": "Tanamodindi" }, "geometry": { "type": "LineString", "coordinates": [ [ 119.889045758105524, -0.896261513202909 ], [ 119.888857730149027, -0.896130890978809 ], [ 119.888817319622802, -0.896085499662771 ], [ 119.88877569911034, -0.896011420827132 ], [ 119.888604588902069, -0.895870505041145 ], [ 119.888230277026508, -0.895551642823533 ], [ 119.888168498106467, -0.895514635892041 ], [ 119.888099605433027, -0.895491978848626 ], [ 119.887822859381686, -0.895416891171907 ], [ 119.887092495291597, -0.895350530795636 ], [ 119.887036683771555, -0.895351770424703 ] ] } }
]
}
