{
"type": "FeatureCollection",
"name": "Tatura Utara",
"crs": { "type": "name", "properties": { "name": "urn:ogc:def:crs:OGC:1.3:CRS84" } },
"features": [
{ "type": "Feature", "properties": { "Id": 0, "Nama_Jalan": "Jl. Tj. Manimbaya IV", "Armada": 2.0, "kelurahan": "Tatura Utara" }, "geometry": { "type": "LineString", "coordinates": [ [ 119.88163348920834, -0.908288901692061 ], [ 119.881693248205551, -0.908822033997224 ], [ 119.881729739877898, -0.909165670842346 ], [ 119.881821981491868, -0.909429771348687 ], [ 119.881838654062506, -0.909489525963589 ], [ 119.881874695073662, -0.910013064850561 ], [ 119.881891637389643, -0.9104123015981 ], [ 119.881896590727791, -0.910668104739957 ] ] } },
{ "type": "Feature", "properties": { "Id": 0, "Nama_Jalan": "Jl. Tj. Harapan", "Armada": 2.0, "kelurahan": "Tatura Utara" }, "geometry": { "type": "LineString", "coordinates": [ [ 119.88427968656481, -0.908214114386147 ], [ 119.884501178115343, -0.909241069717562 ], [ 119.884528600910912, -0.909379709132618 ], [ 119.884555300825426, -0.91010287899576 ], [ 119.884584314395681, -0.910748348714293 ], [ 119.884590424099926, -0.910964703508918 ], [ 119.884569126658548, -0.911062321630872 ], [ 119.884538992641041, -0.911158022357906 ], [ 119.88445755703674, -0.911788997839325 ], [ 119.884429400669418, -0.91222054470713 ], [ 119.884398744836787, -0.912937339434404 ] ] } },
{ "type": "Feature", "properties": { "Id": 0, "Nama_Jalan": "Lrg. Spanyol", "Armada": 2.0, "kelurahan": "Tatura Utara" }, "geometry": { "type": "LineString", "coordinates": [ [ 119.883947503559313, -0.909991349908479 ], [ 119.883867733277469, -0.910712896547243 ], [ 119.883851328799111, -0.910990232906952 ] ] } },
{ "type": "Feature", "properties": { "Id": 0, "Nama_Jalan": "Lrg. Barcelona", "Armada": 2.0, "kelurahan": "Tatura Utara" }, "geometry": { "type": "LineString", "coordinates": [ [ 119.883411628058056, -0.909989597946199 ], [ 119.883435261872265, -0.910438312565686 ], [ 119.883452174061361, -0.91079929729124 ] ] } },
{ "type": "Feature", "properties": { "Id": 0, "Nama_Jalan": "Lrg. Brazil", "Armada": 2.0, "kelurahan": "Tatura Utara" }, "geometry": { "type": "LineString", "coordinates": [ [ 119.882364362759745, -0.909979281558486 ], [ 119.88235896048954, -0.910383512542697 ], [ 119.882354758499901, -0.910601751834924 ] ] } },
{ "type": "Feature", "properties": { "Id": 0, "Nama_Jalan": "Jl. Tj. Angin Lrg I", "Armada": 2.0, "kelurahan": "Tatura Utara" }, "geometry": { "type": "LineString", "coordinates": [ [ 119.888740553460693, -0.909830381203586 ], [ 119.88875760299085, -0.910363494963 ], [ 119.888807824725248, -0.910798562962691 ] ] } },
{ "type": "Feature", "properties": { "Id": 0, "Nama_Jalan": "Jl. Tj. Angin Lrg III", "Armada": 2.0, "kelurahan": "Tatura Utara" }, "geometry": { "type": "LineString", "coordinates": [ [ 119.887732157516353, -0.909870402024445 ], [ 119.887774470713055, -0.91051490289321 ], [ 119.887816590743896, -0.910916507902917 ] ] } },
{ "type": "Feature", "properties": { "Id": 0, "Nama_Jalan": "Lrg. Gereja Sola Gratia", "Armada": 2.0, "kelurahan": "Tatura Utara" }, "geometry": { "type": "LineString", "coordinates": [ [ 119.888625093289747, -0.908517498254237 ], [ 119.88862552286426, -0.909057797604527 ], [ 119.888616285280662, -0.909387722564404 ] ] } },
{ "type": "Feature", "properties": { "Id": 0, "Nama_Jalan": "Lrg. Mawar", "Armada": 2.0, "kelurahan": "Tatura Utara" }, "geometry": { "type": "LineString", "coordinates": [ [ 119.877724425331337, -0.910844073243079 ], [ 119.877760549121973, -0.911471610698157 ] ] } },
{ "type": "Feature", "properties": { "Id": 0, "Nama_Jalan": "Lrg. Swadaya", "Armada": 2.0, "kelurahan": "Tatura Utara" }, "geometry": { "type": "LineString", "coordinates": [ [ 119.879037086601599, -0.911420975339975 ], [ 119.87896809724657, -0.910530485077124 ], [ 119.87894135449001, -0.910500622501806 ] ] } },
{ "type": "Feature", "properties": { "Id": 0, "Nama_Jalan": "Lrg. Singgani", "Armada": 2.0, "kelurahan": "Tatura Utara" }, "geometry": { "type": "LineString", "coordinates": [ [ 119.879352128360253, -0.911414027601527 ], [ 119.879336640957234, -0.911052562266089 ], [ 119.879431637376868, -0.911046748048239 ] ] } },
{ "type": "Feature", "properties": { "Id": 0, "Nama_Jalan": "Lrg. Madani", "Armada": 2.0, "kelurahan": "Tatura Utara" }, "geometry": { "type": "LineString", "coordinates": [ [ 119.88089050785355, -0.911509612625586 ], [ 119.880902103513463, -0.911158167009481 ], [ 119.880795199040122, -0.911122392277572 ], [ 119.880742937162324, -0.911108090034014 ] ] } },
{ "type": "Feature", "properties": { "Id": 0, "Nama_Jalan": "Lrg. Lompio", "Armada": 2.0, "kelurahan": "Tatura Utara" }, "geometry": { "type": "LineString", "coordinates": [ [ 119.884474945850357, -0.911654266448467 ], [ 119.88433558247219, -0.911647749203998 ], [ 119.884228072131677, -0.911596435565689 ], [ 119.884145518477837, -0.911569008940069 ], [ 119.883833155929253, -0.91150889535053 ], [ 119.88345669594203, -0.911484096480722 ], [ 119.883278605944852, -0.911494567258055 ], [ 119.883255617889915, -0.911741260836406 ], [ 119.883252826157403, -0.911963599859012 ], [ 119.88322559057255, -0.9120604459157 ], [ 119.883063161352254, -0.912386312369081 ] ] } },
{ "type": "Feature", "properties": { "Id": 0, "Nama_Jalan": "Lrg. Damai", "Armada": 2.0, "kelurahan": "Tatura Utara" }, "geometry": { "type": "LineString", "coordinates": [ [ 119.885355618504022, -0.913145544705999 ], [ 119.885381610119879, -0.912978173748877 ], [ 119.88540396295933, -0.912715177204179 ], [ 119.885412041950772, -0.912422308284837 ], [ 119.885462908401294, -0.91217602371962 ], [ 119.885446247105619, -0.912130613624374 ], [ 119.885407047966126, -0.912116301004332 ], [ 119.885325109079176, -0.912115171825542 ], [ 119.884946291636624, -0.912111891681447 ], [ 119.884711175757403, -0.912125230468511 ], [ 119.884433881402686, -0.912151869266618 ] ] } },
{ "type": "Feature", "properties": { "Id": 0, "Nama_Jalan": "Jl. Batu Bata Indah", "Armada": 1.0, "kelurahan": "Tatura Utara" }, "geometry": { "type": "LineString", "coordinates": [ [ 119.886139665914698, -0.913251154791982 ], [ 119.886171507373021, -0.914076324428726 ], [ 119.886236337924444, -0.914958444529524 ], [ 119.886264266282694, -0.915529879906418 ], [ 119.886280311268365, -0.915991943617282 ], [ 119.886178669886775, -0.916003501497731 ], [ 119.885939255232557, -0.916036776962125 ], [ 119.885335108169954, -0.916108032164898 ], [ 119.885049868225494, -0.916107546318892 ], [ 119.884976438000066, -0.916107397999933 ], [ 119.884939932924922, -0.916142539914653 ], [ 119.884924538379622, -0.916196343474704 ], [ 119.884870918317276, -0.917006839180425 ], [ 119.884868704083672, -0.918688110939177 ], [ 119.884877237363568, -0.918963036161291 ] ] } },
{ "type": "Feature", "properties": { "Id": 0, "Nama_Jalan": "Lrg. Anoaku", "Armada": 1.0, "kelurahan": "Tatura Utara" }, "geometry": { "type": "LineString", "coordinates": [ [ 119.88426036674953, -0.914645884606855 ], [ 119.884185818268563, -0.914153478138832 ], [ 119.884173912642282, -0.914115236316044 ], [ 119.884143026929422, -0.914102112366782 ], [ 119.88410145268729, -0.91408780170594 ], [ 119.884083623838023, -0.914067495042575 ], [ 119.884074095140193, -0.914031642008405 ], [ 119.884064422354626, -0.913815290015136 ], [ 119.884114070645523, -0.913530754641244 ], [ 119.884098472811047, -0.913329947095597 ], [ 119.883954741420609, -0.913276272160307 ], [ 119.883809849206983, -0.913256068178529 ] ] } },
{ "type": "Feature", "properties": { "Id": 0, "Nama_Jalan": "Lrg. Sejahtera", "Armada": 1.0, "kelurahan": "Tatura Utara" }, "geometry": { "type": "LineString", "coordinates": [ [ 119.886139665914698, -0.913251154791982 ], [ 119.886116400089662, -0.912580142008182 ], [ 119.886437011313234, -0.912560757163001 ], [ 119.88644577363327, -0.911635544844034 ], [ 119.886447438185186, -0.911340051594712 ] ] } },
{ "type": "Feature", "properties": { "Id": 0, "Nama_Jalan": "Lrg. Sehati", "Armada": 1.0, "kelurahan": "Tatura Utara" }, "geometry": { "type": "LineString", "coordinates": [ [ 119.887016913063619, -0.91327637095551 ], [ 119.887009059192664, -0.912674159492699 ], [ 119.887018270647914, -0.912232042776262 ], [ 119.886974827173916, -0.911958341583124 ] ] } },
{ "type": "Feature", "properties": { "Id": 0, "Nama_Jalan": "Lrg. Sintuvuntodea", "Armada": 1.0, "kelurahan": "Tatura Utara" }, "geometry": { "type": "LineString", "coordinates": [ [ 119.883451304503282, -0.912814194737302 ], [ 119.883427126593361, -0.912873504062549 ], [ 119.883409326352819, -0.91288905810568 ], [ 119.883370147144745, -0.912899847983539 ], [ 119.883300084132301, -0.912899904578655 ], [ 119.883208634522376, -0.912885634138972 ], [ 119.883158764868327, -0.91289284657412 ], [ 119.883100590272392, -0.912909628590261 ], [ 119.883079244650816, -0.912946701965342 ], [ 119.883053386313037, -0.913281423424141 ], [ 119.883051279205887, -0.913617321058104 ], [ 119.883089422396566, -0.914093999452197 ], [ 119.883076382120109, -0.914121981402912 ], [ 119.882771431202258, -0.914124140604099 ], [ 119.882721089949356, -0.914135656766174 ], [ 119.882697339828397, -0.914166543395307 ], [ 119.882693447664664, -0.914199897074725 ], [ 119.882709961822997, -0.914358388394366 ], [ 119.882723552111983, -0.914424361247235 ], [ 119.882784926685659, -0.914548389909946 ], [ 119.882799696916877, -0.914815330517097 ] ] } },
{ "type": "Feature", "properties": { "Id": 0, "Nama_Jalan": "Lrg. Pemuda Pancasila", "Armada": 1.0, "kelurahan": "Tatura Utara" }, "geometry": { "type": "LineString", "coordinates": [ [ 119.881971915463239, -0.9129821378069 ], [ 119.881323251714448, -0.9129949581558 ], [ 119.880622172525435, -0.91302995048255 ], [ 119.880492504251762, -0.913040096179001 ], [ 119.880405586388591, -0.913050207370059 ], [ 119.880217508494525, -0.913080482287044 ], [ 119.88003799436477, -0.913127963510973 ], [ 119.879935420723797, -0.913162472731086 ], [ 119.879879853142299, -0.913172558621913 ], [ 119.879841369742394, -0.913162548633924 ], [ 119.879817120497009, -0.913132445065959 ], [ 119.879775651133514, -0.912951739698599 ], [ 119.879765613211845, -0.912872853861784 ], [ 119.879772713160975, -0.912841290559853 ], [ 119.8798083179759, -0.912815442003934 ], [ 119.879993561894466, -0.912805251516662 ], [ 119.880001673552144, -0.912254421972498 ] ] } },
{ "type": "Feature", "properties": { "Id": 0, "Nama_Jalan": "Lrg Belakang SD Inpres 2 Tatura", "Armada": 1.0, "kelurahan": "Tatura Utara" }, "geometry": { "type": "LineString", "coordinates": [ [ 119.880001673552144, -0.912254421972498 ], [ 119.880106072781459, -0.912275615246167 ], [ 119.880329340212228, -0.912294561007971 ], [ 119.880416029510215, -0.91229568646302 ], [ 119.880583640585272, -0.912287801364948 ], [ 119.88109278597301, -0.912212800179799 ], [ 119.881468964975966, -0.912181895519205 ], [ 119.881504591239306, -0.912183062143088 ], [ 119.881534285659441, -0.912191405716236 ], [ 119.881565173299109, -0.912206920490711 ], [ 119.881606745675967, -0.912218840562673 ], [ 119.881673253863042, -0.912228349795972 ], [ 119.881913572789301, -0.912240403908644 ], [ 119.881916028894878, -0.912288400101287 ] ] } },
{ "type": "Feature", "properties": { "Id": 0, "Nama_Jalan": "Jl. Purnawirawan I", "Armada": 1.0, "kelurahan": "Tatura Utara" }, "geometry": { "type": "LineString", "coordinates": [ [ 119.882445413594979, -0.911980765458532 ], [ 119.882396813270915, -0.912090777774053 ], [ 119.882337545356663, -0.91222590126472 ], [ 119.882318567098352, -0.912253409857437 ], [ 119.882291269609482, -0.912272557644094 ], [ 119.882248524975523, -0.912279764295866 ], [ 119.882139276940606, -0.912283438529241 ], [ 119.881916028894878, -0.912288400101287 ], [ 119.881938856244233, -0.912620691865364 ], [ 119.881972877914166, -0.912992660539583 ], [ 119.8819819523371, -0.913054572876704 ], [ 119.881980839137796, -0.913147811880583 ], [ 119.881966680484922, -0.913262577907332 ], [ 119.881901635218554, -0.913598526717363 ], [ 119.881877962222234, -0.913695370039285 ], [ 119.881866109043273, -0.913722872907501 ], [ 119.881856670927107, -0.913800578963452 ], [ 119.88186479663149, -0.914459375378772 ], [ 119.881868966606802, -0.914625288034101 ], [ 119.88188235643365, -0.914737641082247 ], [ 119.881898114421475, -0.914841385616753 ], [ 119.881899122465583, -0.914914062713297 ], [ 119.881887848374646, -0.915071859409596 ], [ 119.881886052239011, -0.91520191607577 ], [ 119.881891778646363, -0.915234903387884 ], [ 119.881905123842046, -0.915291313596191 ], [ 119.881910888835236, -0.915372593435471 ], [ 119.881909018615801, -0.915409890193487 ], [ 119.881894799046947, -0.915448153238306 ], [ 119.881870124032645, -0.91547973073091 ], [ 119.881841640577193, -0.915500792136261 ], [ 119.881803653211207, -0.91551707979544 ], [ 119.881754257330883, -0.915522857519486 ], [ 119.881688709766735, -0.915526735743469 ], [ 119.881549049263043, -0.915515373351374 ], [ 119.881286829139285, -0.915493590988165 ], [ 119.88117568033158, -0.915496549827292 ], [ 119.880610459705963, -0.915540996620619 ], [ 119.880006634803323, -0.915634925007975 ], [ 119.879868423165078, -0.915653684509623 ], [ 119.879714535186508, -0.91567102226065 ], [ 119.879365416502466, -0.91568421467383 ], [ 119.879153089020704, -0.915684386465904 ], [ 119.878658652749039, -0.915740729486947 ], [ 119.878493361021071, -0.915753773130374 ], [ 119.877911968555779, -0.915772891079976 ], [ 119.877300642370813, -0.915781992091268 ] ] } },
{ "type": "Feature", "properties": { "Id": 0, "Nama_Jalan": "Lrg. Tamalanja", "Armada": 1.0, "kelurahan": "Tatura Utara" }, "geometry": { "type": "LineString", "coordinates": [ [ 119.877629952051507, -0.911558658695514 ], [ 119.877630187605206, -0.911855109006275 ], [ 119.877798814627809, -0.911854973215184 ], [ 119.877839783173727, -0.912600847794078 ] ] } },
{ "type": "Feature", "properties": { "Id": 0, "Nama_Jalan": "Jl. Manunggal", "Armada": 1.0, "kelurahan": "Tatura Utara" }, "geometry": { "type": "LineString", "coordinates": [ [ 119.876358935779493, -0.914074413463995 ], [ 119.876867173641386, -0.914050096040167 ], [ 119.877769157377486, -0.913982905767472 ], [ 119.87783561059797, -0.913923083893233 ], [ 119.878478548491756, -0.913870088417726 ], [ 119.878528330122705, -0.914348193814651 ], [ 119.878617698007048, -0.915027566450851 ], [ 119.878660671702278, -0.915307246846592 ], [ 119.878696223506694, -0.91573644814814 ] ] } },
{ "type": "Feature", "properties": { "Id": 0, "Nama_Jalan": "Lrg. KBM", "Armada": 1.0, "kelurahan": "Tatura Utara" }, "geometry": { "type": "LineString", "coordinates": [ [ 119.881270124463299, -0.915494035675519 ], [ 119.881259724926593, -0.915085676040953 ], [ 119.881335663640812, -0.91441286542944 ] ] } },
{ "type": "Feature", "properties": { "Id": 0, "Nama_Jalan": "Jl. Purnawirawan II", "Armada": 1.0, "kelurahan": "Tatura Utara" }, "geometry": { "type": "LineString", "coordinates": [ [ 119.878334300109842, -0.916431434200458 ], [ 119.879133712065283, -0.916402098275644 ], [ 119.879482857249954, -0.916421897657003 ], [ 119.879615446850224, -0.916500684227767 ], [ 119.879715230108417, -0.916540767597303 ], [ 119.879954612200592, -0.916514753866962 ], [ 119.880456244139012, -0.916547339488694 ], [ 119.880483789028361, -0.916487075009041 ], [ 119.880536918957574, -0.916464752071766 ], [ 119.88076635672931, -0.916477476092909 ], [ 119.880851892041832, -0.916520439803707 ], [ 119.88089893015335, -0.916536180460556 ], [ 119.880983015208216, -0.916547587794083 ], [ 119.881235235920698, -0.916538776801133 ], [ 119.88129935583521, -0.916531552671532 ], [ 119.88133354011903, -0.916511442903436 ], [ 119.881316002974572, -0.915964938063478 ], [ 119.881314067311635, -0.915951297573791 ] ] } },
{ "type": "Feature", "properties": { "Id": 0, "Nama_Jalan": "Jl. Purnawirawan III", "Armada": 1.0, "kelurahan": "Tatura Utara" }, "geometry": { "type": "LineString", "coordinates": [ [ 119.878471885490598, -0.918042488221044 ], [ 119.879142203334254, -0.917998911484436 ], [ 119.879289445108029, -0.917986240740394 ] ] } },
{ "type": "Feature", "properties": { "Id": 0, "Nama_Jalan": "Jl. Kesadaran", "Armada": 1.0, "kelurahan": "Tatura Utara" }, "geometry": { "type": "LineString", "coordinates": [ [ 119.881863297432915, -0.914337829274259 ], [ 119.881994178212892, -0.914313357093425 ], [ 119.882113842637636, -0.914267358494365 ], [ 119.882166539480053, -0.914231455077621 ], [ 119.88220354172455, -0.9141711790086 ], [ 119.88220352569931, -0.914151096972205 ], [ 119.882304701571044, -0.914151015163675 ], [ 119.882316279117489, -0.914373342754578 ], [ 119.882326280538294, -0.91440632660003 ], [ 119.882360496863271, -0.914426380971443 ], [ 119.882403258680839, -0.914440690701645 ], [ 119.882424659056269, -0.914472230891193 ], [ 119.882440381142615, -0.914531029876888 ], [ 119.882496228470742, -0.914871423159479 ], [ 119.882534509924582, -0.91522330608166 ], [ 119.882534811034446, -0.915600083222352 ], [ 119.882495216501724, -0.91598263041523 ], [ 119.882461539434985, -0.916636758582425 ], [ 119.882537122549607, -0.917301795440154 ], [ 119.882576632941991, -0.918000809712815 ], [ 119.882457668574318, -0.91891977938808 ], [ 119.882455936691329, -0.91896867825318 ] ] } },
{ "type": "Feature", "properties": { "Id": 0, "Nama_Jalan": "Lrg. Kesadaran I", "Armada": 1.0, "kelurahan": "Tatura Utara" }, "geometry": { "type": "LineString", "coordinates": [ [ 119.880913473250075, -0.917657784302438 ], [ 119.880914537363111, -0.917607482630403 ], [ 119.880932759634874, -0.91755675261785 ], [ 119.881025787133225, -0.917464873402849 ], [ 119.881369470261333, -0.917189183442272 ], [ 119.881678985102738, -0.91695368543805 ], [ 119.881735490189143, -0.91692805890201 ], [ 119.881812660270398, -0.916905284475925 ], [ 119.881932586499332, -0.916889647542555 ], [ 119.882484764564325, -0.91684111105982 ] ] } },
{ "type": "Feature", "properties": { "Id": 0, "Nama_Jalan": "Lrg. Cendana", "Armada": 1.0, "kelurahan": "Tatura Utara" }, "geometry": { "type": "LineString", "coordinates": [ [ 119.880913473250075, -0.917657784302438 ], [ 119.880923312854208, -0.917703695102324 ], [ 119.881048241029248, -0.918002434060815 ], [ 119.881104841202273, -0.918176893954908 ], [ 119.881159042937341, -0.918425933334921 ], [ 119.881178085294721, -0.91847851376174 ], [ 119.881200682528245, -0.91852152841066 ], [ 119.881223269223881, -0.918551394094275 ], [ 119.881314372603867, -0.918725842806461 ], [ 119.881360076602476, -0.918854904660453 ], [ 119.881367322822371, -0.918943120587647 ] ] } },
{ "type": "Feature", "properties": { "Id": 0, "Nama_Jalan": "Lrg. Kesadaran II", "Armada": 1.0, "kelurahan": "Tatura Utara" }, "geometry": { "type": "LineString", "coordinates": [ [ 119.882499225455334, -0.915943897389682 ], [ 119.882265957263243, -0.91592661930645 ], [ 119.882167154830995, -0.915924786773766 ], [ 119.88211396122216, -0.915933436459824 ], [ 119.882050322865467, -0.915948788624543 ], [ 119.881988582228985, -0.915961270387771 ], [ 119.881903086013338, -0.915967077377388 ], [ 119.881623784874108, -0.915969216201017 ], [ 119.881314067311635, -0.915951297573791 ] ] } },
{ "type": "Feature", "properties": { "Id": 0, "Nama_Jalan": "Lrg. Sensasi", "Armada": 1.0, "kelurahan": "Tatura Utara" }, "geometry": { "type": "LineString", "coordinates": [ [ 119.878277468768474, -0.911527871446625 ], [ 119.878266593048551, -0.911888880206426 ], [ 119.878410309752226, -0.911923430004354 ], [ 119.878435276996257, -0.911960466178583 ], [ 119.878480608388983, -0.91251794743996 ], [ 119.878507271079442, -0.912596341825534 ], [ 119.878513532889698, -0.912705353972893 ], [ 119.878410984205999, -0.912771420749127 ], [ 119.878383455191738, -0.912798219101409 ], [ 119.878374475745318, -0.912855603819706 ], [ 119.878378884364096, -0.913023429387968 ], [ 119.878430606388633, -0.913552694883644 ], [ 119.878450299207429, -0.913872416924792 ] ] } },
{ "type": "Feature", "properties": { "Id": 0, "Nama_Jalan": "Kompleks Perumahan Pajak", "Armada": 1.0, "kelurahan": "Tatura Utara" }, "geometry": { "type": "LineString", "coordinates": [ [ 119.888750957607428, -0.913713803544751 ], [ 119.889461605211849, -0.913770604753476 ] ] } },
{ "type": "Feature", "properties": { "Id": 0, "Nama_Jalan": "Kompleks PU", "Armada": 1.0, "kelurahan": "Tatura Utara" }, "geometry": { "type": "LineString", "coordinates": [ [ 119.889468894496332, -0.914272885921806 ], [ 119.889853681648816, -0.914317997324411 ], [ 119.889884579666472, -0.914346660717052 ], [ 119.889832723790704, -0.91483918779137 ], [ 119.88983332399313, -0.914995539346052 ] ] } },
{ "type": "Feature", "properties": { "Id": 0, "Nama_Jalan": "Jl. Batu Bata Indah I", "Armada": 1.0, "kelurahan": "Tatura Utara" }, "geometry": { "type": "LineString", "coordinates": [ [ 119.886201160525843, -0.914479802726336 ], [ 119.887243909523818, -0.91432596977072 ], [ 119.887627677443163, -0.914283582373638 ], [ 119.887992417628226, -0.914206784187643 ], [ 119.888026740182809, -0.914226212755375 ], [ 119.888042440473654, -0.914257757376935 ], [ 119.888052652997374, -0.914554675007792 ], [ 119.888072751109036, -0.914739699495482 ], [ 119.888157770609197, -0.915325832057395 ], [ 119.888207346916587, -0.915545736921438 ], [ 119.888294961715886, -0.915813425034434 ], [ 119.888342555363636, -0.91593005290896 ], [ 119.888384430611751, -0.91602373462841 ], [ 119.888481539436825, -0.916283764684186 ] ] } },
{ "type": "Feature", "properties": { "Id": 0, "Nama_Jalan": "Jl. Pue Panda", "Armada": 1.0, "kelurahan": "Tatura Utara" }, "geometry": { "type": "LineString", "coordinates": [ [ 119.882491523019269, -0.914842743138048 ], [ 119.882785236437741, -0.914817297723648 ], [ 119.882976167388435, -0.914791323435039 ], [ 119.883196563816924, -0.914784451040617 ], [ 119.88323550572332, -0.914773900361643 ], [ 119.883276337712701, -0.914750916420143 ], [ 119.883816297388933, -0.914719878164147 ], [ 119.883972086305164, -0.914704451461492 ], [ 119.884133561486379, -0.914671806997075 ], [ 119.88426036674953, -0.914645884606855 ], [ 119.884428961242904, -0.914624688897476 ], [ 119.88452727086333, -0.914604527295887 ], [ 119.884743831037355, -0.914552712519128 ], [ 119.884846409924563, -0.914525375320356 ], [ 119.884923346662163, -0.914508099884999 ], [ 119.885015965369519, -0.91449941832452 ], [ 119.885117272836226, -0.91451571268911 ], [ 119.885464985632211, -0.914528819121652 ], [ 119.88560747576058, -0.91451531573571 ], [ 119.886197223991047, -0.914426240027917 ] ] } },
{ "type": "Feature", "properties": { "Id": 0, "Nama_Jalan": "Lrg. Aroma", "Armada": 1.0, "kelurahan": "Tatura Utara" }, "geometry": { "type": "LineString", "coordinates": [ [ 119.888283704300804, -0.913253059727427 ], [ 119.888307218948924, -0.912945889255397 ], [ 119.888271086427437, -0.912607872477306 ], [ 119.888185865761741, -0.912511894736973 ] ] } },
{ "type": "Feature", "properties": { "Id": 0, "Nama_Jalan": "Lrg Hati-hati", "Armada": 1.0, "kelurahan": "Tatura Utara" }, "geometry": { "type": "LineString", "coordinates": [ [ 119.886987130348714, -0.91203585370089 ], [ 119.887444579633495, -0.912007994821278 ], [ 119.887629803939205, -0.911974853349691 ], [ 119.88805014247022, -0.911927177609481 ], [ 119.888098605194429, -0.911942917110693 ], [ 119.888185865761741, -0.912511894736973 ] ] } },
{ "type": "Feature", "properties": { "Id": 0, "Nama_Jalan": "Lrg. Angsana", "Armada": 1.0, "kelurahan": "Tatura Utara" }, "geometry": { "type": "LineString", "coordinates": [ [ 119.884136121542909, -0.916091340398822 ], [ 119.884134458405541, -0.916387312394779 ], [ 119.884167864258288, -0.916581650508877 ], [ 119.884183422667036, -0.91673249206306 ], [ 119.884166962200055, -0.916938106993285 ], [ 119.884158681231909, -0.916977560527896 ], [ 119.88414207333814, -0.91699909045132 ], [ 119.884108838400252, -0.917018243154379 ], [ 119.884036420442385, -0.91704340445128 ], [ 119.884018621207602, -0.917060153911795 ], [ 119.884009146028504, -0.917091240914333 ], [ 119.884064142700765, -0.9175545170726 ], [ 119.884079488459179, -0.917736199038162 ], [ 119.884138698702145, -0.918122490653505 ], [ 119.884152152211371, -0.918313737000637 ], [ 119.884149033000099, -0.919027047999978 ] ] } },
{ "type": "Feature", "properties": { "Id": 0, "Nama_Jalan": "Lrg. Novangga", "Armada": 1.0, "kelurahan": "Tatura Utara" }, "geometry": { "type": "LineString", "coordinates": [ [ 119.882463742811439, -0.916656145591311 ], [ 119.882837178941159, -0.916630305103704 ], [ 119.883005307445103, -0.916601480137379 ], [ 119.883464082089205, -0.916502132358619 ], [ 119.883491173384414, -0.91652219241382 ], [ 119.883542755153286, -0.91687358602266 ], [ 119.883564209586538, -0.916972544309864 ], [ 119.883651290397836, -0.917166121730315 ], [ 119.883694306218914, -0.917497440189379 ], [ 119.883715707833062, -0.917530414706024 ], [ 119.883754190047213, -0.917538990039748 ], [ 119.884059015918695, -0.917511330606936 ] ] } },
{ "type": "Feature", "properties": { "Id": 0, "Nama_Jalan": "Lrg. Melati", "Armada": 1.0, "kelurahan": "Tatura Utara" }, "geometry": { "type": "LineString", "coordinates": [ [ 119.878068938856984, -0.917204237933915 ], [ 119.877845710742932, -0.917235498244676 ], [ 119.877831391749453, -0.917149443586839 ], [ 119.877800480026991, -0.917104044765491 ], [ 119.877411948458374, -0.917134004483879 ], [ 119.877383453417082, -0.917140721605353 ], [ 119.877331335506767, -0.917306919576564 ], [ 119.877338533230883, -0.917397761501778 ], [ 119.87733978860139, -0.917482631413952 ], [ 119.877302975589743, -0.917482661237352 ], [ 119.87730783652826, -0.917621319666277 ], [ 119.877411157156104, -0.917629603505005 ], [ 119.877591655819728, -0.91762467578496 ] ] } },
{ "type": "Feature", "properties": { "Id": 0, "Nama_Jalan": "Lrg. Cendana I", "Armada": 1.0, "kelurahan": "Tatura Utara" }, "geometry": { "type": "LineString", "coordinates": [ [ 119.881106108376017, -0.918182716210343 ], [ 119.880755426622031, -0.918189683292002 ], [ 119.880495353555389, -0.918180331495497 ], [ 119.880342151868874, -0.918164916131057 ], [ 119.88022340242135, -0.918167403228859 ], [ 119.880170001643293, -0.91821406569223 ], [ 119.880140435402311, -0.918365900691744 ], [ 119.880092936762878, -0.918368329970996 ], [ 119.880074122274763, -0.918919480791311 ] ] } },
{ "type": "Feature", "properties": { "Id": 0, "Nama_Jalan": "Jl. Purnawirawan IV", "Armada": 1.0, "kelurahan": "Tatura Utara" }, "geometry": { "type": "LineString", "coordinates": [ [ 119.880456244139012, -0.916547339488677 ], [ 119.880479381605127, -0.916560643050968 ], [ 119.880496770887902, -0.91692210639131 ], [ 119.880501478527961, -0.917165956395659 ], [ 119.8805445092962, -0.917516162520302 ], [ 119.880575565503094, -0.917742060708124 ], [ 119.8803654081904, -0.917782873506203 ], [ 119.879950992728297, -0.917816679827351 ], [ 119.879830543890407, -0.91777314679598 ], [ 119.879736497373003, -0.917778960816328 ], [ 119.879601139131651, -0.917802021565388 ], [ 119.879471441905451, -0.917776306915202 ], [ 119.879310456278958, -0.917828077157192 ], [ 119.879297660972995, -0.91786538286383 ], [ 119.879289445108029, -0.917986240740394 ] ] } },
{ "type": "Feature", "properties": { "Id": 0, "Nama_Jalan": "Lrg. Patrako", "Armada": 1.0, "kelurahan": "Tatura Utara" }, "geometry": { "type": "LineString", "coordinates": [ [ 119.876219471456281, -0.913399956364332 ], [ 119.876617814415539, -0.913377949967162 ], [ 119.876674784737972, -0.913339652321428 ], [ 119.877071903658077, -0.913356545368148 ], [ 119.877086963829598, -0.913180575423685 ], [ 119.87713632946371, -0.91313654617337 ], [ 119.877812772970486, -0.913179990152641 ] ] } },
{ "type": "Feature", "properties": { "Id": 0, "Nama_Jalan": "Lrg Metro", "Armada": 1.0, "kelurahan": "Tatura Utara" }, "geometry": { "type": "LineString", "coordinates": [ [ 119.878905261309484, -0.912103640319903 ], [ 119.879363593725543, -0.912043502798887 ], [ 119.879369421576314, -0.912204154900536 ], [ 119.879641125953071, -0.912205848464157 ], [ 119.879703817473029, -0.91219432244425 ], [ 119.87973609954696, -0.91217134545673 ], [ 119.879986889927636, -0.912155842641455 ] ] } },
{ "type": "Feature", "properties": { "Id": 0, "Nama_Jalan": "Lrg Batu Bata Indah", "Armada": 1.0, "kelurahan": "Tatura Utara" }, "geometry": { "type": "LineString", "coordinates": [ [ 119.886280311268365, -0.915991943617282 ], [ 119.886798046414654, -0.915969528985088 ] ] } },
{ "type": "Feature", "properties": { "Id": 0, "Nama_Jalan": "Lrg. Mawar", "Armada": 2.0, "kelurahan": "Tatura Utara" }, "geometry": { "type": "LineString", "coordinates": [ [ 119.878212166782077, -0.918003474161506 ], [ 119.877445109773987, -0.918102115978565 ] ] } },
{ "type": "Feature", "properties": { "Id": 0, "Nama_Jalan": "Jl. Tj. Angin Lrg. II", "Armada": 2.0, "kelurahan": "Tatura Utara" }, "geometry": { "type": "LineString", "coordinates": [ [ 119.888123204932072, -0.909825080019929 ], [ 119.888110848095266, -0.910413204078019 ], [ 119.888757106599058, -0.91034797363272 ] ] } },
{ "type": "Feature", "properties": { "Id": 0, "Nama_Jalan": "Jl. Tj. Angin Lrg. IV", "Armada": 2.0, "kelurahan": "Tatura Utara" }, "geometry": { "type": "LineString", "coordinates": [ [ 119.887314757408831, -0.909831469558481 ], [ 119.887316838516469, -0.910059063413838 ], [ 119.887282661244157, -0.910087779486809 ], [ 119.887305709457806, -0.910399509406832 ], [ 119.887339967426115, -0.910472159335224 ] ] } },
{ "type": "Feature", "properties": { "Id": 0, "Nama_Jalan": "Perumahan Metro Regency", "Armada": 1.0, "kelurahan": "Tatura Utara" }, "geometry": { "type": "MultiLineString", "coordinates": [ [ [ 119.879582413975555, -0.915676014828883 ], [ 119.879585831958153, -0.915069307688021 ] ], [ [ 119.879585831958153, -0.915069307688021 ], [ 119.87965123844144, -0.915059786211113 ], [ 119.880161394024341, -0.915059373637907 ] ], [ [ 119.879585831958153, -0.915069307688021 ], [ 119.879586518364022, -0.914947474439478 ], [ 119.879584247733845, -0.914602814732883 ] ], [ [ 119.879067693804259, -0.914613072602567 ], [ 119.878938541112475, -0.914674379579739 ], [ 119.878942658497323, -0.91507219323186 ], [ 119.879543068474689, -0.91507553293479 ], [ 119.879585831958153, -0.915069307688021 ] ], [ [ 119.879584247733845, -0.914602814732883 ], [ 119.879067693804259, -0.914613072602567 ] ], [ [ 119.879584247733845, -0.914602814732883 ], [ 119.879581320832216, -0.914158516059699 ] ], [ [ 119.879057364047114, -0.914168286228321 ], [ 119.879067693804259, -0.914613072602567 ] ], [ [ 119.879057364047114, -0.914168286228321 ], [ 119.879581320832216, -0.914158516059699 ] ], [ [ 119.879581320832216, -0.914158516059699 ], [ 119.880102687223101, -0.914148794121752 ] ], [ [ 119.879581320832216, -0.914158516059699 ], [ 119.879578395796372, -0.913714474395144 ] ], [ [ 119.880102687223101, -0.914148794121752 ], [ 119.880103041127725, -0.914592512320454 ], [ 119.879584247733845, -0.914602814732883 ] ], [ [ 119.879578395796372, -0.913714474395144 ], [ 119.88009801682972, -0.91370252930153 ], [ 119.880102687223101, -0.914148794121752 ] ], [ [ 119.879578395796372, -0.913714474395144 ], [ 119.879577061114574, -0.913511851299212 ], [ 119.879566153543152, -0.913235731281699 ], [ 119.879048418805695, -0.913262447058255 ] ], [ [ 119.87904538075874, -0.913287313068693 ], [ 119.879057364047114, -0.914168286228321 ] ] ] } },
{ "type": "Feature", "properties": { "Id": 0, "Nama_Jalan": "Lrg. Dayo Tua", "Armada": 1.0, "kelurahan": "Tatura Utara" }, "geometry": { "type": "LineString", "coordinates": [ [ 119.88379519073699, -0.914721091429484 ], [ 119.88386568264302, -0.915221215626127 ], [ 119.883881300878713, -0.915447125694226 ], [ 119.883908642258447, -0.915482964290741 ], [ 119.884331359988764, -0.915438393531535 ], [ 119.884469101403496, -0.915426328340188 ], [ 119.88459138320701, -0.915386782450575 ], [ 119.884713683159291, -0.915369948341563 ], [ 119.885062812383396, -0.915372056122644 ] ] } },
{ "type": "Feature", "properties": { "Id": 0, "Nama_Jalan": "Lrg. BBI II", "Armada": 1.0, "kelurahan": "Tatura Utara" }, "geometry": { "type": "LineString", "coordinates": [ [ 119.886815783582819, -0.916320112269256 ], [ 119.887562122311465, -0.916245831292354 ], [ 119.887761572615389, -0.916182554646966 ], [ 119.887772922092239, -0.916119430731517 ], [ 119.887694704619491, -0.915723592902107 ], [ 119.887789680509599, -0.91569291476142 ] ] } },
{ "type": "Feature", "properties": { "Id": 0, "Nama_Jalan": "Lrg. Pue Panda I", "Armada": 1.0, "kelurahan": "Tatura Utara" }, "geometry": { "type": "LineString", "coordinates": [ [ 119.882851334163547, -0.914808305775155 ], [ 119.882881918159541, -0.91500388842235 ], [ 119.882903697410839, -0.915509507789735 ], [ 119.882852723347241, -0.915620717499261 ], [ 119.882852941261319, -0.915893259262397 ] ] } },
{ "type": "Feature", "properties": { "Id": 0, "Nama_Jalan": "Jl. Darussalam", "Armada": 2.0, "kelurahan": "Tatura Utara" }, "geometry": { "type": "LineString", "coordinates": [ [ 119.881872928924253, -0.909987409498087 ], [ 119.881639682579163, -0.909980976216039 ], [ 119.881194075390866, -0.909913916406807 ], [ 119.881045852500165, -0.909886781416005 ], [ 119.880832101800166, -0.909888387799305 ], [ 119.880752310213239, -0.909899927455283 ], [ 119.880592711079515, -0.909902924701367 ], [ 119.880289128684126, -0.909834316018679 ], [ 119.880048287791411, -0.90981729647927 ], [ 119.879141470170566, -0.90977547062779 ], [ 119.879090413788603, -0.909783879212203 ], [ 119.879071445836885, -0.9098245368151 ], [ 119.879059665553726, -0.909944082626879 ], [ 119.878190511958024, -0.910028098184086 ], [ 119.877402815056811, -0.910104397859693 ], [ 119.877088863993521, -0.91013955482282 ], [ 119.876357862913849, -0.910181740916211 ], [ 119.876099948248068, -0.910199161398414 ] ] } },
{ "type": "Feature", "properties": { "Id": 0, "Nama_Jalan": "Lrg. LDII", "Armada": 2.0, "kelurahan": "Tatura Utara" }, "geometry": { "type": "LineString", "coordinates": [ [ 119.878190511958024, -0.910028098184086 ], [ 119.878202770285085, -0.910511015517719 ] ] } },
{ "type": "Feature", "properties": { "Id": 0, "Nama_Jalan": "Lrg. II", "Armada": 2.0, "kelurahan": "Tatura Utara" }, "geometry": { "type": "LineString", "coordinates": [ [ 119.877999393962867, -0.910046610698148 ], [ 119.877974602450166, -0.909704088854098 ], [ 119.877945934953473, -0.909493249571763 ] ] } },
{ "type": "Feature", "properties": { "Id": 0, "Nama_Jalan": "Lrg. I", "Armada": 2.0, "kelurahan": "Tatura Utara" }, "geometry": { "type": "LineString", "coordinates": [ [ 119.877162269984254, -0.910131334652567 ], [ 119.877109862381161, -0.90956432808009 ] ] } },
{ "type": "Feature", "properties": { "Id": 0, "Nama_Jalan": "Lrg. Padaidi", "Armada": 2.0, "kelurahan": "Tatura Utara" }, "geometry": { "type": "LineString", "coordinates": [ [ 119.877386026834969, -0.910106277843921 ], [ 119.877405382683079, -0.910579472736573 ] ] } },
{ "type": "Feature", "properties": { "Id": 0, "Nama_Jalan": "Jl. Manimbaya IV Lrg. Gereja", "Armada": 2.0, "kelurahan": "Tatura Utara" }, "geometry": { "type": "LineString", "coordinates": [ [ 119.881759554555771, -0.909251034417114 ], [ 119.882371598533553, -0.909180486255571 ], [ 119.882791918388179, -0.909106992203007 ], [ 119.882978585523546, -0.909095366618659 ], [ 119.882991713546005, -0.909476914738565 ], [ 119.882970734917393, -0.909976113658431 ] ] } },
{ "type": "Feature", "properties": { "Id": 0, "Nama_Jalan": "Jl. Tj Satu Lrg. Karoya", "Armada": 2.0, "kelurahan": "Tatura Utara" }, "geometry": { "type": "LineString", "coordinates": [ [ 119.887207794900348, -0.908378694315465 ], [ 119.887161543352136, -0.907558239961903 ], [ 119.887153431906341, -0.907512344857255 ], [ 119.887130860813841, -0.90750160481189 ], [ 119.887095232879844, -0.907498047393865 ], [ 119.886932577211184, -0.907538820246445 ], [ 119.886863771270427, -0.907626136496526 ], [ 119.886842405697664, -0.907638107228408 ], [ 119.88630569676971, -0.907692329765112 ], [ 119.886134700943344, -0.907698444020962 ], [ 119.886109757667754, -0.907691291938277 ], [ 119.886090747170144, -0.907678158305534 ], [ 119.886081226273177, -0.907651868127392 ], [ 119.886025065621666, -0.907213217596592 ], [ 119.886020032244062, -0.906855810173653 ], [ 119.886011358121706, -0.906499441645266 ], [ 119.885981366563797, -0.906115756408888 ] ] } },
{ "type": "Feature", "properties": { "Id": 0, "Nama_Jalan": "Lrg. Karoya II", "Armada": 2.0, "kelurahan": "Tatura Utara" }, "geometry": { "type": "LineString", "coordinates": [ [ 119.88696751981432, -0.907530061193716 ], [ 119.886939940201259, -0.907040430938716 ], [ 119.886875717213258, -0.906917121893757 ], [ 119.88685999554076, -0.906858323050297 ], [ 119.886847113643412, -0.906786612087559 ], [ 119.886811050849872, -0.906234386936003 ], [ 119.886783808733426, -0.906023548136868 ] ] } },
{ "type": "Feature", "properties": { "Id": 0, "Nama_Jalan": "Lrg. Pratama (Jl. Tj Manimbaya V Lrg. I )", "Armada": 2.0, "kelurahan": "Tatura Utara" }, "geometry": { "type": "LineString", "coordinates": [ [ 119.881729739877898, -0.909165670842346 ], [ 119.881288562674328, -0.909217190823305 ], [ 119.881294429662532, -0.90942756965373 ] ] } },
{ "type": "Feature", "properties": { "Id": 0, "Nama_Jalan": "Lrg. Darul Hamzah", "Armada": 2.0, "kelurahan": "Tatura Utara" }, "geometry": { "type": "LineString", "coordinates": [ [ 119.882377406231598, -0.90746709181602 ], [ 119.882393421274557, -0.907170971603347 ], [ 119.882376257550405, -0.907090657188872 ], [ 119.882314896963024, -0.906983124022497 ], [ 119.882268869767032, -0.906443814494737 ] ] } },
{ "type": "Feature", "properties": { "Id": 0, "Nama_Jalan": "Lrg. Buntu", "Armada": 2.0, "kelurahan": "Tatura Utara" }, "geometry": { "type": "LineString", "coordinates": [ [ 119.888480689453971, -0.908456917856972 ], [ 119.888481871678792, -0.908151384559329 ], [ 119.888455996036271, -0.907867389399305 ] ] } },
{ "type": "Feature", "properties": { "Id": 0, "Nama_Jalan": "Lrg. Panti Pijat (Lrg. V)", "Armada": 2.0, "kelurahan": "Tatura Utara" }, "geometry": { "type": "LineString", "coordinates": [ [ 119.885123769352106, -0.909100330914588 ], [ 119.885686156649783, -0.90908075249463 ], [ 119.885714684121439, -0.909115155792419 ], [ 119.885722159892723, -0.909556475349815 ], [ 119.885750685101186, -0.909588009780728 ], [ 119.886370553448117, -0.90957603499585 ], [ 119.887279218522451, -0.909559045960147 ] ] } },
{ "type": "Feature", "properties": { "Id": 0, "Nama_Jalan": "Jl. Gereja (Lrg. Gereja Batak)", "Armada": 2.0, "kelurahan": "Tatura Utara" }, "geometry": { "type": "LineString", "coordinates": [ [ 119.885185355476409, -0.908295327970612 ], [ 119.885204157265619, -0.908643878931764 ], [ 119.885189949343186, -0.908696964210984 ], [ 119.885143007280007, -0.908801715252052 ], [ 119.885131657349945, -0.908864839234869 ], [ 119.885117546277044, -0.909039850858341 ], [ 119.88511771720664, -0.909255014984712 ], [ 119.88512496533501, -0.909409927418561 ], [ 119.885136456584405, -0.909524672437991 ], [ 119.885165155111594, -0.909774239862365 ], [ 119.885181014946141, -0.910006604478255 ], [ 119.885185528212389, -0.910903118549635 ], [ 119.885192704629944, -0.910967662036083 ], [ 119.885218366180027, -0.910981985620643 ], [ 119.885352295161312, -0.91095462345605 ], [ 119.885423548940423, -0.910958869264785 ], [ 119.885504813165355, -0.911007574262088 ], [ 119.88554472592142, -0.911023320770532 ], [ 119.885600308041504, -0.911031882496953 ], [ 119.885705756257693, -0.911028928569009 ], [ 119.885841120463979, -0.911014475081877 ], [ 119.885902385463055, -0.911001515805462 ], [ 119.88588079224715, -0.91072755758467 ], [ 119.885909269537791, -0.910698846067504 ], [ 119.885959137906667, -0.910690199281841 ], [ 119.886398021472687, -0.910666894442708 ], [ 119.886410658127048, -0.910430203831138 ], [ 119.886392110221976, -0.910401530253063 ], [ 119.886366453271634, -0.910392944382261 ], [ 119.88633367928368, -0.910394405238095 ], [ 119.886282383645224, -0.910400184310182 ], [ 119.886252450533902, -0.910390167458924 ], [ 119.88623533105897, -0.910365796004541 ], [ 119.886228175210363, -0.910327072245347 ], [ 119.886219296514241, -0.909913964421999 ], [ 119.886214663741626, -0.909579046524983 ] ] } },
{ "type": "Feature", "properties": { "Id": 0, "Nama_Jalan": "Lrg. Panti Asuhan Az Zahra", "Armada": 2.0, "kelurahan": "Tatura Utara" }, "geometry": { "type": "LineString", "coordinates": [ [ 119.88163348920834, -0.908288901692061 ], [ 119.881607017287934, -0.907851420924105 ], [ 119.881588861887977, -0.90741871490424 ], [ 119.8816439465771, -0.907398827714017 ], [ 119.882377406231598, -0.90746709181602 ] ] } },
{ "type": "Feature", "properties": { "Id": 0, "Nama_Jalan": "Lrg. Pramuka", "Armada": 2.0, "kelurahan": "Tatura Utara" }, "geometry": { "type": "LineString", "coordinates": [ [ 119.882944669212222, -0.906405037806117 ], [ 119.88299535477816, -0.907428224701703 ], [ 119.882959756079416, -0.90746172334234 ], [ 119.882748387336747, -0.907471455911818 ], [ 119.882650990880663, -0.907445236189209 ], [ 119.882378839221929, -0.907440595583935 ] ] } }
]
}
