{
"type": "FeatureCollection",
"name": "Tatura Selatan",
"crs": { "type": "name", "properties": { "name": "urn:ogc:def:crs:OGC:1.3:CRS84" } },
"features": [
{ "type": "Feature", "properties": { "Id": 0, "Nama_Jalan": "Lrg. Kancil I", "Armada": 2.0, "kelurahan": "Tatura Selatan" }, "geometry": { "type": "LineString", "coordinates": [ [ 119.874212470812665, -0.914124221843321 ], [ 119.874304464570486, -0.914331477593828 ], [ 119.87440304234309, -0.914646975323223 ], [ 119.874495174475697, -0.914920879383232 ], [ 119.874522558075611, -0.915307678426052 ], [ 119.874267972320069, -0.915330835050007 ], [ 119.874277666041493, -0.915573726090141 ] ] } },
{ "type": "Feature", "properties": { "Id": 0, "Nama_Jalan": "Lrg. Kancil II", "Armada": 2.0, "kelurahan": "Tatura Selatan" }, "geometry": { "type": "LineString", "coordinates": [ [ 119.87367436559623, -0.914178069495097 ], [ 119.873685569640543, -0.915127972941272 ], [ 119.873767980624834, -0.915422445347842 ], [ 119.873856901730889, -0.916434851000071 ], [ 119.873893264019443, -0.916762830819725 ], [ 119.873570305877905, -0.916822382237755 ] ] } },
{ "type": "Feature", "properties": { "Id": 0, "Nama_Jalan": "Lrg. Kancil III", "Armada": 2.0, "kelurahan": "Tatura Selatan" }, "geometry": { "type": "LineString", "coordinates": [ [ 119.873424273813342, -0.914178406600399 ], [ 119.873411471062994, -0.914955164422872 ], [ 119.873440169540757, -0.915203778087812 ], [ 119.873480135712384, -0.91528598724021 ], [ 119.873497860891504, -0.916070135167609 ], [ 119.873529302714104, -0.916780159086289 ], [ 119.873570305877905, -0.916822382237755 ], [ 119.873569779506639, -0.916906835495638 ], [ 119.87283602108127, -0.917069520877468 ], [ 119.872414227251809, -0.91708707520762 ], [ 119.872361046593596, -0.917087763698354 ] ] } },
{ "type": "Feature", "properties": { "Id": 0, "Nama_Jalan": "Lrg. Sejati", "Armada": 2.0, "kelurahan": "Tatura Selatan" }, "geometry": { "type": "LineString", "coordinates": [ [ 119.870487360709376, -0.91067591347359 ], [ 119.870483654352611, -0.911094177269607 ], [ 119.870480882040297, -0.911342219279706 ], [ 119.870541082523999, -0.911593372212446 ] ] } },
{ "type": "Feature", "properties": { "Id": 0, "Nama_Jalan": "Lrg. Kasih", "Armada": 2.0, "kelurahan": "Tatura Selatan" }, "geometry": { "type": "LineString", "coordinates": [ [ 119.870737724116267, -0.911544711717286 ], [ 119.870771781967505, -0.911707482723483 ], [ 119.870775770055246, -0.911944641353814 ], [ 119.870739880218579, -0.912210520961008 ], [ 119.870658371391855, -0.912453486107668 ], [ 119.870588167206293, -0.912575948666334 ] ] } },
{ "type": "Feature", "properties": { "Id": 0, "Nama_Jalan": "Lrg. Sehati", "Armada": 2.0, "kelurahan": "Tatura Selatan" }, "geometry": { "type": "LineString", "coordinates": [ [ 119.871361559354042, -0.913079897310728 ], [ 119.871622209665574, -0.913108970037136 ], [ 119.872054484331059, -0.913130138846059 ], [ 119.872090030729524, -0.91315366454178 ] ] } },
{ "type": "Feature", "properties": { "Id": 0, "Nama_Jalan": "Jl. I Gusti Ngurah Rai", "Armada": 1.0, "kelurahan": "Tatura Selatan" }, "geometry": { "type": "LineString", "coordinates": [ [ 119.873946953266923, -0.919281178388452 ], [ 119.873768815593365, -0.919269369122394 ], [ 119.873666629505507, -0.919195339081804 ], [ 119.873614319297602, -0.919121268599299 ], [ 119.873511504373042, -0.918260686087478 ], [ 119.873314362537712, -0.91824411054415 ], [ 119.873091053181241, -0.918174959903569 ], [ 119.872746377930596, -0.917807064946424 ], [ 119.872596658597345, -0.917692430546331 ], [ 119.872487295916272, -0.917553856060945 ], [ 119.872375436102445, -0.917262276149393 ], [ 119.872361046593596, -0.917087763698354 ] ] } },
{ "type": "Feature", "properties": { "Id": 0, "Nama_Jalan": "Lrg. Honda Jaya", "Armada": 1.0, "kelurahan": "Tatura Selatan" }, "geometry": { "type": "LineString", "coordinates": [ [ 119.875186474445371, -0.919017670515772 ], [ 119.875223238082398, -0.919845791253956 ], [ 119.875246439716008, -0.919901954690409 ], [ 119.875315327334818, -0.919916243182804 ], [ 119.875740388335402, -0.91982744098122 ], [ 119.875894758125199, -0.91981775273377 ], [ 119.875873654818463, -0.920157254017202 ], [ 119.875883302426303, -0.920341213120893 ], [ 119.875923518966687, -0.920735173311648 ], [ 119.875959779084042, -0.920934052854704 ], [ 119.87602291438354, -0.921143854901848 ] ] } },
{ "type": "Feature", "properties": { "Id": 0, "Nama_Jalan": "Lrg. Bone", "Armada": 1.0, "kelurahan": "Tatura Selatan" }, "geometry": { "type": "LineString", "coordinates": [ [ 119.87602291438354, -0.921143854901848 ], [ 119.876390845626645, -0.921042786386936 ], [ 119.87668298553838, -0.921055458813344 ], [ 119.876996378681724, -0.920916063428727 ], [ 119.877242838322729, -0.920829796730599 ], [ 119.877308977116485, -0.920970317904022 ], [ 119.877920611051778, -0.920751785968848 ] ] } },
{ "type": "Feature", "properties": { "Id": 0, "Nama_Jalan": "Jl. Lembu", "Armada": 1.0, "kelurahan": "Tatura Selatan" }, "geometry": { "type": "LineString", "coordinates": [ [ 119.87880876675203, -0.922190971651958 ], [ 119.877638967861898, -0.922369794795929 ], [ 119.877549222647247, -0.922408597719949 ], [ 119.877409638568366, -0.922493343263763 ], [ 119.877288550926124, -0.922542212798527 ], [ 119.876995064420129, -0.922627083737131 ], [ 119.876570496494253, -0.922737881373261 ], [ 119.876453665371656, -0.92276379644495 ], [ 119.876429421530815, -0.922740865162898 ] ] } },
{ "type": "Feature", "properties": { "Id": 0, "Nama_Jalan": "Jl. Towua I", "Armada": 1.0, "kelurahan": "Tatura Selatan" }, "geometry": { "type": "LineString", "coordinates": [ [ 119.87962452880717, -0.923131215926344 ], [ 119.880139845164408, -0.923049510877779 ], [ 119.880902143147225, -0.922941306351231 ], [ 119.881348617723319, -0.922902690464806 ], [ 119.882407837404656, -0.922849230088458 ], [ 119.882939814181682, -0.922812935011648 ], [ 119.883120291004289, -0.922781708324453 ], [ 119.883322122205712, -0.922724644451304 ], [ 119.883447504965645, -0.922701591191491 ], [ 119.883859771995574, -0.922655352802979 ], [ 119.8843385610556, -0.922635836089731 ] ] } },
{ "type": "Feature", "properties": { "Id": 0, "Nama_Jalan": "Jl. Towua I Lrg II", "Armada": 1.0, "kelurahan": "Tatura Selatan" }, "geometry": { "type": "LineString", "coordinates": [ [ 119.8816485012984, -0.922887554926762 ], [ 119.881654057487225, -0.923505859232873 ] ] } },
{ "type": "Feature", "properties": { "Id": 0, "Nama_Jalan": "Jl. Towua II", "Armada": 1.0, "kelurahan": "Tatura Selatan" }, "geometry": { "type": "LineString", "coordinates": [ [ 119.880316859067747, -0.924762081164466 ], [ 119.883299446981638, -0.924204995393868 ], [ 119.883622407871272, -0.924152135497972 ], [ 119.883976156225046, -0.925460763357313 ], [ 119.88473603811444, -0.925304744426023 ] ] } },
{ "type": "Feature", "properties": { "Id": 0, "Nama_Jalan": "Jl. Towua II Lrg I", "Armada": 1.0, "kelurahan": "Tatura Selatan" }, "geometry": { "type": "LineString", "coordinates": [ [ 119.880907343993272, -0.924651790880037 ], [ 119.880850646183802, -0.924024106782602 ], [ 119.880888633169889, -0.924007340690637 ], [ 119.880870027928538, -0.923506078930608 ] ] } },
{ "type": "Feature", "properties": { "Id": 0, "Nama_Jalan": "Jl. Towua II Lrg II", "Armada": 1.0, "kelurahan": "Tatura Selatan" }, "geometry": { "type": "LineString", "coordinates": [ [ 119.881537152771116, -0.924534155667914 ], [ 119.881507367110331, -0.924275851129883 ], [ 119.881481422970339, -0.923911526364935 ], [ 119.881475402598511, -0.92351419335343 ], [ 119.881654057487225, -0.923505859232873 ] ] } },
{ "type": "Feature", "properties": { "Id": 0, "Nama_Jalan": "Jl. Towua II Lrg III", "Armada": 1.0, "kelurahan": "Tatura Selatan" }, "geometry": { "type": "LineString", "coordinates": [ [ 119.881842280822426, -0.9244771640599 ], [ 119.881930487183979, -0.925169156652028 ] ] } },
{ "type": "Feature", "properties": { "Id": 0, "Nama_Jalan": "Jl. Towua II Lrg IV", "Armada": 1.0, "kelurahan": "Tatura Selatan" }, "geometry": { "type": "LineString", "coordinates": [ [ 119.882390775827986, -0.924374716508018 ], [ 119.882498077369334, -0.92482323323122 ], [ 119.882667868623713, -0.924794405694925 ], [ 119.882742311583186, -0.925217980182778 ], [ 119.882910700774261, -0.925217603280072 ] ] } },
{ "type": "Feature", "properties": { "Id": 0, "Nama_Jalan": "Jl. Towua II Lrg V", "Armada": 1.0, "kelurahan": "Tatura Selatan" }, "geometry": { "type": "LineString", "coordinates": [ [ 119.882834619728797, -0.924291815594311 ], [ 119.882648409948217, -0.923637552633785 ], [ 119.882595591842986, -0.923522841266601 ], [ 119.882463088518193, -0.923551638148346 ] ] } },
{ "type": "Feature", "properties": { "Id": 0, "Nama_Jalan": "Jl. Towua II Lrg. VI", "Armada": 1.0, "kelurahan": "Tatura Selatan" }, "geometry": { "type": "LineString", "coordinates": [ [ 119.883299446981638, -0.924204995393868 ], [ 119.883318066019456, -0.925277037750268 ] ] } },
{ "type": "Feature", "properties": { "Id": 0, "Nama_Jalan": "Jl. Towua II Lrg. VIII", "Armada": 1.0, "kelurahan": "Tatura Selatan" }, "geometry": { "type": "LineString", "coordinates": [ [ 119.883346462640475, -0.924197300212816 ], [ 119.883248459963411, -0.923882270256515 ], [ 119.883208524058304, -0.92383831369243 ], [ 119.883047045499239, -0.923867134302906 ], [ 119.883008819873041, -0.92358792964372 ] ] } },
{ "type": "Feature", "properties": { "Id": 0, "Nama_Jalan": "Jl. Towua II Lrg. IX", "Armada": 1.0, "kelurahan": "Tatura Selatan" }, "geometry": { "type": "LineString", "coordinates": [ [ 119.883976156225046, -0.925460763357313 ], [ 119.883532784311953, -0.925551348164799 ] ] } },
{ "type": "Feature", "properties": { "Id": 0, "Nama_Jalan": "Lrg. Nusantara", "Armada": 1.0, "kelurahan": "Tatura Selatan" }, "geometry": { "type": "LineString", "coordinates": [ [ 119.878491601742738, -0.918948666986095 ], [ 119.878644282435658, -0.920271242907971 ], [ 119.878669447652925, -0.920429936210656 ], [ 119.878777929864171, -0.920655054515035 ], [ 119.878975251254602, -0.920600385445648 ], [ 119.8795024563249, -0.92053540700652 ], [ 119.88007837518019, -0.92047938468415 ] ] } },
{ "type": "Feature", "properties": { "Id": 0, "Nama_Jalan": "Lrg. Pahlawan", "Armada": 1.0, "kelurahan": "Tatura Selatan" }, "geometry": { "type": "LineString", "coordinates": [ [ 119.88007837518019, -0.92047938468415 ], [ 119.880065472623969, -0.920235063125601 ], [ 119.880102083362772, -0.919687079283939 ], [ 119.880126182082819, -0.919529271878353 ], [ 119.880180132557953, -0.919279636405323 ], [ 119.88020853940931, -0.918960146240455 ] ] } },
{ "type": "Feature", "properties": { "Id": 0, "Nama_Jalan": "Jl. Kancil", "Armada": 2.0, "kelurahan": "Tatura Selatan" }, "geometry": { "type": "LineString", "coordinates": [ [ 119.876190475640726, -0.913815773533916 ], [ 119.875858468817455, -0.913844730110462 ], [ 119.87552643335161, -0.91383782568213 ], [ 119.874895133059695, -0.913818252534522 ], [ 119.874624392653885, -0.913835684099881 ], [ 119.874601612848053, -0.913861522414904 ], [ 119.874608894328034, -0.914058035059802 ], [ 119.874248394556261, -0.914097055668092 ], [ 119.87416864124269, -0.914157366546143 ], [ 119.874084580894745, -0.91417751651717 ], [ 119.87320201695151, -0.914178706171596 ], [ 119.872990641461669, -0.914182701729603 ], [ 119.872711361833822, -0.914214484589134 ], [ 119.871986145147829, -0.914367120178194 ], [ 119.871731110084284, -0.914423269066043 ], [ 119.871344455231892, -0.914447505368472 ] ] } },
{ "type": "Feature", "properties": { "Id": 0, "Nama_Jalan": "Lrg. Pantura", "Armada": 1.0, "kelurahan": "Tatura Selatan" }, "geometry": { "type": "LineString", "coordinates": [ [ 119.876464475453858, -0.919018466559955 ], [ 119.876487712342652, -0.919563534645355 ], [ 119.876364222714059, -0.919578935571425 ], [ 119.876328149739095, -0.919613391400206 ], [ 119.876370286011607, -0.920032213516457 ] ] } },
{ "type": "Feature", "properties": { "Id": 0, "Nama_Jalan": "Jl. Anoa II", "Armada": 2.0, "kelurahan": "Tatura Selatan" }, "geometry": { "type": "LineString", "coordinates": [ [ 119.869367324819379, -0.911950474126663 ], [ 119.870580680849073, -0.911581324888917 ], [ 119.870981989187626, -0.911487763591656 ], [ 119.871086485361829, -0.91148050744208 ], [ 119.871689789494141, -0.911535009959976 ], [ 119.872224181154181, -0.911544143606037 ], [ 119.87290818671886, -0.911536421748879 ], [ 119.873965102952553, -0.911566651793972 ], [ 119.874891461558335, -0.911685443690947 ], [ 119.875029213539065, -0.911685332889725 ], [ 119.8755849182117, -0.911617945296632 ], [ 119.876048040020578, -0.911605619033752 ] ] } },
{ "type": "Feature", "properties": { "Id": 0, "Nama_Jalan": "Jl. Lembu Bawah", "Armada": 1.0, "kelurahan": "Tatura Selatan" }, "geometry": { "type": "LineString", "coordinates": [ [ 119.876429421530815, -0.922740865162898 ], [ 119.876327498558538, -0.922698871288102 ], [ 119.876156484241193, -0.922684666170292 ], [ 119.875871498751593, -0.922708805583513 ], [ 119.875479657509672, -0.922759330071019 ], [ 119.875354755739181, -0.922790989468047 ], [ 119.875261663363602, -0.922802540794857 ], [ 119.874986149371082, -0.922791289590177 ], [ 119.874807558535835, -0.922806735694734 ] ] } },
{ "type": "Feature", "properties": { "Id": 0, "Nama_Jalan": "Lrg. Mutiara", "Armada": 1.0, "kelurahan": "Tatura Selatan" }, "geometry": { "type": "LineString", "coordinates": [ [ 119.87829886631441, -0.923543822045919 ], [ 119.877886649468991, -0.923655088125761 ], [ 119.877318829333078, -0.9237190251658 ], [ 119.876706812592587, -0.923757417392606 ] ] } },
{ "type": "Feature", "properties": { "Id": 0, "Nama_Jalan": "Jl. Lembu I", "Armada": 1.0, "kelurahan": "Tatura Selatan" }, "geometry": { "type": "LineString", "coordinates": [ [ 119.878581758342335, -0.924901524600741 ], [ 119.878557560501378, -0.924346417386619 ], [ 119.878521001136761, -0.924071752610278 ], [ 119.878506727816145, -0.924043075527001 ], [ 119.878473468661028, -0.924032344399192 ], [ 119.878394386735536, -0.92404077649658 ], [ 119.878366830935789, -0.924034104949344 ], [ 119.87835351225138, -0.924011164829561 ], [ 119.87829886631441, -0.923543822045919 ], [ 119.878286035165047, -0.923388913316559 ], [ 119.878251700736783, -0.923222546622603 ], [ 119.878176043036603, -0.923059082483276 ], [ 119.878136057045566, -0.922952966730946 ], [ 119.878097475316494, -0.922821029955611 ], [ 119.877986000059991, -0.922316745196727 ] ] } },
{ "type": "Feature", "properties": { "Id": 0, "Nama_Jalan": "Lrg. Lembu II", "Armada": 1.0, "kelurahan": "Tatura Selatan" }, "geometry": { "type": "LineString", "coordinates": [ [ 119.8781202369818, -0.922898867344001 ], [ 119.877586058440855, -0.923027527666931 ] ] } },
{ "type": "Feature", "properties": { "Id": 0, "Nama_Jalan": "Lrg. Lembu III", "Armada": 1.0, "kelurahan": "Tatura Selatan" }, "geometry": { "type": "LineString", "coordinates": [ [ 119.875621775395985, -0.922741005220627 ], [ 119.875632772817013, -0.922863162472005 ], [ 119.87565000743443, -0.923030260736161 ] ] } },
{ "type": "Feature", "properties": { "Id": 0, "Nama_Jalan": "Jl. Towua I Lrg. I", "Armada": 1.0, "kelurahan": "Tatura Selatan" }, "geometry": { "type": "LineString", "coordinates": [ [ 119.882407837404656, -0.922849230088458 ], [ 119.882416196624746, -0.923241837055249 ], [ 119.882442312972159, -0.923525355066735 ] ] } },
{ "type": "Feature", "properties": { "Id": 0, "Nama_Jalan": "Jl. Towua I Lrg. III", "Armada": 1.0, "kelurahan": "Tatura Selatan" }, "geometry": { "type": "LineString", "coordinates": [ [ 119.880902143147225, -0.922941306351231 ], [ 119.880935349918218, -0.923222007735249 ], [ 119.880869871908104, -0.923312430504391 ], [ 119.880888489590617, -0.923427170003542 ], [ 119.880870027928538, -0.923506078930608 ] ] } },
{ "type": "Feature", "properties": { "Id": 0, "Nama_Jalan": "Jl. Towua II Lrg. VII", "Armada": 1.0, "kelurahan": "Tatura Selatan" }, "geometry": { "type": "LineString", "coordinates": [ [ 119.882860903678292, -0.9242869062922 ], [ 119.882902995790857, -0.924581520393464 ], [ 119.882930135937727, -0.924661826335292 ], [ 119.882950188076464, -0.924788039866702 ] ] } },
{ "type": "Feature", "properties": { "Id": 0, "Nama_Jalan": "Lrg. PU", "Armada": 1.0, "kelurahan": "Tatura Selatan" }, "geometry": { "type": "LineString", "coordinates": [ [ 119.883062040256704, -0.927688493127042 ], [ 119.883372965484497, -0.92701895063855 ], [ 119.883407136449719, -0.926982583703075 ], [ 119.88382148812147, -0.927163938268126 ] ] } },
{ "type": "Feature", "properties": { "Id": 0, "Nama_Jalan": "Lrg. BI", "Armada": 1.0, "kelurahan": "Tatura Selatan" }, "geometry": { "type": "LineString", "coordinates": [ [ 119.884325615994996, -0.928701327614439 ], [ 119.884995472793705, -0.928542456672151 ] ] } },
{ "type": "Feature", "properties": { "Id": 0, "Nama_Jalan": "Lrg. KSM", "Armada": 1.0, "kelurahan": "Tatura Selatan" }, "geometry": { "type": "LineString", "coordinates": [ [ 119.885053228291213, -0.927129975364405 ], [ 119.884726474632885, -0.927191445861481 ], [ 119.884403548798531, -0.927287339523188 ], [ 119.884335143439088, -0.927281657952761 ], [ 119.884304512318877, -0.926996709796379 ] ] } },
{ "type": "Feature", "properties": { "Id": 0, "Nama_Jalan": "Lrg. Tower", "Armada": 1.0, "kelurahan": "Tatura Selatan" }, "geometry": { "type": "LineString", "coordinates": [ [ 119.884837670105668, -0.926072739292405 ], [ 119.884589739736512, -0.926100196701308 ], [ 119.884266321840855, -0.926175052156094 ] ] } },
{ "type": "Feature", "properties": { "Id": 0, "Nama_Jalan": "Lrg. Sumber Rezeki", "Armada": 1.0, "kelurahan": "Tatura Selatan" }, "geometry": { "type": "LineString", "coordinates": [ [ 119.878906936994824, -0.922186449333395 ], [ 119.879894362906441, -0.922046026369101 ], [ 119.87990833819606, -0.921704141315738 ], [ 119.879900966172315, -0.921396939164968 ], [ 119.879486530052901, -0.921405644163794 ], [ 119.879456587668074, -0.921088897362483 ], [ 119.879517133671058, -0.921067331550495 ], [ 119.8795024563249, -0.92053540700652 ] ] } },
{ "type": "Feature", "properties": { "Id": 0, "Nama_Jalan": "Lrg. Tunas Mekar", "Armada": 1.0, "kelurahan": "Tatura Selatan" }, "geometry": { "type": "LineString", "coordinates": [ [ 119.881067067345853, -0.918966819634104 ], [ 119.881054154310405, -0.919331830220055 ], [ 119.88106763091713, -0.91955176573651 ], [ 119.881089049126189, -0.91960530050616 ], [ 119.881099125535627, -0.919731522457969 ], [ 119.880982296094643, -0.919758871698598 ] ] } },
{ "type": "Feature", "properties": { "Id": 0, "Nama_Jalan": "Lrg. Cantik", "Armada": 1.0, "kelurahan": "Tatura Selatan" }, "geometry": { "type": "LineString", "coordinates": [ [ 119.882858467491772, -0.919043237862174 ], [ 119.882880326290064, -0.919645681195389 ], [ 119.882866164462754, -0.919755665777871 ] ] } },
{ "type": "Feature", "properties": { "Id": 0, "Nama_Jalan": "Lrg. III R", "Armada": 1.0, "kelurahan": "Tatura Selatan" }, "geometry": { "type": "LineString", "coordinates": [ [ 119.88339095238068, -0.919049020738411 ], [ 119.883400836318486, -0.919527156215462 ], [ 119.883429413372539, -0.919622761663951 ], [ 119.883313573752091, -0.919699358894483 ] ] } },
{ "type": "Feature", "properties": { "Id": 0, "Nama_Jalan": "Jl. Tupai", "Armada": 2.0, "kelurahan": "Tatura Selatan" }, "geometry": { "type": "LineString", "coordinates": [ [ 119.87320954708234, -0.911545041329021 ], [ 119.873247882497608, -0.911991308974356 ], [ 119.87326636958808, -0.912092780980367 ], [ 119.873932532069446, -0.913542227537945 ], [ 119.873950413290686, -0.913628279683979 ], [ 119.874064639471854, -0.913910294646988 ], [ 119.87409559294008, -0.914008289924644 ], [ 119.874122295293802, -0.91416847605922 ] ] } },
{ "type": "Feature", "properties": { "Id": 0, "Nama_Jalan": "Lrg. Thoy Hali", "Armada": 2.0, "kelurahan": "Tatura Selatan" }, "geometry": { "type": "LineString", "coordinates": [ [ 119.873260381161657, -0.911546495294619 ], [ 119.873262629452029, -0.911307650341317 ], [ 119.873322665379064, -0.910941819042706 ], [ 119.873353770290322, -0.91063195430038 ] ] } },
{ "type": "Feature", "properties": { "Id": 0, "Nama_Jalan": "Lrg. Toyugi II", "Armada": 2.0, "kelurahan": "Tatura Selatan" }, "geometry": { "type": "LineString", "coordinates": [ [ 119.873791809469495, -0.913236041654271 ], [ 119.874110844832359, -0.9132200143884 ], [ 119.874382791280652, -0.913225772175551 ], [ 119.874919505651718, -0.913170352867643 ] ] } },
{ "type": "Feature", "properties": { "Id": 0, "Nama_Jalan": "Lrg. Toyugi III", "Armada": 2.0, "kelurahan": "Tatura Selatan" }, "geometry": { "type": "LineString", "coordinates": [ [ 119.873943069499433, -0.91359293819866 ], [ 119.874924070373211, -0.913534577748679 ] ] } },
{ "type": "Feature", "properties": { "Id": 0, "Nama_Jalan": "Lrg. Toyugi I", "Armada": 2.0, "kelurahan": "Tatura Selatan" }, "geometry": { "type": "LineString", "coordinates": [ [ 119.873528067084976, -0.912662187143868 ], [ 119.87490138445277, -0.912671313283282 ] ] } },
{ "type": "Feature", "properties": { "Id": 0, "Nama_Jalan": "Lrg. Nursita", "Armada": 2.0, "kelurahan": "Tatura Selatan" }, "geometry": { "type": "LineString", "coordinates": [ [ 119.871601586850048, -0.91202739245554 ], [ 119.871996319801653, -0.912028509626739 ], [ 119.8719964952531, -0.912104969390392 ] ] } },
{ "type": "Feature", "properties": { "Id": 0, "Nama_Jalan": "Lrg. Katapi I", "Armada": 2.0, "kelurahan": "Tatura Selatan" }, "geometry": { "type": "LineString", "coordinates": [ [ 119.871581349916013, -0.912264928996557 ], [ 119.871138778635199, -0.912437418293067 ], [ 119.870882887101516, -0.912611670173872 ], [ 119.870660732139626, -0.912799761304912 ], [ 119.87052262524972, -0.912951923728131 ] ] } },
{ "type": "Feature", "properties": { "Id": 0, "Nama_Jalan": "Jl. Oskar", "Armada": 2.0, "kelurahan": "Tatura Selatan" }, "geometry": { "type": "LineString", "coordinates": [ [ 119.871492756033106, -0.914970825040226 ], [ 119.870952309438323, -0.915092250224292 ], [ 119.870922193294092, -0.914852721960916 ] ] } },
{ "type": "Feature", "properties": { "Id": 0, "Nama_Jalan": "Lrg. Bisu II", "Armada": 2.0, "kelurahan": "Tatura Selatan" }, "geometry": { "type": "LineString", "coordinates": [ [ 119.871651635365254, -0.915340764820296 ], [ 119.871831973920919, -0.915324877325759 ], [ 119.872354927450573, -0.91528572542672 ], [ 119.872341849852504, -0.914968723726498 ], [ 119.872326581490725, -0.914936587693159 ] ] } },
{ "type": "Feature", "properties": { "Id": 0, "Nama_Jalan": "Jl. Bisu I", "Armada": 2.0, "kelurahan": "Tatura Selatan" }, "geometry": { "type": "LineString", "coordinates": [ [ 119.87178670608732, -0.91569935111358 ], [ 119.872300120189806, -0.91565458129613 ], [ 119.87245830028327, -0.915657322513524 ], [ 119.872865901988675, -0.915712936806126 ] ] } },
{ "type": "Feature", "properties": { "Id": 0, "Nama_Jalan": "Lrg. Galon", "Armada": 2.0, "kelurahan": "Tatura Selatan" }, "geometry": { "type": "LineString", "coordinates": [ [ 119.872317523435584, -0.91685406177735 ], [ 119.87173685289703, -0.916889196770795 ], [ 119.871714068283154, -0.916611171856067 ], [ 119.871612895429223, -0.91602026203873 ] ] } },
{ "type": "Feature", "properties": { "Id": 0, "Nama_Jalan": "Lrg. Pelangi", "Armada": 2.0, "kelurahan": "Tatura Selatan" }, "geometry": { "type": "LineString", "coordinates": [ [ 119.872887788795637, -0.917619713426951 ], [ 119.872799449812973, -0.917635563776081 ], [ 119.872637885974214, -0.917723996784783 ], [ 119.872557269882719, -0.917728998568027 ], [ 119.872222446007811, -0.91780099166211 ], [ 119.871880531247854, -0.917916023857305 ], [ 119.872030532519616, -0.918383531560058 ], [ 119.872074728976699, -0.918409315793743 ], [ 119.872120337854199, -0.918419319988351 ], [ 119.872391000071516, -0.918302910875591 ], [ 119.872605041708468, -0.918662783109863 ], [ 119.87265785596189, -0.91877319253815 ], [ 119.872720695870314, -0.918946709373085 ], [ 119.872773546859193, -0.919103020953433 ] ] } },
{ "type": "Feature", "properties": { "Id": 0, "Nama_Jalan": "Lrg Belakang PDAM", "Armada": 2.0, "kelurahan": "Tatura Selatan" }, "geometry": { "type": "LineString", "coordinates": [ [ 119.873529089675344, -0.918407879178922 ], [ 119.873760274625809, -0.918380098900188 ], [ 119.873670723463761, -0.917770533205319 ], [ 119.873642188600911, -0.917727523012595 ], [ 119.873615908497015, -0.917533894483098 ], [ 119.873660995135324, -0.917484847869567 ], [ 119.873708477812144, -0.917462097439428 ], [ 119.873652323683686, -0.91703539610858 ], [ 119.873628504591835, -0.91694934879482 ], [ 119.873569779506639, -0.916906835495638 ] ] } },
{ "type": "Feature", "properties": { "Id": 0, "Nama_Jalan": "Lrg Kantor Kelurahan Tatura Selatan", "Armada": 2.0, "kelurahan": "Tatura Selatan" }, "geometry": { "type": "LineString", "coordinates": [ [ 119.875186474445371, -0.919017670515772 ], [ 119.875173876822657, -0.918946036046926 ], [ 119.875139287255251, -0.918459788588149 ] ] } },
{ "type": "Feature", "properties": { "Id": 0, "Nama_Jalan": "Lrg. Ganesa", "Armada": 2.0, "kelurahan": "Tatura Selatan" }, "geometry": { "type": "LineString", "coordinates": [ [ 119.875509734129679, -0.911627062506486 ], [ 119.875497692912674, -0.911221310930035 ], [ 119.875480479992206, -0.911079315148456 ], [ 119.87547170000731, -0.910789565197532 ], [ 119.875482879467611, -0.910511274730376 ], [ 119.875477149817513, -0.910473983877359 ], [ 119.875447208487429, -0.910453925763539 ], [ 119.875328918224071, -0.910436807506446 ], [ 119.875230574813401, -0.910415369895524 ], [ 119.874907091895039, -0.910411326413487 ] ] } },
{ "type": "Feature", "properties": { "Id": 0, "Nama_Jalan": "Lrg. Harimau", "Armada": 2.0, "kelurahan": "Tatura Selatan" }, "geometry": { "type": "LineString", "coordinates": [ [ 119.875493617696563, -0.911629016868252 ], [ 119.875501403719127, -0.911886744940889 ], [ 119.875234945471718, -0.911912779282082 ] ] } },
{ "type": "Feature", "properties": { "Id": 0, "Nama_Jalan": "Perumahan Permata Hijau I", "Armada": 2.0, "kelurahan": "Tatura Selatan" }, "geometry": { "type": "LineString", "coordinates": [ [ 119.873256100542349, -0.912036416213628 ], [ 119.872856252047711, -0.912094715175648 ], [ 119.8719964952531, -0.912104969390392 ], [ 119.871894742242034, -0.91257602734735 ] ] } },
{ "type": "Feature", "properties": { "Id": 0, "Nama_Jalan": "Lrg. Oskar", "Armada": 2.0, "kelurahan": "Tatura Selatan" }, "geometry": { "type": "LineString", "coordinates": [ [ 119.871651635365254, -0.915340764820296 ], [ 119.870998594318095, -0.915462024094629 ], [ 119.870977085712511, -0.915294689374597 ], [ 119.870952309438323, -0.915092250224292 ] ] } },
{ "type": "Feature", "properties": { "Id": 0, "Nama_Jalan": "Perumahan Permatan Hijau II", "Armada": 2.0, "kelurahan": "Tatura Selatan" }, "geometry": { "type": "LineString", "coordinates": [ [ 119.873325079685841, -0.91091776787551 ], [ 119.873900355140734, -0.910895286036731 ], [ 119.873932059400161, -0.911341372211744 ], [ 119.874091186806353, -0.911341244307698 ], [ 119.874085489291772, -0.911582089594926 ] ] } },
{ "type": "Feature", "properties": { "Id": 0, "Nama_Jalan": "Jl. Kancil Bawah", "Armada": 2.0, "kelurahan": "Tatura Selatan" }, "geometry": { "type": "LineString", "coordinates": [ [ 119.872361046593596, -0.917087763698354 ], [ 119.872317523435584, -0.91685406177735 ], [ 119.872263181285149, -0.916632771622017 ], [ 119.872040508289402, -0.91617010395512 ], [ 119.871768401079109, -0.915665398923641 ], [ 119.871651635365254, -0.915340764820296 ], [ 119.871483731329477, -0.914949811615814 ], [ 119.871381910039219, -0.914680724679592 ], [ 119.871337991718519, -0.914407259068758 ], [ 119.871314789656694, -0.914200837094127 ], [ 119.871301027325188, -0.913619419443072 ], [ 119.871289522277877, -0.913487459680806 ], [ 119.871293255499708, -0.913403302515823 ], [ 119.871315923754281, -0.913236888549083 ], [ 119.871367084948446, -0.913060888692279 ], [ 119.871526233839603, -0.912488894990392 ], [ 119.871581349916013, -0.912264928996557 ], [ 119.871605499650244, -0.911813685558882 ], [ 119.87163914595142, -0.911530434825536 ] ] } },
{ "type": "Feature", "properties": { "Id": 0, "Nama_Jalan": "Lrg. Kamboja", "Armada": 2.0, "kelurahan": "Tatura Selatan" }, "geometry": { "type": "LineString", "coordinates": [ [ 119.872379618381856, -0.915655958978792 ], [ 119.872373893101965, -0.916018865633116 ], [ 119.872415481110934, -0.91604991168309 ], [ 119.872685082683432, -0.916092727297486 ], [ 119.872971290431266, -0.916111622061711 ] ] } },
{ "type": "Feature", "properties": { "Id": 0, "Nama_Jalan": "Lrg. Bidan Marta", "Armada": 2.0, "kelurahan": "Tatura Selatan" }, "geometry": { "type": "LineString", "coordinates": [ [ 119.871500259348608, -0.914988296012222 ], [ 119.872326581490725, -0.914936587693159 ] ] } },
{ "type": "Feature", "properties": { "Id": 0, "Nama_Jalan": "Lrg. Gagatan", "Armada": 2.0, "kelurahan": "Tatura Selatan" }, "geometry": { "type": "LineString", "coordinates": [ [ 119.874608894328034, -0.914058035059802 ], [ 119.874612276449355, -0.914366040101455 ] ] } },
{ "type": "Feature", "properties": { "Id": 0, "Nama_Jalan": "Lrg. Ayam Potong", "Armada": 2.0, "kelurahan": "Tatura Selatan" }, "geometry": { "type": "LineString", "coordinates": [ [ 119.873766384494814, -0.913180721667066 ], [ 119.872660558023142, -0.913311720280719 ], [ 119.872605437336873, -0.913286900959871 ], [ 119.872521694608764, -0.913109097279993 ], [ 119.871894742242034, -0.91257602734735 ] ] } },
{ "type": "Feature", "properties": { "Id": 0, "Nama_Jalan": "Lrg. Mawar", "Armada": 2.0, "kelurahan": "Tatura Selatan" }, "geometry": { "type": "LineString", "coordinates": [ [ 119.873487571025635, -0.91561492255305 ], [ 119.87298119322476, -0.915613398175287 ], [ 119.872865901988675, -0.915712936806126 ] ] } },
{ "type": "Feature", "properties": { "Id": 0, "Nama_Jalan": "Lrg. Walet", "Armada": 2.0, "kelurahan": "Tatura Selatan" }, "geometry": { "type": "LineString", "coordinates": [ [ 119.872090030729524, -0.91315366454178 ], [ 119.872132889720632, -0.913289902307623 ], [ 119.872141474015123, -0.913631771417359 ], [ 119.8719170135886, -0.913608044744691 ], [ 119.87162483877151, -0.913552097541783 ], [ 119.871295833906046, -0.913559852361472 ] ] } },
{ "type": "Feature", "properties": { "Id": 0, "Nama_Jalan": "Lrg. Kancil IV", "Armada": 2.0, "kelurahan": "Tatura Selatan" }, "geometry": { "type": "LineString", "coordinates": [ [ 119.872618125532213, -0.914234107938259 ], [ 119.872643944640757, -0.914677873488136 ], [ 119.87284630229901, -0.914682969940877 ], [ 119.872880543981552, -0.914734582308423 ], [ 119.87286789003349, -0.914949759100083 ] ] } },
{ "type": "Feature", "properties": { "Id": 0, "Nama_Jalan": "Lrg. Polindes", "Armada": 2.0, "kelurahan": "Tatura Selatan" }, "geometry": { "type": "LineString", "coordinates": [ [ 119.872293125094814, -0.914302510440542 ], [ 119.872326581490725, -0.914936587693159 ] ] } },
{ "type": "Feature", "properties": { "Id": 0, "Nama_Jalan": "Lrg. Bengkel", "Armada": 2.0, "kelurahan": "Tatura Selatan" }, "geometry": { "type": "LineString", "coordinates": [ [ 119.871694066360803, -0.914425591042471 ], [ 119.871652296528424, -0.914155068490504 ] ] } },
{ "type": "Feature", "properties": { "Id": 0, "Nama_Jalan": "Lrg. Katapi II", "Armada": 2.0, "kelurahan": "Tatura Selatan" }, "geometry": { "type": "LineString", "coordinates": [ [ 119.871381910039219, -0.914680724679592 ], [ 119.87114776831821, -0.914705549377967 ] ] } },
{ "type": "Feature", "properties": { "Id": 0, "Nama_Jalan": "Jl. Zebra", "Armada": 1.0, "kelurahan": "Tatura Selatan" }, "geometry": { "type": "LineString", "coordinates": [ [ 119.884089301630198, -0.919056664208621 ], [ 119.884089805602244, -0.919684226779365 ], [ 119.884143842061036, -0.920428890826555 ], [ 119.884275444361634, -0.921642071834157 ], [ 119.884374205987655, -0.922625173009924 ], [ 119.884474101535289, -0.923172714642808 ], [ 119.884614123492412, -0.923779244139023 ], [ 119.884697574930087, -0.924182609014676 ], [ 119.884760515501412, -0.924920690666748 ], [ 119.884857090794497, -0.926133301483893 ], [ 119.884910906144711, -0.926599446649901 ], [ 119.885053228291213, -0.927129975364405 ], [ 119.885092456310474, -0.927168478637145 ], [ 119.885164740910014, -0.927703748168814 ], [ 119.885315097425476, -0.928603728272846 ], [ 119.885328338557301, -0.928823663018576 ], [ 119.885297521464281, -0.928895409767311 ], [ 119.885238409274308, -0.92894104946675 ] ] } },
{ "type": "Feature", "properties": { "Id": 0, "Nama_Jalan": "Jl. Basuki Rahmat", "Armada": 1.0, "kelurahan": "Tatura Selatan" }, "geometry": { "type": "LineString", "coordinates": [ [ 119.884089301630198, -0.919056664208604 ], [ 119.882451030525999, -0.919007382929091 ], [ 119.881022418632185, -0.918965510991944 ], [ 119.878519954640964, -0.918949015186632 ], [ 119.876967854243517, -0.918929953573072 ] ] } }
]
}
