{
"type": "FeatureCollection",
"name": "Tavanjuka",
"crs": { "type": "name", "properties": { "name": "urn:ogc:def:crs:OGC:1.3:CRS84" } },
"features": [
{ "type": "Feature", "properties": { "Id": 0, "Nama_Jalan": "Jl. Lekatu", "Armada": null, "kelurahan": "Tavanjuka" }, "geometry": { "type": "LineString", "coordinates": [ [ 119.872372108156384, -0.920663072960534 ], [ 119.871742252810833, -0.920672190728292 ], [ 119.871621169064596, -0.92072679789694 ], [ 119.871538539246657, -0.920754119405902 ], [ 119.871095363375218, -0.92076452008634 ], [ 119.870674995838328, -0.920784943344615 ], [ 119.87044556147741, -0.920779391658724 ], [ 119.870180490986073, -0.920760958831828 ], [ 119.870086442441021, -0.920765338446548 ], [ 119.869138743021011, -0.920698687803107 ], [ 119.868923542609153, -0.920673042170365 ], [ 119.86800553972941, -0.920320911453483 ], [ 119.867214379281293, -0.919987325118852 ], [ 119.866384767793505, -0.919685327192984 ], [ 119.866313494311299, -0.91965813026037 ], [ 119.866267872593525, -0.919632347025418 ], [ 119.86621035764729, -0.91958410032197 ], [ 119.865421252351624, -0.918850298415715 ], [ 119.86531476240684, -0.918740887844288 ], [ 119.865256283349254, -0.918674950225277 ], [ 119.865070850366919, -0.918451325226555 ], [ 119.864692794212445, -0.917922316893218 ], [ 119.86465428283131, -0.917877879887905 ], [ 119.864612927091002, -0.917840617445692 ], [ 119.864563029130963, -0.917813403072964 ], [ 119.864490336304442, -0.917793379359994 ], [ 119.864390576924535, -0.917784853115508 ], [ 119.863766410913783, -0.91778535660702 ], [ 119.863103773107582, -0.91779162883717 ], [ 119.861815555724178, -0.91781466243401 ], [ 119.861385677885039, -0.917826484578252 ], [ 119.861180459945615, -0.917811349073365 ], [ 119.86001189445733, -0.917772125707929 ], [ 119.859436156207579, -0.91774581281854 ], [ 119.858748524415432, -0.917704108639256 ] ] } },
{ "type": "Feature", "properties": { "Id": 0, "Nama_Jalan": "Jl. Baligau", "Armada": null, "kelurahan": "Tavanjuka" }, "geometry": { "type": "LineString", "coordinates": [ [ 119.870167258833874, -0.920761575021488 ], [ 119.870191208997184, -0.920798787670505 ], [ 119.870200735223477, -0.920831294081913 ], [ 119.87020362126195, -0.920876237754723 ], [ 119.870157019478128, -0.921406064756313 ], [ 119.870113538067088, -0.922050625130941 ] ] } },
{ "type": "Feature", "properties": { "Id": 0, "Nama_Jalan": "Jl. Jati", "Armada": null, "kelurahan": "Tavanjuka" }, "geometry": { "type": "LineString", "coordinates": [ [ 119.863147645945773, -0.915916384694791 ], [ 119.863280922881188, -0.916260546877513 ], [ 119.86333329582186, -0.916413513345008 ], [ 119.863573948871021, -0.917383967861219 ], [ 119.863596412179049, -0.917557040727471 ], [ 119.863600447498257, -0.917786927553017 ] ] } },
{ "type": "Feature", "properties": { "Id": 0, "Nama_Jalan": "Jl. Lelemina", "Armada": null, "kelurahan": "Tavanjuka" }, "geometry": { "type": "LineString", "coordinates": [ [ 119.870113538067088, -0.922050625130924 ], [ 119.870074136339241, -0.922673207299907 ], [ 119.870009804629177, -0.923601347094172 ], [ 119.869938251264827, -0.924408521125253 ], [ 119.869796228161249, -0.925301341389105 ], [ 119.869718110982504, -0.925624155806556 ], [ 119.869701072139975, -0.92570067358105 ], [ 119.869689279581664, -0.925803485291337 ] ] } },
{ "type": "Feature", "properties": { "Id": 0, "Nama_Jalan": "Jl. Jati Baru", "Armada": null, "kelurahan": "Tavanjuka" }, "geometry": { "type": "LineString", "coordinates": [ [ 119.863547413560582, -0.917787429550338 ], [ 119.863516937960085, -0.918254573948418 ], [ 119.863489677601535, -0.919215203129115 ], [ 119.863480662361241, -0.91982341964148 ], [ 119.863468021401005, -0.920649676367117 ], [ 119.86347998388527, -0.921353506297787 ], [ 119.863408401102362, -0.92212817038959 ], [ 119.863351850863452, -0.922692435522648 ] ] } },
{ "type": "Feature", "properties": { "Id": 0, "Nama_Jalan": "Jl. Dharma Putra", "Armada": null, "kelurahan": "Tavanjuka" }, "geometry": { "type": "LineString", "coordinates": [ [ 119.8634694710791, -0.920554918465962 ], [ 119.863942680066089, -0.920552908901319 ], [ 119.864400607401336, -0.920571664443663 ], [ 119.864824326037962, -0.920580884571102 ], [ 119.865567252583119, -0.920589846240905 ], [ 119.865816169506616, -0.920603032947813 ] ] } },
{ "type": "Feature", "properties": { "Id": 0, "Nama_Jalan": "Jl. Sultan Alaudin", "Armada": null, "kelurahan": "Tavanjuka" }, "geometry": { "type": "LineString", "coordinates": [ [ 119.865604337186326, -0.922908091563193 ], [ 119.86563622143909, -0.922387837399457 ], [ 119.865711582108204, -0.921586395247237 ], [ 119.865807891204099, -0.920844226948492 ], [ 119.86585492324113, -0.920257019541224 ], [ 119.865928489039504, -0.919585636163755 ] ] } },
{ "type": "Feature", "properties": { "Id": 0, "Nama_Jalan": "Jl. Tavanjuka Mas", "Armada": null, "kelurahan": "Tavanjuka" }, "geometry": { "type": "LineString", "coordinates": [ [ 119.864975697618206, -0.922895870931371 ], [ 119.864890967288787, -0.923859414571432 ], [ 119.864770742210908, -0.924985558669641 ], [ 119.864662070820003, -0.925710046412806 ], [ 119.864562994254825, -0.92655167357797 ] ] } },
{ "type": "Feature", "properties": { "Id": 0, "Nama_Jalan": "Jl. Tavanjuka Permai", "Armada": null, "kelurahan": "Tavanjuka" }, "geometry": { "type": "LineString", "coordinates": [ [ 119.8613154566644, -0.925705603619291 ], [ 119.861299559589796, -0.925105475317878 ], [ 119.861310624216387, -0.924686604467709 ], [ 119.86132048802655, -0.924547453991964 ], [ 119.86140245574137, -0.923871944981707 ], [ 119.861484709921271, -0.923194626568344 ], [ 119.861558295816167, -0.922549060753151 ] ] } }
]
}
