{
"type": "FeatureCollection",
"name": "Tipo",
"crs": { "type": "name", "properties": { "name": "urn:ogc:def:crs:OGC:1.3:CRS84" } },
"features": [
{ "type": "Feature", "properties": { "Id": 0, "Nama_Jalan": "Jl. Malonda", "Armada": null, "kelurahan": "Tipo" }, "geometry": { "type": "LineString", "coordinates": [ [ 119.832012933101197, -0.868566276736006 ], [ 119.831351206960775, -0.867087616602103 ], [ 119.831003802187951, -0.866225686009838 ], [ 119.830727823295916, -0.865595910385804 ], [ 119.830397174110658, -0.864907600197427 ], [ 119.83017840467879, -0.864556312586108 ], [ 119.829177457955964, -0.863165002284507 ], [ 119.828880265707184, -0.86275280641382 ], [ 119.82843745087159, -0.862140487021771 ], [ 119.828377998353844, -0.862038921092191 ], [ 119.828328511995423, -0.861924795819448 ], [ 119.828294239963085, -0.86182918811602 ], [ 119.828265647001601, -0.861704886155565 ], [ 119.82822368857255, -0.861492611502527 ], [ 119.828015317884038, -0.860425498932366 ], [ 119.827961412349737, -0.860115687063486 ], [ 119.827928988435971, -0.859949309195996 ], [ 119.827864237851628, -0.859748527422342 ], [ 119.827770960774259, -0.859513338883603 ], [ 119.826901832238988, -0.857466952844153 ], [ 119.826013208458065, -0.855388779816188 ], [ 119.825532595192257, -0.854236751749362 ], [ 119.825151946816916, -0.853371549542436 ], [ 119.8246897630641, -0.852281317670658 ] ] } },
{ "type": "Feature", "properties": { "Id": 0, "Nama_Jalan": "Jl. Salambara", "Armada": null, "kelurahan": "Tipo" }, "geometry": { "type": "LineString", "coordinates": [ [ 119.827987604360587, -0.860266220762105 ], [ 119.826087902102842, -0.860478699338699 ], [ 119.825408686938175, -0.860566830420014 ], [ 119.824909950080766, -0.860615019335819 ], [ 119.82372719263391, -0.86067806348826 ], [ 119.823385168222288, -0.860666364339365 ], [ 119.823140512640023, -0.860640247486636 ], [ 119.822848330187696, -0.860580694211557 ], [ 119.822577504321615, -0.860494825665521 ], [ 119.822449199118992, -0.860427977615974 ], [ 119.822332771222463, -0.860363511542624 ], [ 119.82161290681448, -0.860084318746411 ], [ 119.820009210005622, -0.859411292829287 ], [ 119.819864292891268, -0.859363583584854 ], [ 119.819777267776146, -0.859296297487683 ] ] } },
{ "type": "Feature", "properties": { "Id": 0, "Nama_Jalan": "Kompleks Terminal Mamboro", "Armada": null, "kelurahan": "Tipo" }, "geometry": { "type": "LineString", "coordinates": [ [ 119.828176760770802, -0.861252284314209 ], [ 119.827368410914588, -0.861460894928932 ], [ 119.826703087274026, -0.861705257528512 ], [ 119.826653308537772, -0.861838703439953 ], [ 119.826556499596208, -0.86196788101915 ], [ 119.826408358781677, -0.862056930931736 ], [ 119.826146240483979, -0.862183363159598 ], [ 119.825898353695436, -0.862283963728241 ], [ 119.825924680916472, -0.862355620919492 ], [ 119.825646372051651, -0.862449317933323 ] ] } },
{ "type": "Feature", "properties": { "Id": 0, "Nama_Jalan": "Jl. Radjati", "Armada": null, "kelurahan": "Tipo" }, "geometry": { "type": "LineString", "coordinates": [ [ 119.826021017631334, -0.855407042733302 ], [ 119.824956783467997, -0.855768431887747 ], [ 119.824747827289116, -0.855840790299889 ], [ 119.824468585508811, -0.855937109286179 ], [ 119.824317559365724, -0.855978821977616 ], [ 119.823774689232934, -0.856086812625772 ], [ 119.823595153323268, -0.856117070435751 ], [ 119.823377130165625, -0.856133011733527 ], [ 119.822744430102603, -0.856172212696595 ], [ 119.822606210397083, -0.856188094784183 ], [ 119.821713768822079, -0.856358506691929 ], [ 119.820815126371883, -0.856494973192999 ], [ 119.820229964518589, -0.856585302970583 ], [ 119.819762610795735, -0.856679370782096 ], [ 119.81928574941351, -0.856763882250513 ], [ 119.818995078696943, -0.856823390850173 ], [ 119.818862101606001, -0.85686365574658 ], [ 119.818677855570286, -0.856949863036658 ], [ 119.818178272329249, -0.857143414368323 ], [ 119.818152877244557, -0.857150023635279 ], [ 119.817978429476042, -0.857156461815295 ], [ 119.817832143201585, -0.857185260509642 ], [ 119.817220427346371, -0.857342554071952 ], [ 119.817153928198493, -0.85734834141696 ], [ 119.815668030437322, -0.857319317631613 ] ] } },
{ "type": "Feature", "properties": { "Id": 0, "Nama_Jalan": "Kompleks Puskesmas Tipo", "Armada": null, "kelurahan": "Tipo" }, "geometry": { "type": "LineString", "coordinates": [ [ 119.827017443452817, -0.862224670788018 ], [ 119.826853309063765, -0.861882903934016 ], [ 119.826751156724072, -0.861851899432197 ], [ 119.826653308537772, -0.861838703439953 ] ] } },
{ "type": "Feature", "properties": { "Id": 0, "Nama_Jalan": "Jl. Magulili", "Armada": null, "kelurahan": "Tipo" }, "geometry": { "type": "LineString", "coordinates": [ [ 119.827410979189452, -0.861449909347481 ], [ 119.827424191540985, -0.861532948217866 ], [ 119.827469710144172, -0.861741873194115 ], [ 119.827483525250258, -0.86179541757369 ], [ 119.827543744471086, -0.861970381673624 ], [ 119.827613228732545, -0.862148207824885 ], [ 119.82777408853741, -0.862558354703767 ], [ 119.827931876947517, -0.862990260353025 ], [ 119.827986623556853, -0.863151600659088 ], [ 119.82805449070149, -0.86339063322505 ], [ 119.828122382659103, -0.863663137417395 ], [ 119.828229403461449, -0.864174934687458 ], [ 119.828257968385344, -0.86426098327282 ], [ 119.828424972388831, -0.864628089986291 ], [ 119.828457813593147, -0.864715569834445 ], [ 119.828676342149762, -0.865382448142548 ], [ 119.828790545889319, -0.865650613757053 ], [ 119.828870486524679, -0.865835604105953 ], [ 119.828917242360149, -0.865947168340221 ] ] } },
{ "type": "Feature", "properties": { "Id": 0, "Nama_Jalan": "Jl. Pue Ndjula", "Armada": null, "kelurahan": "Tipo" }, "geometry": { "type": "LineString", "coordinates": [ [ 119.830949189297499, -0.866101061109794 ], [ 119.829917930130122, -0.866481297125931 ], [ 119.829644411023708, -0.866605826132595 ], [ 119.829201647249491, -0.866865205903264 ], [ 119.828882869466455, -0.867132382236462 ], [ 119.828674928303428, -0.867265169915129 ] ] } },
{ "type": "Feature", "properties": { "Id": 0, "Nama_Jalan": "BTN D’Grand \r\nBTN D’Grand \r\nBTN D Grand Pearl Land\r", "Armada": null, "kelurahan": "Tipo" }, "geometry": { "type": "LineString", "coordinates": [ [ 119.828674928303428, -0.867265169915112 ], [ 119.828490294471237, -0.866779832868928 ], [ 119.829057824002774, -0.866554333966413 ], [ 119.828979223834878, -0.866255539085833 ], [ 119.828373739773539, -0.866480732720873 ], [ 119.828264281043943, -0.866205869178438 ], [ 119.827573314119036, -0.866459817100266 ], [ 119.827689924861886, -0.866770537945694 ] ] } },
{ "type": "Feature", "properties": { "Id": 0, "Nama_Jalan": "Jl. Mantulu", "Armada": null, "kelurahan": "Tipo" }, "geometry": { "type": "LineString", "coordinates": [ [ 119.823024203889332, -0.86061654118406 ], [ 119.823057982574994, -0.860184772805662 ], [ 119.823046552512437, -0.860144615136526 ], [ 119.823025617795267, -0.860098726521984 ], [ 119.823106830862145, -0.85943114226936 ], [ 119.823114327216103, -0.859289598703923 ], [ 119.823113917030554, -0.85873109777462 ], [ 119.823088970205248, -0.858396398120492 ], [ 119.823046853951965, -0.857967990111035 ], [ 119.82296094614378, -0.857417203355192 ], [ 119.822835178841231, -0.85692382637923 ], [ 119.822735564204962, -0.856466292565952 ], [ 119.822686674805908, -0.856178849049428 ] ] } },
{ "type": "Feature", "properties": { "Id": 0, "Nama_Jalan": "Jl. Ragigau", "Armada": null, "kelurahan": "Tipo" }, "geometry": { "type": "LineString", "coordinates": [ [ 119.82576835310995, -0.860520162200467 ], [ 119.825714794998518, -0.859956429572001 ], [ 119.825618643737684, -0.859042722555145 ], [ 119.825594301346669, -0.858884467133257 ], [ 119.825432472501433, -0.858446585850396 ], [ 119.825304895873771, -0.858077535142625 ], [ 119.825217354468947, -0.85789015841577 ], [ 119.825165949758073, -0.857750571588514 ], [ 119.825124055302851, -0.857624366382003 ], [ 119.82498884215498, -0.857205591666807 ], [ 119.824785045368159, -0.856540133007255 ], [ 119.824580785341183, -0.855898408150082 ] ] } },
{ "type": "Feature", "properties": { "Id": 0, "Nama_Jalan": "Lrg. Mawar", "Armada": null, "kelurahan": "Tipo" }, "geometry": { "type": "LineString", "coordinates": [ [ 119.827206063196044, -0.858183274058384 ], [ 119.826927786532607, -0.858269746075844 ], [ 119.82621242515944, -0.858296099693355 ] ] } },
{ "type": "Feature", "properties": { "Id": 0, "Nama_Jalan": "Lrg. Tui", "Armada": null, "kelurahan": "Tipo" }, "geometry": { "type": "LineString", "coordinates": [ [ 119.825668235828104, -0.854561882209274 ], [ 119.82550183554288, -0.854609396367924 ], [ 119.82536527249043, -0.854616670080441 ], [ 119.825275009908665, -0.854604782763548 ], [ 119.825204896348552, -0.854539086612915 ], [ 119.824345263178003, -0.85475011748128 ], [ 119.82411967642399, -0.854816032760506 ] ] } },
{ "type": "Feature", "properties": { "Id": 0, "Nama_Jalan": "Lrg. BRM", "Armada": null, "kelurahan": "Tipo" }, "geometry": { "type": "LineString", "coordinates": [ [ 119.82654943915378, -0.856642833044203 ], [ 119.826293667489779, -0.856727436570189 ], [ 119.8262247957136, -0.856735855678351 ], [ 119.826075229240843, -0.85682442782507 ], [ 119.826053880509377, -0.856861501681994 ], [ 119.826018273281861, -0.856887827363779 ], [ 119.825969596860233, -0.856905794824653 ], [ 119.825900730322218, -0.856921386451729 ], [ 119.82570835060865, -0.856926311087625 ], [ 119.824979502077241, -0.857175093499468 ] ] } },
{ "type": "Feature", "properties": { "Id": 0, "Nama_Jalan": null, "Armada": null, "kelurahan": "Tipo" }, "geometry": { "type": "LineString", "coordinates": [ [ 119.823892442827713, -0.868326420896088 ], [ 119.824328843536989, -0.868130999803471 ], [ 119.823938655261998, -0.867228511229863 ], [ 119.82387775169002, -0.867092757137407 ], [ 119.823792137045501, -0.866943632874335 ], [ 119.823731270372718, -0.866857608253228 ], [ 119.823695131807582, -0.866807905863635 ], [ 119.823662793423537, -0.866758200616444 ], [ 119.823619057338973, -0.866712329275055 ], [ 119.823563923552413, -0.866670291838134 ], [ 119.823514507044365, -0.866651202200125 ], [ 119.823432789007086, -0.866632136814832 ], [ 119.823206662696563, -0.866611267176181 ], [ 119.823143941292798, -0.866586449487988 ], [ 119.823069800922568, -0.866536775587471 ], [ 119.822938611078101, -0.866424026204756 ], [ 119.822818820365427, -0.866309355561453 ], [ 119.822674285990047, -0.866137323171888 ], [ 119.822632431593561, -0.866066585553706 ], [ 119.82227475586501, -0.86544714657719 ], [ 119.822213880792489, -0.86534964568384 ], [ 119.822107375246915, -0.865213925430665 ], [ 119.822052220266386, -0.86514319770298 ], [ 119.821993246723537, -0.865047608023874 ], [ 119.821917148329291, -0.864919515645367 ], [ 119.821856220997617, -0.86475124565968 ], [ 119.821601091613132, -0.864051396581731 ], [ 119.82151542510509, -0.863831502695535 ], [ 119.821484958697795, -0.863743542289266 ], [ 119.821467742126714, -0.863586715556521 ], [ 119.821475202778842, -0.863397354842001 ], [ 119.821474941954421, -0.863277214941092 ], [ 119.821461998890555, -0.863117994158306 ], [ 119.821447663572755, -0.863003244180003 ], [ 119.82141479708784, -0.862881335500197 ], [ 119.82135339540703, -0.862713543848209 ], [ 119.821254891226047, -0.862476923458136 ], [ 119.821112171926558, -0.862188693704098 ], [ 119.821046546916946, -0.862091196065823 ], [ 119.82067856334551, -0.861662552311303 ], [ 119.820602993509581, -0.861606662796474 ], [ 119.820513182483651, -0.86156369448099 ], [ 119.820410554276222, -0.861532211793462 ], [ 119.820144012463771, -0.861459250513037 ], [ 119.820052779512665, -0.861420586749242 ], [ 119.819970089588978, -0.861371875035518 ], [ 119.819924448312804, -0.861318832166913 ], [ 119.819903026894394, -0.861257164178994 ], [ 119.819868727102246, -0.861123780255436 ], [ 119.819853001754737, -0.861056369973793 ], [ 119.819837258480774, -0.860964573022458 ], [ 119.819820075380363, -0.860852693991684 ], [ 119.819778442605298, -0.860436716893682 ], [ 119.8197697888981, -0.8602961412843 ], [ 119.819766340435237, -0.859481341746859 ], [ 119.819784638951717, -0.859171473820433 ], [ 119.81978316020664, -0.859098314872542 ], [ 119.819744600204572, -0.858985017186311 ], [ 119.819578989209546, -0.858572001115943 ], [ 119.81934492985053, -0.85809735175587 ], [ 119.819279308348953, -0.858004157235411 ], [ 119.819195181967345, -0.857939666667201 ], [ 119.819073991170427, -0.857857989456024 ], [ 119.818934281819338, -0.857786367547825 ], [ 119.818619241596267, -0.857650322650264 ], [ 119.818512317233257, -0.857590152452302 ], [ 119.818438163182051, -0.857521350860516 ], [ 119.818354017892943, -0.857431038980244 ], [ 119.81827128298319, -0.857320642862511 ], [ 119.818152877244557, -0.857150023635279 ] ] } },
{ "type": "Feature", "properties": { "Id": 0, "Nama_Jalan": null, "Armada": null, "kelurahan": "Tipo" }, "geometry": { "type": "LineString", "coordinates": [ [ 119.822996181007923, -0.860610829498466 ], [ 119.822947623166456, -0.860714496183366 ], [ 119.822910918930518, -0.860863951346812 ], [ 119.822848016348672, -0.860915401420678 ], [ 119.822727019473078, -0.861097195884429 ], [ 119.82271635963609, -0.861135457357734 ], [ 119.822721156499497, -0.861198811175252 ], [ 119.822718842997588, -0.861282492480417 ], [ 119.822692877870679, -0.861501274185619 ], [ 119.822692947424557, -0.861595712518093 ], [ 119.822712519046149, -0.861645029015694 ] ] } },
{ "type": "Feature", "properties": { "Id": 0, "Nama_Jalan": "BTN D Grand Pearl Land\r", "Armada": null, "kelurahan": "Tipo" }, "geometry": { "type": "LineString", "coordinates": [ [ 119.827390230703173, -0.866189790346129 ], [ 119.827782016385839, -0.866046045800211 ], [ 119.827589266091195, -0.86555128781238 ], [ 119.827724687724299, -0.865606175298566 ], [ 119.827788863355948, -0.865670679626491 ], [ 119.827848308283706, -0.865761486679179 ], [ 119.827893509693823, -0.865861867761569 ], [ 119.827931548569765, -0.865912046698415 ], [ 119.827986214939031, -0.865964603969842 ], [ 119.828157176208194, -0.865902313805529 ], [ 119.828278515692148, -0.866184340974688 ], [ 119.828917242360149, -0.865947168340221 ] ] } }
]
}
