{
"type": "FeatureCollection",
"name": "Tondo",
"crs": { "type": "name", "properties": { "name": "urn:ogc:def:crs:OGC:1.3:CRS84" } },
"features": [
{ "type": "Feature", "properties": { "Id": 0, "Nama_Jalan": "BTN Griya Tadulako Permai", "Armada": 2.0, "kelurahan": "Tondo" }, "geometry": { "type": "MultiLineString", "coordinates": [ [ [ 119.908609524723431, -0.838444881945948 ], [ 119.910017548268456, -0.838481491227776 ] ], [ [ 119.909519448267233, -0.838159297759177 ], [ 119.909229035479953, -0.838150379728928 ] ], [ [ 119.909229035479953, -0.838150379728928 ], [ 119.908932157135524, -0.838141263128687 ] ], [ [ 119.908932157135524, -0.838141263128687 ], [ 119.90863615733771, -0.838132173481968 ] ], [ [ 119.90863615733771, -0.838132173481968 ], [ 119.908609524723431, -0.838444881945948 ] ], [ [ 119.90863615733771, -0.838132173481968 ], [ 119.908687445303244, -0.837474702333685 ] ], [ [ 119.909843012322753, -0.837675857642785 ], [ 119.909790688569558, -0.837763625681691 ], [ 119.909738864824831, -0.837855944020546 ], [ 119.909720387094808, -0.837919071333769 ], [ 119.90974749819263, -0.837969254957858 ], [ 119.910004140430786, -0.838174181689914 ], [ 119.909519448267233, -0.838159297759177 ] ], [ [ 119.90956691126074, -0.837521140817643 ], [ 119.909254671399367, -0.83750465362809 ] ], [ [ 119.909254671399367, -0.83750465362809 ], [ 119.909229035479953, -0.838150379728928 ] ], [ [ 119.909254671399367, -0.83750465362809 ], [ 119.9089577511306, -0.837488975330706 ] ], [ [ 119.9089577511306, -0.837488975330706 ], [ 119.908932157135524, -0.838141263128687 ] ], [ [ 119.9089577511306, -0.837488975330706 ], [ 119.908687445303244, -0.837474702333685 ] ], [ [ 119.908687445303244, -0.837474702333685 ], [ 119.908662743350391, -0.837470895736839 ] ], [ [ 119.908662743350391, -0.837470895736839 ], [ 119.908364204496252, -0.837455101447039 ] ], [ [ 119.908662743350391, -0.837470895736839 ], [ 119.90878362972046, -0.836508801991245 ] ], [ [ 119.908364204496252, -0.837455101447039 ], [ 119.908319449786603, -0.838437339790369 ], [ 119.908609524723431, -0.838444881945948 ] ], [ [ 119.910115916653794, -0.837218087178933 ], [ 119.909843012322753, -0.837675857642785 ] ], [ [ 119.90990561646602, -0.837065530001499 ], [ 119.909843012322753, -0.837675857642785 ] ], [ [ 119.90990561646602, -0.837065530001499 ], [ 119.910115916653794, -0.837218087178933 ] ], [ [ 119.910298291961794, -0.836912170507827 ], [ 119.910115916653794, -0.837218087178933 ] ], [ [ 119.909644650114345, -0.836876218189704 ], [ 119.909623108939783, -0.836919249467459 ], [ 119.909519448267233, -0.838159297759177 ] ], [ [ 119.909644650114345, -0.836876218189704 ], [ 119.90990561646602, -0.837065530001499 ] ], [ [ 119.909379999985717, -0.836684233964799 ], [ 119.909349144519638, -0.836733938731565 ], [ 119.909254671399367, -0.83750465362809 ] ], [ [ 119.909379999985717, -0.836684233964799 ], [ 119.909644650114345, -0.836876218189704 ] ], [ [ 119.909078308325306, -0.836525101631811 ], [ 119.9089577511306, -0.837488975330706 ] ], [ [ 119.909078308325306, -0.836525101631811 ], [ 119.909167431877478, -0.83653003134265 ], [ 119.909379999985717, -0.836684233964799 ] ], [ [ 119.90878362972046, -0.836508801991245 ], [ 119.909078308325306, -0.836525101631811 ] ], [ [ 119.90878362972046, -0.836508801991245 ], [ 119.908489236606627, -0.836478779903488 ], [ 119.908364204496252, -0.837455101447039 ] ] ] } },
{ "type": "Feature", "properties": { "Id": 0, "Nama_Jalan": "BTN Tadulako Hils", "Armada": 2.0, "kelurahan": "Tondo" }, "geometry": { "type": "MultiLineString", "coordinates": [ [ [ 119.911676672382498, -0.839504740275499 ], [ 119.912092056222988, -0.83984711433481 ] ], [ [ 119.911676672382498, -0.839504740275499 ], [ 119.911649522356498, -0.839568337109198 ], [ 119.911376303547172, -0.839428090862863 ], [ 119.911684553365816, -0.838767440320461 ], [ 119.911936995939527, -0.838913678888232 ] ], [ [ 119.91177899261254, -0.839265063127536 ], [ 119.911676672382498, -0.839504740275499 ] ], [ [ 119.91177899261254, -0.839265063127536 ], [ 119.912293778406919, -0.839650929053288 ] ], [ [ 119.912074177651462, -0.839138347003777 ], [ 119.912409940098968, -0.839368744389199 ] ], [ [ 119.911887712266747, -0.839010395947095 ], [ 119.91177899261254, -0.839265063127536 ] ], [ [ 119.911887712266747, -0.839010395947095 ], [ 119.912074177651462, -0.839138347003777 ] ], [ [ 119.911989020133603, -0.838844537365389 ], [ 119.911966655787865, -0.838877796787519 ], [ 119.911916237583171, -0.838943577672547 ], [ 119.911887712266747, -0.839010395947095 ] ], [ [ 119.911989020133603, -0.838844537365389 ], [ 119.912074177651462, -0.839138347003777 ] ], [ [ 119.912203885943129, -0.838524997007259 ], [ 119.911989020133603, -0.838844537365389 ] ] ] } },
{ "type": "Feature", "properties": { "Id": 0, "Nama_Jalan": "Jl. Alkhairat", "Armada": 2.0, "kelurahan": "Tondo" }, "geometry": { "type": "LineString", "coordinates": [ [ 119.88344438826087, -0.83812799583356 ], [ 119.884669959697447, -0.838246622465209 ], [ 119.886580108986749, -0.838358763311263 ], [ 119.887282529238846, -0.838392309198391 ], [ 119.888704597885592, -0.838474329578697 ], [ 119.889781867164359, -0.838370213229061 ] ] } },
{ "type": "Feature", "properties": { "Id": 0, "Nama_Jalan": "Huntap Tondo Blok O", "Armada": 2.0, "kelurahan": "Tondo" }, "geometry": { "type": "LineString", "coordinates": [ [ 119.900765402093853, -0.833932015940307 ], [ 119.902809899421939, -0.83365865257584 ] ] } },
{ "type": "Feature", "properties": { "Id": 0, "Nama_Jalan": "Huntap Tondo Blok M", "Armada": 2.0, "kelurahan": "Tondo" }, "geometry": { "type": "LineString", "coordinates": [ [ 119.900678215520699, -0.833247150346088 ], [ 119.902722040084242, -0.832977754647426 ] ] } },
{ "type": "Feature", "properties": { "Id": 0, "Nama_Jalan": "Huntap Tondo Blok K", "Armada": 2.0, "kelurahan": "Tondo" }, "geometry": { "type": "LineString", "coordinates": [ [ 119.900588663632178, -0.832574837475033 ], [ 119.902635587038034, -0.832301709332809 ] ] } },
{ "type": "Feature", "properties": { "Id": 0, "Nama_Jalan": "Huntap Tondo Blok J", "Armada": 2.0, "kelurahan": "Tondo" }, "geometry": { "type": "LineString", "coordinates": [ [ 119.90054091809003, -0.832237189021604 ], [ 119.902592516145603, -0.831962655404548 ] ] } },
{ "type": "Feature", "properties": { "Id": 0, "Nama_Jalan": "Huntap Tondo Blok I", "Armada": 2.0, "kelurahan": "Tondo" }, "geometry": { "type": "LineString", "coordinates": [ [ 119.900502074275465, -0.831893557241288 ], [ 119.902548460671639, -0.83162190560907 ] ] } },
{ "type": "Feature", "properties": { "Id": 0, "Nama_Jalan": "Huntap Tondo Blok L", "Armada": 2.0, "kelurahan": "Tondo" }, "geometry": { "type": "LineString", "coordinates": [ [ 119.900635815547929, -0.832912486338949 ], [ 119.902678461908366, -0.83264002842578 ] ] } },
{ "type": "Feature", "properties": { "Id": 0, "Nama_Jalan": "Huntap Tondo Blok N", "Armada": 2.0, "kelurahan": "Tondo" }, "geometry": { "type": "LineString", "coordinates": [ [ 119.900731903084704, -0.83359077100703 ], [ 119.902765998025529, -0.833318423150504 ] ] } },
{ "type": "Feature", "properties": { "Id": 0, "Nama_Jalan": "Huntap Tondo Blok Q", "Armada": 2.0, "kelurahan": "Tondo" }, "geometry": { "type": "LineString", "coordinates": [ [ 119.9022960925261, -0.829123225171119 ], [ 119.905501929707853, -0.828700098166574 ] ] } },
{ "type": "Feature", "properties": { "Id": 0, "Nama_Jalan": "Huntap Tondo Blok  A", "Armada": 2.0, "kelurahan": "Tondo" }, "geometry": { "type": "LineString", "coordinates": [ [ 119.900117057605087, -0.829071043418291 ], [ 119.902183048426494, -0.828800567043844 ] ] } },
{ "type": "Feature", "properties": { "Id": 0, "Nama_Jalan": "Huntap Tondo Blok C", "Armada": 2.0, "kelurahan": "Tondo" }, "geometry": { "type": "LineString", "coordinates": [ [ 119.900231547985271, -0.829748717488921 ], [ 119.902271683169303, -0.829487495589758 ] ] } },
{ "type": "Feature", "properties": { "Id": 0, "Nama_Jalan": "Huntap Tondo Blok F", "Armada": 2.0, "kelurahan": "Tondo" }, "geometry": { "type": "LineString", "coordinates": [ [ 119.900370095972363, -0.830848329082098 ], [ 119.902411746642343, -0.830572995029052 ] ] } },
{ "type": "Feature", "properties": { "Id": 0, "Nama_Jalan": "Huntap Tondo Blok G", "Armada": 2.0, "kelurahan": "Tondo" }, "geometry": { "type": "LineString", "coordinates": [ [ 119.900416668887075, -0.831206896987637 ], [ 119.902458808450362, -0.830937724601558 ] ] } },
{ "type": "Feature", "properties": { "Id": 0, "Nama_Jalan": "Huntap Tondo Blok H", "Armada": 2.0, "kelurahan": "Tondo" }, "geometry": { "type": "LineString", "coordinates": [ [ 119.900452544256922, -0.831551128687342 ], [ 119.902497158187018, -0.831277077470094 ] ] } },
{ "type": "Feature", "properties": { "Id": 0, "Nama_Jalan": "Huntap Tondo Blok P", "Armada": 2.0, "kelurahan": "Tondo" }, "geometry": { "type": "LineString", "coordinates": [ [ 119.902247937870243, -0.828704837218533 ], [ 119.904270201951235, -0.828489672552744 ] ] } },
{ "type": "Feature", "properties": { "Id": 0, "Nama_Jalan": "Huntap Tondo Blok B", "Armada": 2.0, "kelurahan": "Tondo" }, "geometry": { "type": "LineString", "coordinates": [ [ 119.900189555306838, -0.829401143219555 ], [ 119.902225629642089, -0.829130576365394 ] ] } },
{ "type": "Feature", "properties": { "Id": 0, "Nama_Jalan": "Huntap Tondo Blok D", "Armada": 2.0, "kelurahan": "Tondo" }, "geometry": { "type": "LineString", "coordinates": [ [ 119.900268442869333, -0.830107531706389 ], [ 119.902317126281403, -0.829839683110168 ] ] } },
{ "type": "Feature", "properties": { "Id": 0, "Nama_Jalan": "Huntap Tondo", "Armada": 2.0, "kelurahan": "Tondo" }, "geometry": { "type": "LineString", "coordinates": [ [ 119.9022960925261, -0.829123225171119 ], [ 119.902247937870243, -0.828704837218533 ], [ 119.902171770629479, -0.828712026248791 ], [ 119.902183048426494, -0.828800567043844 ], [ 119.902809899421939, -0.83365865257584 ] ] } },
{ "type": "Feature", "properties": { "Id": 0, "Nama_Jalan": "Jl. SMA 5", "Armada": 2.0, "kelurahan": "Tondo" }, "geometry": { "type": "LineString", "coordinates": [ [ 119.883303281617515, -0.841530117876245 ], [ 119.883538377510561, -0.841494082038185 ], [ 119.885828800544715, -0.84164184943423 ] ] } },
{ "type": "Feature", "properties": { "Id": 0, "Nama_Jalan": "Jl. Muhammadiyah II", "Armada": 2.0, "kelurahan": "Tondo" }, "geometry": { "type": "LineString", "coordinates": [ [ 119.888704597885592, -0.838474329578697 ], [ 119.888646952257957, -0.839905235613875 ], [ 119.888629227405971, -0.84083164787644 ] ] } },
{ "type": "Feature", "properties": { "Id": 0, "Nama_Jalan": "Jl. Boya Papitu", "Armada": 2.0, "kelurahan": "Tondo" }, "geometry": { "type": "LineString", "coordinates": [ [ 119.883381933867142, -0.839077182257796 ], [ 119.884251159701563, -0.839058606399643 ], [ 119.885604864899676, -0.839021740072018 ] ] } },
{ "type": "Feature", "properties": { "Id": 0, "Nama_Jalan": "Jl. Tola Munte", "Armada": 2.0, "kelurahan": "Tondo" }, "geometry": { "type": "LineString", "coordinates": [ [ 119.88316171060228, -0.833461427589451 ], [ 119.884878678779302, -0.833278466656205 ], [ 119.885809601670431, -0.833191714089094 ], [ 119.886886583799154, -0.833104853638951 ], [ 119.887679195883578, -0.833062431118994 ], [ 119.887919645128022, -0.833041334894212 ], [ 119.888148215178489, -0.833014270663631 ], [ 119.888332259097623, -0.832993216077342 ], [ 119.888625342702454, -0.832928557224963 ] ] } },
{ "type": "Feature", "properties": { "Id": 0, "Nama_Jalan": "Jl. Pendidikan Utara", "Armada": 2.0, "kelurahan": "Tondo" }, "geometry": { "type": "LineString", "coordinates": [ [ 119.885693509978935, -0.836019655255355 ], [ 119.885708935688271, -0.834376984591279 ], [ 119.885710980712929, -0.833200904568878 ] ] } },
{ "type": "Feature", "properties": { "Id": 0, "Nama_Jalan": "Jl. Laluna", "Armada": 2.0, "kelurahan": "Tondo" }, "geometry": { "type": "LineString", "coordinates": [ [ 119.885708935688271, -0.834376984591279 ], [ 119.884156445693137, -0.834351554636217 ], [ 119.8832777753111, -0.834444843785698 ] ] } },
{ "type": "Feature", "properties": { "Id": 0, "Nama_Jalan": "Jl. Padat Karya", "Armada": 12.0, "kelurahan": "Tondo" }, "geometry": { "type": "LineString", "coordinates": [ [ 119.885870533474971, -0.843200708375911 ], [ 119.885785769744032, -0.844197699102151 ], [ 119.885755643494107, -0.845211384068994 ], [ 119.885815412439058, -0.846548345671619 ], [ 119.885795080011775, -0.847154406713223 ] ] } },
{ "type": "Feature", "properties": { "Id": 0, "Nama_Jalan": "Jl. Lengaru", "Armada": 2.0, "kelurahan": "Tondo" }, "geometry": { "type": "LineString", "coordinates": [ [ 119.885704713353306, -0.834826592624715 ], [ 119.886735530704954, -0.834850762650716 ], [ 119.88793819226035, -0.834825009597867 ], [ 119.88908348868766, -0.834838725352002 ] ] } },
{ "type": "Feature", "properties": { "Id": 0, "Nama_Jalan": "Perumahan Dosen", "Armada": 1.0, "kelurahan": "Tondo" }, "geometry": { "type": "MultiLineString", "coordinates": [ [ [ 119.895186854066793, -0.846932024491263 ], [ 119.895498090695966, -0.846943886433385 ] ], [ [ 119.894850602310811, -0.846919209133115 ], [ 119.895186854066793, -0.846932024491263 ] ], [ [ 119.894421613014131, -0.846902859277201 ], [ 119.894850602310811, -0.846919209133115 ] ], [ [ 119.894421613014131, -0.846902859277201 ], [ 119.894470557651701, -0.845650098370298 ], [ 119.894501692386868, -0.844398546271891 ] ], [ [ 119.89526585505142, -0.844428454351868 ], [ 119.895186854066793, -0.846932024491263 ] ], [ [ 119.894938104961469, -0.844419137474682 ], [ 119.894891524802688, -0.845659344900198 ], [ 119.894850602310811, -0.846919209133115 ] ], [ [ 119.894071814745786, -0.844383329168072 ], [ 119.894017254688563, -0.846872682076184 ], [ 119.894421613014131, -0.846902859277201 ] ] ] } },
{ "type": "Feature", "properties": { "Id": 0, "Nama_Jalan": "Jl. Kompas", "Armada": 1.0, "kelurahan": "Tondo" }, "geometry": { "type": "LineString", "coordinates": [ [ 119.884033235030358, -0.844751723314943 ], [ 119.883468907476626, -0.844706243418084 ], [ 119.882936890602267, -0.844676039850385 ] ] } },
{ "type": "Feature", "properties": { "Id": 0, "Nama_Jalan": "Jl. Palawatika", "Armada": 1.0, "kelurahan": "Tondo" }, "geometry": { "type": "LineString", "coordinates": [ [ 119.883078699690898, -0.84374068460649 ], [ 119.883587967343757, -0.843839758253429 ], [ 119.884135221667648, -0.843921590207937 ], [ 119.884750821329646, -0.843930693188916 ], [ 119.884790723659648, -0.843934488520917 ], [ 119.884815445919443, -0.843965071205592 ], [ 119.884823076852726, -0.844007142093001 ], [ 119.884838320388027, -0.844066420441082 ], [ 119.884880152314309, -0.84411037833997 ], [ 119.884933367173048, -0.844131376863244 ], [ 119.885003674764249, -0.844142799749192 ], [ 119.885140482929032, -0.844156085500011 ], [ 119.885785769744032, -0.844197699102151 ] ] } },
{ "type": "Feature", "properties": { "Id": 0, "Nama_Jalan": "BTN Bumi Roviga", "Armada": 1.0, "kelurahan": "Tondo" }, "geometry": { "type": "MultiLineString", "coordinates": [ [ [ 119.904341370273343, -0.846870640574185 ], [ 119.903460281096287, -0.846885649605117 ] ], [ [ 119.904334046942452, -0.846605249022844 ], [ 119.904341370273343, -0.846870640574185 ] ], [ [ 119.904334046942452, -0.846605249022844 ], [ 119.905159333435094, -0.846601072450115 ], [ 119.905462127098033, -0.846587695194068 ], [ 119.905507266772673, -0.846609177161061 ], [ 119.905509828738815, -0.84686019571729 ], [ 119.904341370273343, -0.846870640574185 ] ], [ [ 119.904334046942452, -0.846605249022844 ], [ 119.903524212035251, -0.84662740839994 ], [ 119.903483833903891, -0.846621701239644 ], [ 119.903472392935043, -0.846566246194875 ], [ 119.903467013445265, -0.846358500535337 ] ], [ [ 119.903467013445265, -0.846358500535337 ], [ 119.903760113442573, -0.846352166621227 ] ], [ [ 119.903467013445265, -0.846358500535337 ], [ 119.903215986289439, -0.846363088683911 ], [ 119.903193167003096, -0.846336330317378 ], [ 119.903189313028861, -0.846263656664488 ], [ 119.903175155540936, -0.845529694028398 ], [ 119.903462784319203, -0.845526071006939 ] ], [ [ 119.903760113442573, -0.846352166621227 ], [ 119.904031177958942, -0.846346308877157 ] ], [ [ 119.904031177958942, -0.846346308877157 ], [ 119.904326725456073, -0.846339922032073 ] ], [ [ 119.905210169005841, -0.846344819387664 ], [ 119.905465509638603, -0.846346234825949 ], [ 119.905468443840164, -0.845502325596225 ] ], [ [ 119.904622349565784, -0.846341560842726 ], [ 119.905210169005841, -0.846344819387664 ] ], [ [ 119.904622349565784, -0.846341560842726 ], [ 119.904636041676667, -0.845511699690697 ] ], [ [ 119.904326725456073, -0.846339922032073 ], [ 119.904334046942452, -0.846605249022844 ] ], [ [ 119.904326725456073, -0.846339922032073 ], [ 119.904622349565784, -0.846341560842726 ] ], [ [ 119.903462784319203, -0.845526071006939 ], [ 119.903467013445265, -0.846358500535337 ] ], [ [ 119.903462784319203, -0.845526071006939 ], [ 119.903741797759778, -0.845522556486136 ] ], [ [ 119.903741797759778, -0.845522556486136 ], [ 119.903760113442573, -0.846352166621227 ] ], [ [ 119.903741797759778, -0.845522556486136 ], [ 119.904019623839702, -0.845519056902351 ] ], [ [ 119.904019623839702, -0.845519056902351 ], [ 119.904031177958942, -0.846346308877157 ] ], [ [ 119.904019623839702, -0.845519056902351 ], [ 119.904111267599475, -0.845517902524802 ] ], [ [ 119.904111267599475, -0.845517902524802 ], [ 119.90433086160121, -0.8455151364318 ] ], [ [ 119.90433086160121, -0.8455151364318 ], [ 119.904326725456073, -0.846339922032073 ] ], [ [ 119.90433086160121, -0.8455151364318 ], [ 119.904524518766507, -0.845512955592431 ] ], [ [ 119.904524518766507, -0.845512955592431 ], [ 119.904636041676667, -0.845511699690697 ] ], [ [ 119.904636041676667, -0.845511699690697 ], [ 119.905202321802449, -0.845505322547581 ] ], [ [ 119.905202321802449, -0.845505322547581 ], [ 119.905210169005841, -0.846344819387664 ] ], [ [ 119.905202321802449, -0.845505322547581 ], [ 119.905468443840164, -0.845502325596225 ] ], [ [ 119.903119440261293, -0.845238730732007 ], [ 119.904108805853539, -0.8452294580694 ] ], [ [ 119.904108805853539, -0.8452294580694 ], [ 119.904111267599475, -0.845517902524802 ] ], [ [ 119.905537658094119, -0.845227922833402 ], [ 119.905538384829669, -0.845501412224648 ], [ 119.905468443840164, -0.845502325596225 ] ], [ [ 119.904530142404468, -0.845228105431236 ], [ 119.904524518766507, -0.845512955592431 ] ], [ [ 119.904530142404468, -0.845228105431236 ], [ 119.905537658094119, -0.845227922833402 ] ], [ [ 119.903375725126992, -0.844958828644581 ], [ 119.903100232959872, -0.844959036047664 ], [ 119.903096161010524, -0.843952899001787 ], [ 119.903296598809646, -0.843944046223991 ], [ 119.903367791234814, -0.843943475370722 ] ], [ [ 119.903375725126992, -0.844958828644581 ], [ 119.903367791234814, -0.843943475370722 ] ], [ [ 119.903682091336876, -0.844958597975016 ], [ 119.903375725126992, -0.844958828644581 ] ], [ [ 119.903682091336876, -0.844958597975016 ], [ 119.903681264135017, -0.843940961787243 ] ], [ [ 119.903967083084908, -0.8449583833769 ], [ 119.903682091336876, -0.844958597975016 ] ], [ [ 119.903967083084908, -0.8449583833769 ], [ 119.903955527136517, -0.843938762588102 ] ], [ [ 119.904106491521929, -0.844958278395009 ], [ 119.903967083084908, -0.8449583833769 ] ], [ [ 119.904106491521929, -0.844958278395009 ], [ 119.904108805853539, -0.8452294580694 ] ], [ [ 119.904523965568401, -0.844949689319111 ], [ 119.904530142404468, -0.845228105431236 ] ], [ [ 119.904523965568401, -0.844949689319111 ], [ 119.904665421477048, -0.844948735191061 ] ], [ [ 119.904665421477048, -0.844948735191061 ], [ 119.90495742009098, -0.84494676562795 ] ], [ [ 119.90495742009098, -0.84494676562795 ], [ 119.905256818779364, -0.844944746128042 ] ], [ [ 119.905256818779364, -0.844944746128042 ], [ 119.905536900666732, -0.844942856902984 ] ], [ [ 119.905536900666732, -0.844942856902984 ], [ 119.905537658094119, -0.845227922833402 ] ], [ [ 119.905536900666732, -0.844942856902984 ], [ 119.905521540107486, -0.84392716785377 ], [ 119.905305781269504, -0.843931776859971 ], [ 119.905245110590869, -0.843932496338207 ] ], [ [ 119.90433552664868, -0.843943282754146 ], [ 119.904339941848704, -0.844950930561828 ], [ 119.904523965568401, -0.844949689319111 ] ], [ [ 119.90433552664868, -0.843943282754146 ], [ 119.904671600665836, -0.843939297401991 ] ], [ [ 119.90433552664868, -0.843943282754146 ], [ 119.904334222584538, -0.843645626939791 ], [ 119.904333332444438, -0.843566233329788 ], [ 119.905450497216535, -0.84356348064701 ] ], [ [ 119.903681264135017, -0.843940961787243 ], [ 119.903367791234814, -0.843943475370722 ] ], [ [ 119.904671600665836, -0.843939297401991 ], [ 119.904665421477048, -0.844948735191061 ] ], [ [ 119.904671600665836, -0.843939297401991 ], [ 119.904956555051086, -0.843935918232791 ] ], [ [ 119.903955527136517, -0.843938762588102 ], [ 119.903681264135017, -0.843940961787243 ] ], [ [ 119.904956555051086, -0.843935918232791 ], [ 119.90495742009098, -0.84494676562795 ] ], [ [ 119.904956555051086, -0.843935918232791 ], [ 119.905245110590869, -0.843932496338207 ] ], [ [ 119.904282948195117, -0.843936137112096 ], [ 119.903955527136517, -0.843938762588102 ] ], [ [ 119.904282948195117, -0.843936137112096 ], [ 119.904294823505637, -0.844958136563118 ], [ 119.904106491521929, -0.844958278395009 ] ], [ [ 119.904282948195117, -0.843936137112096 ], [ 119.904279600982008, -0.843648058686669 ], [ 119.904280134026592, -0.843566273328739 ], [ 119.903320660710108, -0.843565082073267 ] ], [ [ 119.905245110590869, -0.843932496338207 ], [ 119.905256818779364, -0.844944746128042 ] ] ] } },
{ "type": "Feature", "properties": { "Id": 0, "Nama_Jalan": "Jl. Roviga", "Armada": 1.0, "kelurahan": "Tondo" }, "geometry": { "type": "LineString", "coordinates": [ [ 119.891816945325232, -0.848590691975672 ], [ 119.890520835230376, -0.84862454002767 ], [ 119.885804180076292, -0.848666339208533 ], [ 119.882689436950017, -0.848717688740417 ] ] } },
{ "type": "Feature", "properties": { "Id": 0, "Nama_Jalan": "Perumahan Banua Tadulako", "Armada": 1.0, "kelurahan": "Tondo" }, "geometry": { "type": "MultiLineString", "coordinates": [ [ [ 119.888950609270509, -0.852138083190984 ], [ 119.889531921526768, -0.852163528131363 ], [ 119.889576925490672, -0.851525030087243 ] ], [ [ 119.888668216339525, -0.852125722376953 ], [ 119.888950609270509, -0.852138083190984 ] ], [ [ 119.888395462093484, -0.852113783441537 ], [ 119.888668216339525, -0.852125722376953 ] ], [ [ 119.888100789954947, -0.852094231991418 ], [ 119.888395462093484, -0.852113783441537 ] ], [ [ 119.887822810093496, -0.852075788045557 ], [ 119.888100789954947, -0.852094231991418 ] ], [ [ 119.886899156349713, -0.852014503499862 ], [ 119.887822810093496, -0.852075788045557 ] ], [ [ 119.887832236469862, -0.851633676343367 ], [ 119.887822810093496, -0.852075788045557 ] ], [ [ 119.888414048528816, -0.851559125235985 ], [ 119.888395462093484, -0.852113783441537 ] ], [ [ 119.889576925490672, -0.851525030087243 ], [ 119.889286115806087, -0.851508095870773 ] ], [ [ 119.889286115806087, -0.851508095870773 ], [ 119.889239789998527, -0.852149404640743 ] ], [ [ 119.889286115806087, -0.851508095870773 ], [ 119.889001005421719, -0.851491493505876 ] ], [ [ 119.888112384842572, -0.851501975934908 ], [ 119.888100789954947, -0.852094231991418 ] ], [ [ 119.889001005421719, -0.851491493505876 ], [ 119.888950609270509, -0.852138083190984 ] ], [ [ 119.889001005421719, -0.851491493505876 ], [ 119.889000646192244, -0.851491472587449 ], [ 119.888757160377736, -0.851463636400313 ], [ 119.888721542995725, -0.851473226113755 ], [ 119.888700203911185, -0.851521056361708 ], [ 119.888668216339525, -0.852125722376953 ] ], [ [ 119.889030025123304, -0.851119168709575 ], [ 119.889001005421719, -0.851491493505876 ] ], [ [ 119.889324415851974, -0.850977894910705 ], [ 119.889286115806087, -0.851508095870773 ] ], [ [ 119.889618875929756, -0.850929858608117 ], [ 119.889576925490672, -0.851525030087243 ] ] ] } },
{ "type": "Feature", "properties": { "Id": 0, "Nama_Jalan": "Perumahan Bukit Allya", "Armada": 1.0, "kelurahan": "Tondo" }, "geometry": { "type": "MultiLineString", "coordinates": [ [ [ 119.900798156462187, -0.825896255081025 ], [ 119.901235782239254, -0.825732408613279 ] ], [ [ 119.901235782239254, -0.825732408613279 ], [ 119.901731788511029, -0.825546704584053 ] ], [ [ 119.900719577513001, -0.825611821729653 ], [ 119.901181861972645, -0.825440031461287 ] ], [ [ 119.901731788511029, -0.825546704584053 ], [ 119.902244093483972, -0.825354898358992 ] ], [ [ 119.901181861972645, -0.825440031461287 ], [ 119.901235782239254, -0.825732408613279 ] ], [ [ 119.901181861972645, -0.825440031461287 ], [ 119.901636070053726, -0.825271242479731 ] ], [ [ 119.901636070053726, -0.825271242479731 ], [ 119.901731788511029, -0.825546704584053 ] ], [ [ 119.901636070053726, -0.825271242479731 ], [ 119.902144149042087, -0.825082434458277 ] ] ] } },
{ "type": "Feature", "properties": { "Id": 0, "Nama_Jalan": "Jl. Teluk Palu", "Armada": 1.0, "kelurahan": "Tondo" }, "geometry": { "type": "LineString", "coordinates": [ [ 119.883713791170351, -0.85682165668543 ], [ 119.885356301430505, -0.857103710480004 ], [ 119.885627086455756, -0.857153709940436 ], [ 119.886309476581474, -0.857523379319196 ], [ 119.887342318303851, -0.858109394386476 ], [ 119.888131202921059, -0.858524281046045 ], [ 119.88895572726129, -0.858932577434823 ], [ 119.889294602926796, -0.859046834160977 ], [ 119.889382014779173, -0.859063980656936 ], [ 119.889486517783951, -0.859069638743 ], [ 119.889594809228143, -0.859059993426745 ], [ 119.889775279606397, -0.859023517228761 ], [ 119.889894980939459, -0.859027251163336 ], [ 119.890073621757253, -0.859084491957823 ], [ 119.890470053695694, -0.859252257188462 ] ] } },
{ "type": "Feature", "properties": { "Id": 0, "Nama_Jalan": "BTN Rinda Permai", "Armada": 1.0, "kelurahan": "Tondo" }, "geometry": { "type": "LineString", "coordinates": [ [ 119.880251728315571, -0.85600521015759 ], [ 119.881275986374078, -0.856263417862416 ], [ 119.8813594518912, -0.855925067432891 ], [ 119.880323194851016, -0.855659457291931 ], [ 119.880458336810108, -0.855348082756633 ], [ 119.881406614635111, -0.855593131900454 ] ] } },
{ "type": "Feature", "properties": { "Id": 0, "Nama_Jalan": "Huntap Tondo Blok E", "Armada": 2.0, "kelurahan": "Tondo" }, "geometry": { "type": "LineString", "coordinates": [ [ 119.902362898730715, -0.83019442208555 ], [ 119.900334448997555, -0.830469136723841 ] ] } },
{ "type": "Feature", "properties": { "Id": 0, "Nama_Jalan": "Jl. Soekarno Hatta arah barat", "Armada": 2.0, "kelurahan": "Tondo" }, "geometry": { "type": "LineString", "coordinates": [ [ 119.890871472316832, -0.843401214563137 ], [ 119.890452342662101, -0.841860098243742 ], [ 119.890370126553975, -0.841480037773427 ], [ 119.889957697218918, -0.839357400045817 ], [ 119.889772279922965, -0.838316386106658 ], [ 119.889501038593494, -0.836829568968628 ], [ 119.889367690978773, -0.83635152677286 ], [ 119.889301115213186, -0.836246385087116 ], [ 119.889301048738261, -0.836155538312999 ], [ 119.88931046460624, -0.836040777450586 ], [ 119.889153112641253, -0.835213709751573 ], [ 119.888918255641528, -0.833948801369597 ], [ 119.888603963074701, -0.83285408975393 ], [ 119.887830361398045, -0.830461561095342 ], [ 119.887820221385795, -0.830397617090783 ] ] } },
{ "type": "Feature", "properties": { "Id": 0, "Nama_Jalan": "Lrg SMA 5", "Armada": 2.0, "kelurahan": "Tondo" }, "geometry": { "type": "LineString", "coordinates": [ [ 119.88431083688711, -0.841543917695706 ], [ 119.884335508380872, -0.841439870873015 ], [ 119.884375294017033, -0.841284922825835 ], [ 119.884394192582803, -0.841147203497712 ], [ 119.884384484745112, -0.84086414992244 ], [ 119.884397736811266, -0.840799112577438 ] ] } },
{ "type": "Feature", "properties": { "Id": 0, "Nama_Jalan": "Lrg Lapangan Kelinci", "Armada": 2.0, "kelurahan": "Tondo" }, "geometry": { "type": "LineString", "coordinates": [ [ 119.884662327419051, -0.837098526072082 ], [ 119.88467546500209, -0.836876657922417 ], [ 119.884882573271454, -0.8368918050539 ], [ 119.884888066248962, -0.836608740302025 ] ] } },
{ "type": "Feature", "properties": { "Id": 0, "Nama_Jalan": "Jl. Salu Tua", "Armada": 2.0, "kelurahan": "Tondo" }, "geometry": { "type": "LineString", "coordinates": [ [ 119.885710980712929, -0.833200904568878 ], [ 119.885696496992082, -0.833125987483075 ], [ 119.885720367353088, -0.831986316747778 ], [ 119.88573085306264, -0.831708986258124 ], [ 119.885709527839595, -0.83128680195642 ] ] } },
{ "type": "Feature", "properties": { "Id": 0, "Nama_Jalan": "Perdos Untad Blok B4", "Armada": 1.0, "kelurahan": "Tondo" }, "geometry": { "type": "LineString", "coordinates": [ [ 119.898574932083946, -0.844948846566577 ], [ 119.89899649757038, -0.84496645982338 ], [ 119.900066425217219, -0.844988605912608 ], [ 119.900984125069485, -0.845018594028131 ] ] } },
{ "type": "Feature", "properties": { "Id": 0, "Nama_Jalan": "Perdos Untad Blok B1", "Armada": 1.0, "kelurahan": "Tondo" }, "geometry": { "type": "LineString", "coordinates": [ [ 119.898589695534852, -0.84452078312654 ], [ 119.89978315887555, -0.844528896612434 ] ] } },
{ "type": "Feature", "properties": { "Id": 0, "Nama_Jalan": "Perdos Untad Blok B9", "Armada": 1.0, "kelurahan": "Tondo" }, "geometry": { "type": "LineString", "coordinates": [ [ 119.900607906194338, -0.845461195046458 ], [ 119.900534281956396, -0.847057030647528 ], [ 119.900172696919142, -0.847056705598808 ], [ 119.900175454407091, -0.846772809950188 ] ] } },
{ "type": "Feature", "properties": { "Id": 0, "Nama_Jalan": "Perdos Untad Blok 10", "Armada": 1.0, "kelurahan": "Tondo" }, "geometry": { "type": "LineString", "coordinates": [ [ 119.898492694379343, -0.847419563111003 ], [ 119.900143328188292, -0.8474840622831 ] ] } },
{ "type": "Feature", "properties": { "Id": 0, "Nama_Jalan": "Perdos Untad Blok 13", "Armada": 1.0, "kelurahan": "Tondo" }, "geometry": { "type": "LineString", "coordinates": [ [ 119.89849356427996, -0.847790716497493 ], [ 119.900114507945361, -0.847850456163128 ] ] } },
{ "type": "Feature", "properties": { "Id": 0, "Nama_Jalan": "BTN Graha Estetika", "Armada": 1.0, "kelurahan": "Tondo" }, "geometry": { "type": "LineString", "coordinates": [ [ 119.887228140496703, -0.841505411957901 ], [ 119.88722452494298, -0.841755961085685 ], [ 119.887501923558489, -0.841759579313757 ], [ 119.887526179847711, -0.841157102403383 ], [ 119.887782677265562, -0.841158823769918 ], [ 119.887775537653866, -0.841784238583075 ] ] } },
{ "type": "Feature", "properties": { "Id": 0, "Nama_Jalan": "Jl. Soekarno Hatta", "Armada": 1.0, "kelurahan": "Tondo" }, "geometry": { "type": "LineString", "coordinates": [ [ 119.890015336318982, -0.86140567239207 ], [ 119.890327571703423, -0.8597319413988 ], [ 119.891143683579358, -0.856984402618827 ], [ 119.891335560780732, -0.856324423136049 ], [ 119.891876175111534, -0.853566339585043 ], [ 119.891961196695334, -0.852927958255692 ], [ 119.892116547158267, -0.851055922738877 ], [ 119.891816945325232, -0.848590691975655 ], [ 119.891693043740617, -0.846839046597414 ], [ 119.8916571481532, -0.846473296352768 ], [ 119.891385430790862, -0.845161005398861 ], [ 119.890871472316832, -0.843401214563137 ] ] } },
{ "type": "Feature", "properties": { "Id": 0, "Nama_Jalan": "Lrg. Padat Karya", "Armada": 2.0, "kelurahan": "Tondo" }, "geometry": { "type": "LineString", "coordinates": [ [ 119.885709619720771, -0.833983524769098 ], [ 119.886208788405398, -0.833992717587181 ] ] } },
{ "type": "Feature", "properties": { "Id": 0, "Nama_Jalan": "Lokalisasi", "Armada": 1.0, "kelurahan": "Tondo" }, "geometry": { "type": "MultiLineString", "coordinates": [ [ [ 119.880252277851483, -0.85503379569017 ], [ 119.88048621666421, -0.855073885734281 ], [ 119.880902647103497, -0.853657931005637 ] ], [ [ 119.879992553861427, -0.854989286817892 ], [ 119.880252277851483, -0.85503379569017 ] ], [ [ 119.880471193887757, -0.854231073433548 ], [ 119.880252277851483, -0.85503379569017 ] ], [ [ 119.880471193887757, -0.854231073433548 ], [ 119.880152434617386, -0.854179249444198 ] ], [ [ 119.880152434617386, -0.854179249444198 ], [ 119.879992553861427, -0.854989286817892 ] ], [ [ 119.880158364412196, -0.854139286958158 ], [ 119.880155612276425, -0.854163149831352 ], [ 119.880152434617386, -0.854179249444198 ] ], [ [ 119.879749823040711, -0.854081105638894 ], [ 119.879716255571481, -0.854450488168065 ], [ 119.879666740804083, -0.854933452227919 ], [ 119.879992553861427, -0.854989286817892 ] ], [ [ 119.879749823040711, -0.854081105638894 ], [ 119.880158364412196, -0.854139286958158 ] ], [ [ 119.880902647103497, -0.853657931005637 ], [ 119.881069223716608, -0.853091535531114 ] ], [ [ 119.880642195185473, -0.853604046443555 ], [ 119.880471193887757, -0.854231073433548 ] ], [ [ 119.880642195185473, -0.853604046443555 ], [ 119.880902647103497, -0.853657931005637 ] ], [ [ 119.880227348630811, -0.853541148584252 ], [ 119.880158364412196, -0.854139286958158 ] ], [ [ 119.880227348630811, -0.853541148584252 ], [ 119.880642195185473, -0.853604046443555 ] ], [ [ 119.879805771487682, -0.853465441539995 ], [ 119.879749823040711, -0.854081105638894 ] ], [ [ 119.879805771487682, -0.853465441539995 ], [ 119.880227348630811, -0.853541148584252 ] ], [ [ 119.881076100493189, -0.853077186005388 ], [ 119.880798949249083, -0.853029262165055 ] ], [ [ 119.880798949249083, -0.853029262165055 ], [ 119.880642195185473, -0.853604046443555 ] ], [ [ 119.880798949249083, -0.853029262165055 ], [ 119.880309540776224, -0.852944635605966 ] ], [ [ 119.880309540776224, -0.852944635605966 ], [ 119.880227348630811, -0.853541148584252 ] ], [ [ 119.880309540776224, -0.852944635605966 ], [ 119.879864701409247, -0.852867715668295 ], [ 119.879805771487682, -0.853465441539995 ] ] ] } },
{ "type": "Feature", "properties": { "Id": 0, "Nama_Jalan": "Perdos Untad Blok B2", "Armada": 1.0, "kelurahan": "Tondo" }, "geometry": { "type": "LineString", "coordinates": [ [ 119.89978315887555, -0.844528896612434 ], [ 119.900982545343368, -0.844561464143857 ] ] } },
{ "type": "Feature", "properties": { "Id": 0, "Nama_Jalan": "Perdos Untad", "Armada": 1.0, "kelurahan": "Tondo" }, "geometry": { "type": "LineString", "coordinates": [ [ 119.89899649757038, -0.84496645982338 ], [ 119.89899642799665, -0.846062514307364 ] ] } },
{ "type": "Feature", "properties": { "Id": 0, "Nama_Jalan": "Perdos Untad", "Armada": 1.0, "kelurahan": "Tondo" }, "geometry": { "type": "LineString", "coordinates": [ [ 119.898996468842668, -0.845417020967794 ], [ 119.900607906194338, -0.845461195046458 ] ] } },
{ "type": "Feature", "properties": { "Id": 0, "Nama_Jalan": "Perdos Untad", "Armada": 1.0, "kelurahan": "Tondo" }, "geometry": { "type": "LineString", "coordinates": [ [ 119.898589695534852, -0.84452078312654 ], [ 119.898574932083946, -0.844948846566577 ], [ 119.898541622938183, -0.846058075251456 ], [ 119.898510252294685, -0.846988075807097 ] ] } },
{ "type": "Feature", "properties": { "Id": 0, "Nama_Jalan": "Perdos Untad Blok D2", "Armada": 1.0, "kelurahan": "Tondo" }, "geometry": { "type": "LineString", "coordinates": [ [ 119.895498090695966, -0.846943886433385 ], [ 119.896999765763255, -0.846960525271308 ], [ 119.898507896904334, -0.847014375130326 ] ] } },
{ "type": "Feature", "properties": { "Id": 0, "Nama_Jalan": "Perdos Untad Blok D4", "Armada": 1.0, "kelurahan": "Tondo" }, "geometry": { "type": "LineString", "coordinates": [ [ 119.898492694379343, -0.847419563111003 ], [ 119.898036264452372, -0.847376441429616 ], [ 119.896980572490676, -0.847338985868916 ], [ 119.895540726550507, -0.847295244801641 ] ] } },
{ "type": "Feature", "properties": { "Id": 0, "Nama_Jalan": "Perdos Untad Blok D3", "Armada": 1.0, "kelurahan": "Tondo" }, "geometry": { "type": "LineString", "coordinates": [ [ 119.895528844244453, -0.847604657179687 ], [ 119.896989966642622, -0.84766269109429 ] ] } },
{ "type": "Feature", "properties": { "Id": 0, "Nama_Jalan": "Perdos Untad Blok D8", "Armada": 1.0, "kelurahan": "Tondo" }, "geometry": { "type": "LineString", "coordinates": [ [ 119.895505859930196, -0.848034924451701 ], [ 119.897006859783616, -0.848076825460312 ], [ 119.898466923695381, -0.848164179691099 ] ] } },
{ "type": "Feature", "properties": { "Id": 0, "Nama_Jalan": "Perdos Untad Blok B13", "Armada": 1.0, "kelurahan": "Tondo" }, "geometry": { "type": "LineString", "coordinates": [ [ 119.898466923695381, -0.848164179691082 ], [ 119.899383081761144, -0.848195164948316 ], [ 119.900102646393591, -0.848137245420913 ] ] } },
{ "type": "Feature", "properties": { "Id": 0, "Nama_Jalan": "Perdos Untad", "Armada": 1.0, "kelurahan": "Tondo" }, "geometry": { "type": "LineString", "coordinates": [ [ 119.895485755011649, -0.848464666605512 ], [ 119.896953497794144, -0.848495834034825 ] ] } },
{ "type": "Feature", "properties": { "Id": 0, "Nama_Jalan": "Perdos Untad Blok D6", "Armada": 1.0, "kelurahan": "Tondo" }, "geometry": { "type": "LineString", "coordinates": [ [ 119.896989966642622, -0.84766269109429 ], [ 119.898472108563766, -0.847738195324614 ] ] } }
]
}
