{
"type": "FeatureCollection",
"name": "Ujuna",
"crs": { "type": "name", "properties": { "name": "urn:ogc:def:crs:OGC:1.3:CRS84" } },
"features": [
{ "type": "Feature", "properties": { "Id": 0, "Nama_Jalan": "Jl. Teuku Umar", "Armada": 21.0, "panjang": 0.223707560148, "kelurahan": "Ujuna" }, "geometry": { "type": "LineString", "coordinates": [ [ 119.861066801569009, -0.895333964408314 ], [ 119.861387419239364, -0.897329441831454 ] ] } },
{ "type": "Feature", "properties": { "Id": 0, "Nama_Jalan": "Jl. Sungai Lambangan", "Armada": 21.0, "panjang": 0.48819281622900002, "kelurahan": "Ujuna" }, "geometry": { "type": "MultiLineString", "coordinates": [ [ [ 119.863866846251526, -0.89539636670977 ], [ 119.864059731447952, -0.895213731624207 ] ], [ [ 119.863866846251526, -0.89539636670977 ], [ 119.863731952342064, -0.895254820373295 ], [ 119.863370718737571, -0.894963431840488 ], [ 119.863038046933241, -0.894750915739057 ] ], [ [ 119.861776407802125, -0.894612529984236 ], [ 119.861998880632939, -0.895410985390742 ], [ 119.862092879788037, -0.895648792354787 ], [ 119.862392099932919, -0.895601937095509 ], [ 119.863482420067797, -0.895823419829177 ], [ 119.863866846251526, -0.89539636670977 ] ] ] } },
{ "type": "Feature", "properties": { "Id": 0, "Nama_Jalan": "Jl. Sungai Lewara", "Armada": 21.0, "panjang": 0.20604577650799999, "kelurahan": "Ujuna" }, "geometry": { "type": "LineString", "coordinates": [ [ 119.861889907603612, -0.896089475030588 ], [ 119.86251590865551, -0.897841410717286 ] ] } },
{ "type": "Feature", "properties": { "Id": 0, "Nama_Jalan": "Jl. Sungai Malei", "Armada": 21.0, "panjang": 0.22973942247000001, "kelurahan": "Ujuna" }, "geometry": { "type": "LineString", "coordinates": [ [ 119.86315812771079, -0.898305309353135 ], [ 119.862752987151978, -0.900340764646712 ] ] } },
{ "type": "Feature", "properties": { "Id": 0, "Nama_Jalan": "Jl. Danau Poso", "Armada": 21.0, "panjang": 0.21136514826899999, "kelurahan": "Ujuna" }, "geometry": { "type": "LineString", "coordinates": [ [ 119.860882086114387, -0.900023076833674 ], [ 119.862752987151978, -0.900340764646712 ] ] } },
{ "type": "Feature", "properties": { "Id": 0, "Nama_Jalan": "Jl. Sungai Surumana", "Armada": 21.0, "panjang": 0.24670243100100001, "kelurahan": "Ujuna" }, "geometry": { "type": "LineString", "coordinates": [ [ 119.860840793528922, -0.900015711759385 ], [ 119.860822911251304, -0.9006620556242 ], [ 119.860739999979828, -0.90224729999989 ] ] } },
{ "type": "Feature", "properties": { "Id": 0, "Nama_Jalan": "Jl. Sungai Sausu", "Armada": 21.0, "panjang": 0.44775255017799998, "kelurahan": "Ujuna" }, "geometry": { "type": "LineString", "coordinates": [ [ 119.860739999979828, -0.90224729999989 ], [ 119.861421399979761, -0.902452699999871 ], [ 119.861501065867159, -0.90249237127463 ], [ 119.861521078049478, -0.902571250621313 ], [ 119.861509957788556, -0.902640068631482 ], [ 119.861376922117941, -0.903357403319273 ], [ 119.861415589324849, -0.90345001475374 ], [ 119.861517153710906, -0.903489142705341 ], [ 119.863642588126339, -0.903697449530336 ] ] } },
{ "type": "Feature", "properties": { "Id": 0, "Nama_Jalan": "Jl. Danau Lindu", "Armada": 21.0, "panjang": 0.30784617413299997, "kelurahan": "Ujuna" }, "geometry": { "type": "LineString", "coordinates": [ [ 119.861387419239364, -0.897329441831454 ], [ 119.86108076354266, -0.897940122527851 ], [ 119.861032288039254, -0.898119058544541 ], [ 119.860902426217493, -0.900026530687425 ] ] } },
{ "type": "Feature", "properties": { "Id": 0, "Nama_Jalan": "Jl. Sungai Kinore", "Armada": 21.0, "panjang": 0.190561789048, "kelurahan": "Ujuna" }, "geometry": { "type": "LineString", "coordinates": [ [ 119.86228648268083, -0.897199337018096 ], [ 119.862563689165398, -0.897106771654314 ], [ 119.863979747559952, -0.897022576550522 ] ] } },
{ "type": "Feature", "properties": { "Id": 0, "Nama_Jalan": "Jl. Sungai Wuno", "Armada": 21.0, "panjang": 0.23539699065399999, "kelurahan": "Ujuna" }, "geometry": { "type": "LineString", "coordinates": [ [ 119.864742089310838, -0.897163388729663 ], [ 119.864595648028228, -0.896985631875751 ], [ 119.864489192371863, -0.896916861997167 ], [ 119.864415086455438, -0.896911182605748 ], [ 119.864227186644868, -0.89717335784363 ], [ 119.863734027876191, -0.898266921373572 ], [ 119.863704244269087, -0.898433967314006 ] ] } },
{ "type": "Feature", "properties": { "Id": 0, "Nama_Jalan": "Jl. Sungai Bongka", "Armada": 21.0, "panjang": 0.370832348014, "kelurahan": "Ujuna" }, "geometry": { "type": "MultiLineString", "coordinates": [ [ [ 119.864216566661696, -0.897196907289289 ], [ 119.863979747559952, -0.897022576550522 ], [ 119.86371513299521, -0.896520725710901 ], [ 119.862914400688311, -0.896318060664114 ] ], [ [ 119.862914400688311, -0.896318060664114 ], [ 119.862078994899818, -0.896106619398248 ], [ 119.861889907603612, -0.896089475030555 ] ], [ [ 119.862914400688311, -0.896318060664114 ], [ 119.863036927889425, -0.895732924619014 ] ] ] } },
{ "type": "Feature", "properties": { "Id": 0, "Nama_Jalan": "Jl. Sungai Wera", "Armada": 21.0, "panjang": 0.51257085979899997, "kelurahan": "Ujuna" }, "geometry": { "type": "LineString", "coordinates": [ [ 119.863697199002587, -0.898484104737279 ], [ 119.864933560549133, -0.899107401065728 ], [ 119.864803153067442, -0.89938961347224 ], [ 119.864682307395796, -0.89975071336434 ], [ 119.864682423114829, -0.899898940220733 ], [ 119.864930197600131, -0.900883735954103 ], [ 119.865216261973671, -0.902236677310564 ] ] } },
{ "type": "Feature", "properties": { "Id": 0, "Nama_Jalan": "Jl. Sungai Gumbasa", "Armada": 21.0, "panjang": 0.22876389827099999, "kelurahan": "Ujuna" }, "geometry": { "type": "LineString", "coordinates": [ [ 119.863704244269087, -0.898433967314006 ], [ 119.863687415360289, -0.898553729751487 ], [ 119.8635370430557, -0.899883708538973 ], [ 119.863716760829192, -0.900463723994608 ] ] } },
{ "type": "Feature", "properties": { "Id": 0, "Nama_Jalan": "Jl. Sungai Moutong", "Armada": 21.0, "panjang": 0.36014215088200002, "kelurahan": "Ujuna" }, "geometry": { "type": "LineString", "coordinates": [ [ 119.862752987151978, -0.900340764646712 ], [ 119.862716300724244, -0.900589512536485 ], [ 119.862551222128147, -0.902093432239588 ], [ 119.862404464403724, -0.903575761697732 ] ] } },
{ "type": "Feature", "properties": { "Id": 0, "Nama_Jalan": "Jl. Sungai Lariang", "Armada": 2.0, "panjang": 0.56647728817599996, "kelurahan": "Ujuna" }, "geometry": { "type": "LineString", "coordinates": [ [ 119.863716760829192, -0.900463723994608 ], [ 119.863782666185898, -0.900622916319686 ], [ 119.863609127081048, -0.902240641525091 ], [ 119.863633999979641, -0.903273299999898 ], [ 119.86364371008888, -0.903752860196497 ], [ 119.863573376175225, -0.904620283606665 ], [ 119.86349121867309, -0.90555274519057 ] ] } },
{ "type": "Feature", "properties": { "Id": 0, "Nama_Jalan": "Lrg. Atena", "Armada": 2.0, "panjang": 0.110933036167, "kelurahan": "Ujuna" }, "geometry": { "type": "LineString", "coordinates": [ [ 119.862627656495576, -0.901397088199927 ], [ 119.862139659051422, -0.901358835206043 ], [ 119.861782389580057, -0.901280700999927 ], [ 119.86164178183779, -0.901275074459149 ] ] } },
{ "type": "Feature", "properties": { "Id": 0, "Nama_Jalan": "Lrg Polos", "Armada": 2.0, "panjang": 0.039791379060300003, "kelurahan": "Ujuna" }, "geometry": { "type": "LineString", "coordinates": [ [ 119.863733627470879, -0.900504464846674 ], [ 119.863952433308768, -0.900465503132847 ], [ 119.864087332398654, -0.90046061485284 ] ] } },
{ "type": "Feature", "properties": { "Id": 0, "Nama_Jalan": "Jl. S. Dolago", "Armada": 21.0, "panjang": 0.111459937578, "kelurahan": "Ujuna" }, "geometry": { "type": "LineString", "coordinates": [ [ 119.862752987151978, -0.900340764646712 ], [ 119.863536114882976, -0.900437380608908 ], [ 119.863649896983745, -0.900459285561056 ], [ 119.863697412929753, -0.900478374034679 ], [ 119.863733627470879, -0.900504464846674 ] ] } },
{ "type": "Feature", "properties": { "Id": 0, "Nama_Jalan": "Lrg. Cinta Damai", "Armada": 1.0, "panjang": 0.062746428220700007, "kelurahan": "Ujuna" }, "geometry": { "type": "LineString", "coordinates": [ [ 119.861501065867159, -0.90249237127463 ], [ 119.861555202564176, -0.902473680412946 ], [ 119.862061080439801, -0.902461803803379 ] ] } },
{ "type": "Feature", "properties": { "Id": 0, "Nama_Jalan": "Lrg. Polos", "Armada": 1.0, "panjang": 0.22862197121399999, "kelurahan": "Ujuna" }, "geometry": { "type": "LineString", "coordinates": [ [ 119.864059731447952, -0.895213731624207 ], [ 119.864271269302947, -0.895417974994998 ], [ 119.864308240381803, -0.895621160330727 ], [ 119.86457268140947, -0.896053201094426 ], [ 119.864515248420062, -0.896108711910774 ], [ 119.864228009087199, -0.896290635792975 ], [ 119.864182944543387, -0.896369566319574 ], [ 119.864167582959936, -0.89646759951449 ], [ 119.864118940977889, -0.896527406802995 ], [ 119.863764189037482, -0.896613762274412 ] ] } },
{ "type": "Feature", "properties": { "Id": 0, "Nama_Jalan": "Lrg. Wajib Senyum", "Armada": 1.0, "panjang": 0.047622184738300002, "kelurahan": "Ujuna" }, "geometry": { "type": "LineString", "coordinates": [ [ 119.862905354137496, -0.895109841061883 ], [ 119.863268912461592, -0.895336199206022 ] ] } }
]
}
