{
"type": "FeatureCollection",
"name": "Watusampu",
"crs": { "type": "name", "properties": { "name": "urn:ogc:def:crs:OGC:1.3:CRS84" } },
"features": [
{ "type": "Feature", "properties": { "Id": 0, "Nama_Jalan": "Jl. Taipa Java", "Armada": null, "kelurahan": "Watusampu" }, "geometry": { "type": "LineString", "coordinates": [ [ 119.810427291557872, -0.813981850260293 ], [ 119.810377022274864, -0.813988895274233 ], [ 119.81015561492984, -0.813983534042623 ], [ 119.809948958999527, -0.813952597766894 ], [ 119.809444163948427, -0.81383101752095 ], [ 119.809071231188412, -0.8137727027663 ], [ 119.80869591576473, -0.8137036306751 ], [ 119.808216095330152, -0.813634631781741 ], [ 119.807887110068918, -0.813588240359499 ], [ 119.807700660433497, -0.813583589313452 ], [ 119.807479778244669, -0.813588525900836 ], [ 119.807396644321969, -0.813581411541367 ], [ 119.807294507005437, -0.813570724182442 ], [ 119.807118715524425, -0.813523029833877 ], [ 119.806600826541114, -0.813358422100301 ], [ 119.806425001102085, -0.813261714660576 ], [ 119.806343038147006, -0.813230690635377 ], [ 119.806063917465607, -0.813166332352262 ], [ 119.805850119858974, -0.813112687246525 ], [ 119.805720660329058, -0.813090064517513 ], [ 119.805557950804655, -0.813069855936168 ], [ 119.805490255846962, -0.813063926121004 ], [ 119.804917736138833, -0.812895769643503 ], [ 119.804700374034766, -0.812839735984666 ], [ 119.804635054977226, -0.812834999916445 ], [ 119.804559058611403, -0.812845812056009 ], [ 119.804284797574411, -0.81294044381805 ] ] } },
{ "type": "Feature", "properties": { "Id": 0, "Nama_Jalan": "Jl. Malonda", "Armada": null, "kelurahan": "Watusampu" }, "geometry": { "type": "LineString", "coordinates": [ [ 119.81081943820304, -0.819067540403748 ], [ 119.810810269134649, -0.817838639637382 ], [ 119.810752942048538, -0.817372460379488 ], [ 119.8105559087616, -0.815808969874006 ], [ 119.810485135954124, -0.814790030526508 ], [ 119.810429127316425, -0.813996778905152 ], [ 119.810337406638766, -0.813250891499102 ], [ 119.810228510307496, -0.812395992271076 ], [ 119.810199876798109, -0.812204742616796 ], [ 119.809995398328994, -0.811199763304116 ], [ 119.809809997793494, -0.81030522859331 ], [ 119.809660362261212, -0.809610545572211 ], [ 119.809593678140061, -0.809347596123272 ], [ 119.80947179188432, -0.808939798248483 ], [ 119.809376573092877, -0.808628094796138 ], [ 119.809256642761994, -0.808301106920502 ], [ 119.809068266078114, -0.807911047579021 ], [ 119.808828769148022, -0.807555356639579 ], [ 119.808317571514678, -0.806928227208573 ], [ 119.807597317919516, -0.806059883377774 ], [ 119.807035360689852, -0.805357355479639 ], [ 119.806384999348992, -0.80458124900075 ], [ 119.805852530131503, -0.803931298439996 ], [ 119.8054683908681, -0.80346103890356 ], [ 119.804921815723603, -0.802674338467805 ] ] } },
{ "type": "Feature", "properties": { "Id": 0, "Nama_Jalan": null, "Armada": null, "kelurahan": "Watusampu" }, "geometry": { "type": "LineString", "coordinates": [ [ 119.809191782217098, -0.80816680445761 ], [ 119.80879455311856, -0.808253468077252 ], [ 119.808131930863311, -0.80830174717646 ], [ 119.80798702293086, -0.808263594094631 ], [ 119.807875402664422, -0.8082780170934 ], [ 119.807158410334026, -0.808701701758728 ], [ 119.807021667058223, -0.808793606736487 ], [ 119.806913418529959, -0.808875928364308 ], [ 119.806835547749131, -0.808923800188325 ], [ 119.806641804378415, -0.809019570331216 ], [ 119.805203848509464, -0.809621161553276 ], [ 119.804582737840931, -0.809941016373501 ], [ 119.804348624317541, -0.810047334792772 ], [ 119.803915549861813, -0.810261381741137 ], [ 119.8037018444533, -0.810341864461367 ], [ 119.803520902818207, -0.81040367545105 ], [ 119.803396940335801, -0.810431017973021 ], [ 119.803235912150541, -0.810438302898777 ], [ 119.803089128742371, -0.810436970699316 ], [ 119.802936662790501, -0.810461464028701 ], [ 119.802801307556564, -0.810500290750686 ], [ 119.802705840523615, -0.810519006219976 ], [ 119.802596002764886, -0.810535938542628 ], [ 119.802510505796363, -0.810546757135083 ], [ 119.802606654626175, -0.810483331601211 ], [ 119.802667201302285, -0.810455794195748 ], [ 119.80276217078206, -0.81040432393007 ], [ 119.802816767313445, -0.81035885902751 ], [ 119.802851173672948, -0.810311017314081 ], [ 119.802853515904729, -0.810263197949983 ], [ 119.802841601659821, -0.810207020418185 ], [ 119.802782134861303, -0.810077953975972 ], [ 119.802736936882667, -0.809975177334461 ], [ 119.802707187059227, -0.809886735245128 ], [ 119.802654826762989, -0.80973016861968 ], [ 119.802633405490681, -0.809664434144458 ], [ 119.802604883504188, -0.809634567917425 ], [ 119.802547875675842, -0.809627434951894 ], [ 119.802461201011383, -0.809652599621423 ], [ 119.80190327004496, -0.809976953475062 ], [ 119.801684877082579, -0.810149249576774 ], [ 119.801532976035375, -0.810304763184496 ] ] } },
{ "type": "Feature", "properties": { "Id": 0, "Nama_Jalan": null, "Armada": null, "kelurahan": "Watusampu" }, "geometry": { "type": "LineString", "coordinates": [ [ 119.803367504824038, -0.810432349637941 ], [ 119.803474733457975, -0.81070137286111 ], [ 119.803500431158994, -0.810768777901633 ], [ 119.80365180386697, -0.811226287687517 ], [ 119.803716316523705, -0.811439509583393 ], [ 119.80377825168911, -0.811703659097776 ], [ 119.803793740228443, -0.811776570261823 ], [ 119.80381879600634, -0.811946305566253 ], [ 119.803835447394206, -0.81198335264359 ], [ 119.803875835142122, -0.811998865175058 ], [ 119.803948278758583, -0.812002400885623 ], [ 119.804020957244816, -0.812002111015684 ], [ 119.804062528425405, -0.812011645505011 ], [ 119.80413287396216, -0.812416851177561 ], [ 119.804159805190963, -0.812550721846602 ], [ 119.8041664773028, -0.812582276848189 ], [ 119.804169357804483, -0.812626267096869 ], [ 119.804162805156622, -0.81276781200404 ], [ 119.804165706129922, -0.812841449197936 ], [ 119.804176179761541, -0.812874914245537 ], [ 119.804192343777601, -0.812894030008985 ], [ 119.804227515351229, -0.81292269600991 ], [ 119.804284797574411, -0.81294044381805 ] ] } },
{ "type": "Feature", "properties": { "Id": 0, "Nama_Jalan": null, "Armada": null, "kelurahan": "Watusampu" }, "geometry": { "type": "LineString", "coordinates": [ [ 119.809937121258585, -0.813949746640031 ], [ 119.809933083057203, -0.814277656217015 ] ] } },
{ "type": "Feature", "properties": { "Id": 0, "Nama_Jalan": null, "Armada": null, "kelurahan": "Watusampu" }, "geometry": { "type": "LineString", "coordinates": [ [ 119.810584639187951, -0.816036951503272 ], [ 119.810285488802137, -0.816073371457253 ], [ 119.810241331372339, -0.816101614816489 ], [ 119.810197177262253, -0.81613463991783 ], [ 119.81012741481878, -0.816229367531522 ], [ 119.810071871142355, -0.816278180409918 ], [ 119.810020598674853, -0.816321252193235 ], [ 119.809976435589135, -0.816341366604977 ], [ 119.809821134303817, -0.816385946149064 ], [ 119.809785506657619, -0.816384536705661 ], [ 119.809741317652296, -0.81636735353095 ], [ 119.809191342661464, -0.816512627561331 ], [ 119.809118678204058, -0.816532762047796 ], [ 119.808887895072132, -0.816644817397613 ], [ 119.808658578818623, -0.816817121785209 ], [ 119.808632954513229, -0.81685587199436 ], [ 119.808650084229797, -0.816897461151929 ], [ 119.808862592758075, -0.8171469187811 ], [ 119.809266214969497, -0.817618592855907 ], [ 119.809330391885226, -0.817688839290387 ], [ 119.809363211341548, -0.817750500680532 ], [ 119.809404616139659, -0.817862364347197 ], [ 119.809461736622296, -0.818031597872061 ], [ 119.809493187949855, -0.818175028060591 ], [ 119.809554713548735, -0.818530746519218 ], [ 119.809610234500255, -0.818688050661545 ], [ 119.809654095134974, -0.818915630763367 ], [ 119.80967507742487, -0.819032290524029 ], [ 119.809701905331906, -0.819357430225047 ], [ 119.809694376988688, -0.819460721232069 ] ] } },
{ "type": "Feature", "properties": { "Id": 0, "Nama_Jalan": null, "Armada": null, "kelurahan": "Watusampu" }, "geometry": { "type": "LineString", "coordinates": [ [ 119.808038733421057, -0.808277209048028 ], [ 119.808068125834623, -0.808351159221835 ], [ 119.808178060033811, -0.808648029395878 ], [ 119.808259462414398, -0.808900449117608 ], [ 119.808288061429465, -0.809042447180164 ], [ 119.808295253880047, -0.809139989881313 ], [ 119.808330888409571, -0.809151441233853 ], [ 119.808382178911174, -0.809134191164881 ], [ 119.808444895599195, -0.809154230780196 ], [ 119.808493375456408, -0.809194363671027 ], [ 119.808564762014967, -0.809387974745626 ], [ 119.808603325685624, -0.809514186030303 ], [ 119.80865905634586, -0.809736498486704 ], [ 119.808671960980192, -0.809851251461468 ], [ 119.808666364488232, -0.810001880469081 ], [ 119.808649305218907, -0.810062142420462 ], [ 119.808618046703529, -0.81019700957937 ], [ 119.808613800177326, -0.810238613765002 ], [ 119.808620965050579, -0.810295989754483 ], [ 119.808633828210475, -0.810350492713629 ], [ 119.808658090906675, -0.810403553184096 ], [ 119.808783627195055, -0.810592822745024 ], [ 119.808843556101593, -0.810703239262675 ], [ 119.808874968874392, -0.810792157830673 ], [ 119.808880703765183, -0.810842362180196 ], [ 119.808869363604046, -0.810929876101775 ], [ 119.808842367524448, -0.811046091460668 ], [ 119.80893395782779, -0.811605491957897 ], [ 119.808993980952749, -0.811852188154322 ], [ 119.809011144157537, -0.811942551175984 ], [ 119.809018307138246, -0.811997058086883 ], [ 119.809016919729089, -0.81205157098248 ], [ 119.809005568756959, -0.812123305145374 ], [ 119.808991369639998, -0.812197910352403 ], [ 119.808981443741217, -0.812269643520371 ], [ 119.808975786103929, -0.812331332030042 ], [ 119.808972993471883, -0.812414536399608 ], [ 119.808982556041585, -0.812504426563167 ], [ 119.809001623022723, -0.812600048164955 ], [ 119.80902448357547, -0.812686103610369 ], [ 119.809051152245175, -0.812783632578391 ], [ 119.80906451502014, -0.812873520069596 ], [ 119.809072219871766, -0.813024617892005 ], [ 119.809078090818289, -0.813271351947577 ], [ 119.809097149925179, -0.813355497339922 ], [ 119.809118093243058, -0.813416689021002 ], [ 119.809137144418884, -0.813489358219995 ], [ 119.809146205907922, -0.813541472909825 ], [ 119.809150528764292, -0.813610327037457 ], [ 119.809139185830816, -0.813693537395018 ], [ 119.809101640211168, -0.813777457766841 ] ] } },
{ "type": "Feature", "properties": { "Id": 0, "Nama_Jalan": null, "Armada": null, "kelurahan": "Watusampu" }, "geometry": { "type": "LineString", "coordinates": [ [ 119.81081943820304, -0.819067540403748 ], [ 119.810807082241709, -0.820037819774011 ], [ 119.810782451587784, -0.820478952742025 ], [ 119.810690759793019, -0.821820295897979 ], [ 119.810666174965633, -0.822325982412354 ], [ 119.810677001051346, -0.822523221538607 ], [ 119.810691369747204, -0.822691767703052 ], [ 119.810730770094111, -0.822992989395495 ], [ 119.810826059385832, -0.823399369659178 ], [ 119.810870783392815, -0.823671299351 ], [ 119.810900679785874, -0.823967148258517 ], [ 119.810899630180032, -0.824163798053033 ], [ 119.810874832418591, -0.824364648757284 ], [ 119.810832218826135, -0.824561925836457 ], [ 119.810668635653755, -0.824988812541587 ], [ 119.810519237755869, -0.825322445305168 ], [ 119.810412528962502, -0.8255663900923 ], [ 119.810231127607082, -0.825986117153301 ], [ 119.81018136869649, -0.826154709028102 ], [ 119.81014945343253, -0.826366323886762 ], [ 119.810156722559441, -0.82657073821115 ], [ 119.810214005427582, -0.826968777446535 ], [ 119.810275927982147, -0.827226331999886 ] ] } }
]
}
