{
"type": "FeatureCollection",
"name": "Kaisar",
"crs": { "type": "name", "properties": { "name": "urn:ogc:def:crs:OGC:1.3:CRS84" } },
"features": [
{ "type": "Feature", "properties": { "Id": 0, "Nama_Jalan": null, "Armada_Kel": "Palupi", "Kecamatan": null, "tipe_kendaraan": "Kaisar" }, "geometry": { "type": "LineString", "coordinates": [ [ 119.85562527126163, -0.928284587182792 ], [ 119.85565639083417, -0.928459876176866 ], [ 119.855686970107669, -0.928681715291147 ], [ 119.85576418507739, -0.928653250034965 ] ] } },
{ "type": "Feature", "properties": { "Id": 0, "Nama_Jalan": null, "Armada_Kel": "Palupi", "Kecamatan": null, "tipe_kendaraan": "Kaisar" }, "geometry": { "type": "LineString", "coordinates": [ [ 119.85614099253219, -0.928232962001518 ], [ 119.855980342665433, -0.928232536126087 ], [ 119.855916215197325, -0.928232366125018 ], [ 119.85589771486174, -0.928232317080668 ], [ 119.855695615847083, -0.928258301862504 ], [ 119.855637441609531, -0.928277475392493 ], [ 119.85562527126163, -0.928284587182792 ], [ 119.855510434029952, -0.928351692768963 ], [ 119.855470071966565, -0.928369656425298 ], [ 119.855313344118173, -0.928404450181371 ], [ 119.855253947766911, -0.928380590732176 ], [ 119.855214561177888, -0.928134372760816 ], [ 119.855196676079345, -0.928044733173948 ], [ 119.855149418591438, -0.927976450567836 ] ] } },
{ "type": "Feature", "properties": { "Id": 0, "Nama_Jalan": null, "Armada_Kel": "Palupi", "Kecamatan": null, "tipe_kendaraan": "Kaisar" }, "geometry": { "type": "LineString", "coordinates": [ [ 119.857019760360473, -0.926876193955541 ], [ 119.856988569386587, -0.926928093523126 ], [ 119.856936783420537, -0.927004293744469 ], [ 119.856860629916213, -0.927116349480193 ], [ 119.856837048162802, -0.927151048749525 ], [ 119.856732362759772, -0.927305087651088 ], [ 119.856594176183563, -0.927535741864478 ], [ 119.856585696309025, -0.927549896054768 ], [ 119.856353703016865, -0.927917566016097 ], [ 119.856276676899569, -0.928039079253726 ], [ 119.856257958562068, -0.928068608536616 ], [ 119.856163058078195, -0.928196831263779 ], [ 119.85614099253219, -0.928232962001518 ], [ 119.856136641307216, -0.928433637982716 ], [ 119.856126111727747, -0.928919262659873 ], [ 119.856125153244747, -0.928980570119618 ], [ 119.856119908302219, -0.929316056082302 ], [ 119.85611353855073, -0.929723497287146 ], [ 119.856112200497805, -0.929826317289623 ], [ 119.856110216330151, -0.929978787973509 ], [ 119.856091791746763, -0.930282998080528 ], [ 119.856088848527278, -0.930331593984674 ], [ 119.856077638673483, -0.93051668172939 ], [ 119.856066943442585, -0.930693272890419 ], [ 119.856059162767082, -0.930821741495967 ], [ 119.856027287373053, -0.931286212613942 ], [ 119.856008958784031, -0.931532817161912 ], [ 119.856005222792945, -0.931583083655961 ], [ 119.856004790580201, -0.931625463100503 ], [ 119.856003078657906, -0.931793322467793 ], [ 119.855999304781207, -0.932163371333233 ], [ 119.855998499976792, -0.932242288217828 ], [ 119.85599735404935, -0.932354655584657 ], [ 119.855995491998343, -0.932537246874103 ], [ 119.855990405570282, -0.933036032408682 ], [ 119.855989062821394, -0.933167708605247 ], [ 119.855987410224287, -0.933329771965842 ] ] } },
{ "type": "Feature", "properties": { "Id": 0, "Nama_Jalan": "Jl. Diponegoro Lrg. I", "Armada_Kel": "Lere", "Kecamatan": null, "tipe_kendaraan": "Kaisar" }, "geometry": { "type": "LineString", "coordinates": [ [ 119.848282201593918, -0.887685788205992 ], [ 119.848696595388162, -0.886752400952894 ], [ 119.848736476125538, -0.886725593180475 ], [ 119.848783498174853, -0.886719818831495 ], [ 119.849079954396288, -0.886781271390279 ], [ 119.849184007794037, -0.886814183612379 ], [ 119.849219608624338, -0.886781163109069 ], [ 119.849253683434966, -0.886616172200141 ], [ 119.849279311160842, -0.886586028383173 ], [ 119.849330600632229, -0.886570209411498 ], [ 119.850043173424012, -0.886637077166487 ] ] } },
{ "type": "Feature", "properties": { "Id": 0, "Nama_Jalan": "Jl. Mokololembake Lrg. I", "Armada_Kel": "Lere", "Kecamatan": null, "tipe_kendaraan": "Kaisar" }, "geometry": { "type": "LineString", "coordinates": [ [ 119.847808176952384, -0.888550691194294 ], [ 119.849002444221, -0.889253118191724 ], [ 119.849133599654593, -0.889319958337123 ], [ 119.849211543529961, -0.889373929577971 ], [ 119.849262879243668, -0.889418358344397 ], [ 119.849291416456438, -0.889465673784881 ], [ 119.849298583516699, -0.889520178212799 ], [ 119.848767712015501, -0.890393229672642 ], [ 119.848656215728909, -0.890565453404659 ], [ 119.848631569383869, -0.890662244771053 ], [ 119.848592281590243, -0.890816536236127 ], [ 119.848476082957291, -0.891050924265412 ] ] } },
{ "type": "Feature", "properties": { "Id": 0, "Nama_Jalan": "Jl. Datu Adam Lrg. I", "Armada_Kel": "Lere", "Kecamatan": null, "tipe_kendaraan": "Kaisar" }, "geometry": { "type": "LineString", "coordinates": [ [ 119.847332641584202, -0.891860425590377 ], [ 119.846328776541043, -0.891886151354322 ] ] } },
{ "type": "Feature", "properties": { "Id": 0, "Nama_Jalan": "Jl. Kelapa II Lrg. I", "Armada_Kel": "Lere", "Kecamatan": null, "tipe_kendaraan": "Kaisar" }, "geometry": { "type": "LineString", "coordinates": [ [ 119.843174905079437, -0.89066020605974 ], [ 119.842847962015853, -0.890580131580127 ], [ 119.842574817766589, -0.890568389770759 ], [ 119.842558298471744, -0.8907070692139 ], [ 119.841950253765901, -0.890678851942655 ] ] } },
{ "type": "Feature", "properties": { "Id": 0, "Nama_Jalan": "Jl. Samudra II Lrg. IV", "Armada_Kel": "Lere", "Kecamatan": null, "tipe_kendaraan": "Kaisar" }, "geometry": { "type": "LineString", "coordinates": [ [ 119.842498341516716, -0.886845969699496 ], [ 119.842865540430338, -0.887022444809796 ], [ 119.843531818269639, -0.887109193409944 ] ] } },
{ "type": "Feature", "properties": { "Id": 0, "Nama_Jalan": "Jl. Samudra II Lrg. III", "Armada_Kel": "Lere", "Kecamatan": null, "tipe_kendaraan": "Kaisar" }, "geometry": { "type": "LineString", "coordinates": [ [ 119.842857875429516, -0.886170648531179 ], [ 119.843182759324364, -0.886408619814965 ], [ 119.843494994263423, -0.886603467738348 ], [ 119.843804824884259, -0.886760064572523 ], [ 119.844135601491828, -0.886975936930603 ] ] } },
{ "type": "Feature", "properties": { "Id": 0, "Nama_Jalan": "Jl. Samudra II Lrg. II", "Armada_Kel": "Lere", "Kecamatan": null, "tipe_kendaraan": "Kaisar" }, "geometry": { "type": "LineString", "coordinates": [ [ 119.842864089630325, -0.886158976254647 ], [ 119.842283234414055, -0.885837076403837 ], [ 119.841447332821971, -0.885383469037086 ] ] } },
{ "type": "Feature", "properties": { "Id": 0, "Nama_Jalan": "Jl. Samudra II Lrg. I", "Armada_Kel": "Lere", "Kecamatan": null, "tipe_kendaraan": "Kaisar" }, "geometry": { "type": "LineString", "coordinates": [ [ 119.843321388779742, -0.885405667884508 ], [ 119.843320258050611, -0.885405136081021 ], [ 119.842985216677036, -0.885247559680425 ], [ 119.842801100298999, -0.885185540992847 ], [ 119.842682326048376, -0.885159333874391 ], [ 119.842554062380373, -0.885147478895732 ], [ 119.842181110293367, -0.885064088688081 ], [ 119.841620556344509, -0.885020291463931 ] ] } },
{ "type": "Feature", "properties": { "Id": 0, "Nama_Jalan": "Jl. Lasoso Lrg. VI", "Armada_Kel": "Lere", "Kecamatan": null, "tipe_kendaraan": "Kaisar" }, "geometry": { "type": "LineString", "coordinates": [ [ 119.83971590232305, -0.886724953297979 ], [ 119.83972220911032, -0.886728877043077 ], [ 119.83981595452164, -0.88649320655472 ], [ 119.839886527008829, -0.886223946913492 ], [ 119.839912754913087, -0.885734288936693 ], [ 119.839896515423689, -0.88561762998257 ], [ 119.839903435307505, -0.885347941363529 ] ] } },
{ "type": "Feature", "properties": { "Id": 0, "Nama_Jalan": "Jl. Kelapa II Lrg. II", "Armada_Kel": "Lere", "Kecamatan": null, "tipe_kendaraan": "Kaisar" }, "geometry": { "type": "LineString", "coordinates": [ [ 119.84284154718101, -0.891293808362122 ], [ 119.843084051214873, -0.891361142867296 ], [ 119.843467412282493, -0.891389534330436 ], [ 119.843697344506879, -0.89142043589271 ], [ 119.84411540953279, -0.89148514042053 ] ] } },
{ "type": "Feature", "properties": { "Id": 0, "Nama_Jalan": "Lrg. Kelapa II", "Armada_Kel": "Lere", "Kecamatan": null, "tipe_kendaraan": "Kaisar" }, "geometry": { "type": "LineString", "coordinates": [ [ 119.84411540953279, -0.89148514042053 ], [ 119.844077680047391, -0.890911138589975 ], [ 119.84406766412117, -0.890548701026595 ] ] } },
{ "type": "Feature", "properties": { "Id": 0, "Nama_Jalan": "Jl. Lasoso Lrg. I", "Armada_Kel": "Lere", "Kecamatan": null, "tipe_kendaraan": "Kaisar" }, "geometry": { "type": "LineString", "coordinates": [ [ 119.845641021546342, -0.890276742239795 ], [ 119.845566300585702, -0.890493982038275 ], [ 119.845552255985794, -0.890762240425047 ], [ 119.845515445906059, -0.891076419842242 ], [ 119.845489819252563, -0.891107998309555 ], [ 119.845448499429878, -0.891116637332882 ], [ 119.845077949074152, -0.891068153363065 ], [ 119.845052305886057, -0.891078214666332 ], [ 119.845029520506941, -0.891098315100012 ], [ 119.844993892055385, -0.891095473860448 ], [ 119.84406766412117, -0.890548701026595 ] ] } },
{ "type": "Feature", "properties": { "Id": 0, "Nama_Jalan": "Telkom Juanda", "Armada_Kel": "Besusu Timur", "Kecamatan": null, "tipe_kendaraan": "Kaisar" }, "geometry": { "type": "LineString", "coordinates": [ [ 119.880012794766159, -0.897044869559719 ], [ 119.8800169977265, -0.896167750233714 ] ] } },
{ "type": "Feature", "properties": { "Id": 0, "Nama_Jalan": "Jl. Thamrin Lrg samping MAN 2", "Armada_Kel": "Besusu Timur", "Kecamatan": null, "tipe_kendaraan": "Kaisar" }, "geometry": { "type": "LineString", "coordinates": [ [ 119.881091105721069, -0.895529922231705 ], [ 119.881092674435138, -0.895190212717159 ] ] } },
{ "type": "Feature", "properties": { "Id": 0, "Nama_Jalan": "Jl. Thamrin Lrg. Islam II", "Armada_Kel": "Besusu Timur", "Kecamatan": null, "tipe_kendaraan": "Kaisar" }, "geometry": { "type": "LineString", "coordinates": [ [ 119.882347915119695, -0.895639105426029 ], [ 119.882389901016893, -0.896399607249444 ] ] } },
{ "type": "Feature", "properties": { "Id": 0, "Nama_Jalan": "Jl. Slamet Riyadi Lrg. I", "Armada_Kel": "Besusu Timur", "Kecamatan": null, "tipe_kendaraan": "Kaisar" }, "geometry": { "type": "LineString", "coordinates": [ [ 119.879029682163008, -0.894709819182938 ], [ 119.879053045254707, -0.894357457176544 ], [ 119.878647049308611, -0.894382591916834 ] ] } },
{ "type": "Feature", "properties": { "Id": 0, "Nama_Jalan": "Jl. Slamet Riyadi Lrg. IV", "Armada_Kel": "Besusu Timur", "Kecamatan": null, "tipe_kendaraan": "Kaisar" }, "geometry": { "type": "LineString", "coordinates": [ [ 119.880566251569078, -0.89240887484444 ], [ 119.880853198932058, -0.892408590972366 ], [ 119.880851804860058, -0.892381098755078 ], [ 119.881238934098278, -0.892384379395144 ] ] } },
{ "type": "Feature", "properties": { "Id": 0, "Nama_Jalan": "Lrg. Otista IV (Lrg. Nauli)", "Armada_Kel": "Besusu Timur", "Kecamatan": null, "tipe_kendaraan": "Kaisar" }, "geometry": { "type": "LineString", "coordinates": [ [ 119.881489735167591, -0.89311883687981 ], [ 119.88151962161588, -0.892727555122946 ], [ 119.881557086303616, -0.892416592059454 ], [ 119.881601692544578, -0.891983577447494 ] ] } },
{ "type": "Feature", "properties": { "Id": 0, "Nama_Jalan": "Jl. Otista Lrg. II", "Armada_Kel": "Besusu Timur", "Kecamatan": null, "tipe_kendaraan": "Kaisar" }, "geometry": { "type": "LineString", "coordinates": [ [ 119.881904315178488, -0.89265321875266 ], [ 119.882115459542845, -0.89266106096757 ], [ 119.882136566405649, -0.892316780549018 ], [ 119.882156289688581, -0.892025575228831 ] ] } },
{ "type": "Feature", "properties": { "Id": 0, "Nama_Jalan": "Jl. Otista Lrg, III", "Armada_Kel": "Besusu Timur", "Kecamatan": null, "tipe_kendaraan": "Kaisar" }, "geometry": { "type": "LineString", "coordinates": [ [ 119.882170054012491, -0.891991138421756 ], [ 119.882231980319716, -0.891538864253258 ], [ 119.882321276817706, -0.89085984945183 ] ] } },
{ "type": "Feature", "properties": { "Id": 0, "Nama_Jalan": "Jl. Otista IV Lrg. Algaratma", "Armada_Kel": "Besusu Timur", "Kecamatan": null, "tipe_kendaraan": "Kaisar" }, "geometry": { "type": "LineString", "coordinates": [ [ 119.881200381075317, -0.891283594155509 ], [ 119.880655512114004, -0.891203595383258 ] ] } },
{ "type": "Feature", "properties": { "Id": 0, "Nama_Jalan": "Jl. Setia Budi Lrg. Obsesi", "Armada_Kel": "Besusu Timur", "Kecamatan": null, "tipe_kendaraan": "Kaisar" }, "geometry": { "type": "LineString", "coordinates": [ [ 119.87842685512814, -0.890671170125583 ], [ 119.878955592002455, -0.890746779220618 ], [ 119.879196473925802, -0.89081831144576 ] ] } },
{ "type": "Feature", "properties": { "Id": 0, "Nama_Jalan": "Lrg. Siswa", "Armada_Kel": "Besusu Timur", "Kecamatan": null, "tipe_kendaraan": "Kaisar" }, "geometry": { "type": "LineString", "coordinates": [ [ 119.880066671615779, -0.890320807210932 ], [ 119.879704889206366, -0.890291595829172 ], [ 119.879653618683207, -0.890329887780061 ], [ 119.879461692575688, -0.890297524906878 ], [ 119.878971413027898, -0.890198456335059 ], [ 119.878846023530187, -0.890212899316652 ], [ 119.878492583083798, -0.890163450125589 ] ] } },
{ "type": "Feature", "properties": { "Id": 0, "Nama_Jalan": "Lrg. Anutapura II", "Armada_Kel": "Besusu Timur", "Kecamatan": null, "tipe_kendaraan": "Kaisar" }, "geometry": { "type": "LineString", "coordinates": [ [ 119.880004680306286, -0.891902589081172 ], [ 119.879995862496202, -0.891558331625861 ], [ 119.879977602735195, -0.891288672224528 ], [ 119.879976581364843, -0.891196869185768 ], [ 119.880031148134563, -0.890668714595073 ], [ 119.88011349837052, -0.890123804046861 ], [ 119.880078275470922, -0.890030115342645 ], [ 119.880111919109723, -0.889798712001055 ], [ 119.880235120661268, -0.889001488911761 ] ] } },
{ "type": "Feature", "properties": { "Id": 0, "Nama_Jalan": "Jl. Ki Hajar Lrg. II", "Armada_Kel": "Besusu Timur", "Kecamatan": null, "tipe_kendaraan": "Kaisar" }, "geometry": { "type": "LineString", "coordinates": [ [ 119.882355770543484, -0.890246805730949 ], [ 119.882472498152396, -0.890088926301316 ], [ 119.882567862240506, -0.889945886180503 ], [ 119.882588641180007, -0.889789994905233 ], [ 119.882586699578056, -0.889736444314781 ], [ 119.882565769831544, -0.889698209274 ] ] } },
{ "type": "Feature", "properties": { "Id": 0, "Nama_Jalan": "Lrg. Senia", "Armada_Kel": "Besusu Timur", "Kecamatan": null, "tipe_kendaraan": "Kaisar" }, "geometry": { "type": "LineString", "coordinates": [ [ 119.883891504348739, -0.892184844306594 ], [ 119.884008508212631, -0.891772401125907 ], [ 119.884122694723047, -0.8914017499702 ], [ 119.884181439902946, -0.891202796033445 ], [ 119.884201362371329, -0.891167397719135 ] ] } },
{ "type": "Feature", "properties": { "Id": 0, "Nama_Jalan": "Lrg. Pusalemba", "Armada_Kel": "Besusu Timur", "Kecamatan": null, "tipe_kendaraan": "Kaisar" }, "geometry": { "type": "LineString", "coordinates": [ [ 119.884171667964651, -0.892404718611698 ], [ 119.884342086379604, -0.891900833975994 ], [ 119.884379040667952, -0.891777922010347 ], [ 119.884432074586087, -0.891564628308724 ], [ 119.884460202393555, -0.891391637835832 ], [ 119.884463662974682, -0.89126074342596 ] ] } },
{ "type": "Feature", "properties": { "Id": 0, "Nama_Jalan": "Bantaran Sungai Pondoh", "Armada_Kel": "Besusu Timur", "Kecamatan": null, "tipe_kendaraan": "Kaisar" }, "geometry": { "type": "LineString", "coordinates": [ [ 119.884463662974682, -0.89126074342596 ], [ 119.884201362371329, -0.891167397719135 ], [ 119.883777771566358, -0.891009190103564 ], [ 119.88339103685415, -0.890828118004215 ], [ 119.883234885348926, -0.890755006657622 ], [ 119.883157667059905, -0.890715620663973 ], [ 119.883123209986948, -0.890690545275887 ], [ 119.883050715673278, -0.890617685488625 ], [ 119.883003157970791, -0.890543610683463 ], [ 119.882923478245132, -0.890393058174213 ], [ 119.882838871092432, -0.890014195853383 ], [ 119.882800298879772, -0.889659901726234 ], [ 119.882724053691732, -0.889344386788293 ] ] } },
{ "type": "Feature", "properties": { "Id": 0, "Nama_Jalan": "Lrg. Bomas", "Armada_Kel": "Besusu Timur", "Kecamatan": null, "tipe_kendaraan": "Kaisar" }, "geometry": { "type": "LineString", "coordinates": [ [ 119.884882131661286, -0.892913626207967 ], [ 119.884908166219006, -0.892797655966603 ], [ 119.884991091727827, -0.892541783970563 ] ] } },
{ "type": "Feature", "properties": { "Id": 0, "Nama_Jalan": "Lingkar Dalam Palu Plaza", "Armada_Kel": "Siranindi", "Kecamatan": null, "tipe_kendaraan": "Kaisar" }, "geometry": { "type": "LineString", "coordinates": [ [ 119.860975593142044, -0.898657358096792 ], [ 119.860508113406112, -0.898612411913634 ], [ 119.860194063826228, -0.89858221734078 ], [ 119.860167269750775, -0.898579641199197 ], [ 119.859869306379565, -0.898638635234509 ], [ 119.859706579394356, -0.898670853691978 ], [ 119.859466637155961, -0.898592147566904 ] ] } },
{ "type": "Feature", "properties": { "Id": 0, "Nama_Jalan": "Lingkar dalam Palu Plaza", "Armada_Kel": "Siranindi", "Kecamatan": null, "tipe_kendaraan": "Kaisar" }, "geometry": { "type": "LineString", "coordinates": [ [ 119.860508113406112, -0.898612411913634 ], [ 119.860402431254045, -0.899937524049569 ] ] } },
{ "type": "Feature", "properties": { "Id": 0, "Nama_Jalan": "Lingkar dalam Palu Plaza", "Armada_Kel": "Siranindi", "Kecamatan": null, "tipe_kendaraan": "Kaisar" }, "geometry": { "type": "LineString", "coordinates": [ [ 119.859869306379565, -0.898638635234509 ], [ 119.85966432536199, -0.899309222009607 ], [ 119.859524670366937, -0.899758753369234 ] ] } },
{ "type": "Feature", "properties": { "Id": 0, "Nama_Jalan": "Lingkar dalam Palu Plaza", "Armada_Kel": "Siranindi", "Kecamatan": null, "tipe_kendaraan": "Kaisar" }, "geometry": { "type": "LineString", "coordinates": [ [ 119.860194063826228, -0.89858221734078 ], [ 119.860108559847717, -0.899435582030596 ], [ 119.859928042446811, -0.8994189891638 ], [ 119.85966432536199, -0.899309222009607 ] ] } },
{ "type": "Feature", "properties": { "Id": 0, "Nama_Jalan": "SD Negri 02 dan SD Negri 04", "Armada_Kel": "Siranindi", "Kecamatan": null, "tipe_kendaraan": "Kaisar" }, "geometry": { "type": "LineString", "coordinates": [ [ 119.855737481748065, -0.901884628282617 ], [ 119.855970145325216, -0.901936528259801 ], [ 119.85621812472543, -0.901965021525642 ], [ 119.856245098646696, -0.901834463890581 ], [ 119.856017060878102, -0.901794479115449 ], [ 119.855993788272571, -0.90191076011802 ] ] } },
{ "type": "Feature", "properties": { "Id": 0, "Nama_Jalan": "Lrg. Santigi I", "Armada_Kel": "Lolu Selatan", "Kecamatan": null, "tipe_kendaraan": "Kaisar" }, "geometry": { "type": "LineString", "coordinates": [ [ 119.876289187262358, -0.905513595793613 ], [ 119.875509014081189, -0.905544103465428 ] ] } },
{ "type": "Feature", "properties": { "Id": 0, "Nama_Jalan": "Lrg. Santigi II", "Armada_Kel": "Lolu Selatan", "Kecamatan": null, "tipe_kendaraan": "Kaisar" }, "geometry": { "type": "LineString", "coordinates": [ [ 119.876248378582488, -0.905341331959066 ], [ 119.875889333217856, -0.905416209747804 ], [ 119.875725934288567, -0.90542016548757 ], [ 119.87572911404709, -0.905535496753565 ] ] } },
{ "type": "Feature", "properties": { "Id": 0, "Nama_Jalan": "Lrg. Santigi I", "Armada_Kel": "Lolu Selatan", "Kecamatan": null, "tipe_kendaraan": "Kaisar" }, "geometry": { "type": "LineString", "coordinates": [ [ 119.87572911404709, -0.905535496753565 ], [ 119.875715720992687, -0.905720449831535 ], [ 119.875705581728781, -0.906114450892404 ] ] } },
{ "type": "Feature", "properties": { "Id": 0, "Nama_Jalan": "Lrg. Santigi III", "Armada_Kel": "Lolu Selatan", "Kecamatan": null, "tipe_kendaraan": "Kaisar" }, "geometry": { "type": "LineString", "coordinates": [ [ 119.876005893566358, -0.904896371177806 ], [ 119.875671531847416, -0.904950190644886 ] ] } },
{ "type": "Feature", "properties": { "Id": 0, "Nama_Jalan": "Lrg. Wolter Monginsidi I", "Armada_Kel": "Lolu Selatan", "Kecamatan": null, "tipe_kendaraan": "Kaisar" }, "geometry": { "type": "LineString", "coordinates": [ [ 119.874925042303317, -0.905229426957971 ], [ 119.875242748910409, -0.905137368985956 ], [ 119.875573334846663, -0.905114153897414 ] ] } },
{ "type": "Feature", "properties": { "Id": 0, "Nama_Jalan": "Lrg. Wolter Monginsidi II", "Armada_Kel": "Lolu Selatan", "Kecamatan": null, "tipe_kendaraan": "Kaisar" }, "geometry": { "type": "LineString", "coordinates": [ [ 119.874983617299719, -0.905418726427297 ], [ 119.875272835978194, -0.905342470009246 ], [ 119.875317008130622, -0.905338131399643 ] ] } },
{ "type": "Feature", "properties": { "Id": 0, "Nama_Jalan": "Lrg. Wolter Monginsidi III", "Armada_Kel": "Lolu Selatan", "Kecamatan": null, "tipe_kendaraan": "Kaisar" }, "geometry": { "type": "LineString", "coordinates": [ [ 119.874196093260679, -0.90305144982156 ], [ 119.873892615109298, -0.903116241457949 ], [ 119.873599093961403, -0.903158074083958 ], [ 119.873606301368653, -0.903262782686059 ], [ 119.873562129164881, -0.90326712120042 ], [ 119.873563636505494, -0.903371834346116 ], [ 119.873064554365257, -0.903328415617831 ], [ 119.873085815976808, -0.903183758943536 ], [ 119.873102634165321, -0.902995892472608 ] ] } },
{ "type": "Feature", "properties": { "Id": 0, "Nama_Jalan": "Lrg. Woodward Pasoso I", "Armada_Kel": "Lolu Selatan", "Kecamatan": null, "tipe_kendaraan": "Kaisar" }, "geometry": { "type": "LineString", "coordinates": [ [ 119.872798842005594, -0.904574776609506 ], [ 119.872635357202071, -0.903866291512749 ], [ 119.872611982236094, -0.903739600891537 ], [ 119.872614512040556, -0.903332216694951 ], [ 119.872405014893133, -0.903307997961076 ], [ 119.872348922758803, -0.903255446320916 ], [ 119.871991725083802, -0.903265293668822 ], [ 119.871995640104103, -0.90341160395053 ], [ 119.872020602206248, -0.90344242464343 ], [ 119.872026505035208, -0.903700380976726 ] ] } },
{ "type": "Feature", "properties": { "Id": 0, "Nama_Jalan": "Lrg. Woodward Pasoso", "Armada_Kel": "Lolu Selatan", "Kecamatan": null, "tipe_kendaraan": "Kaisar" }, "geometry": { "type": "LineString", "coordinates": [ [ 119.873078691659273, -0.903486910388386 ], [ 119.873083238424258, -0.903330041079495 ], [ 119.873042463366602, -0.903324368954941 ], [ 119.872614446056616, -0.903342842052003 ] ] } },
{ "type": "Feature", "properties": { "Id": 0, "Nama_Jalan": "Lrg. Woodward Pasoso", "Armada_Kel": "Lolu Selatan", "Kecamatan": null, "tipe_kendaraan": "Kaisar" }, "geometry": { "type": "LineString", "coordinates": [ [ 119.870657870477615, -0.903192128883305 ], [ 119.870686624415612, -0.903514856520434 ], [ 119.870511363515902, -0.903536512721175 ] ] } },
{ "type": "Feature", "properties": { "Id": 0, "Nama_Jalan": "Lrg. Pancasila", "Armada_Kel": "Lolu Selatan", "Kecamatan": null, "tipe_kendaraan": "Kaisar" }, "geometry": { "type": "LineString", "coordinates": [ [ 119.87002417695102, -0.904661626886584 ], [ 119.869497987540697, -0.904814097620724 ], [ 119.869398192950186, -0.904759668095511 ], [ 119.869051864350865, -0.904800188255958 ], [ 119.868612967775618, -0.904814882364035 ], [ 119.868078225755724, -0.904803030481777 ] ] } },
{ "type": "Feature", "properties": { "Id": 0, "Nama_Jalan": "Lrg. P. Halmahera III", "Armada_Kel": "Lolu Selatan", "Kecamatan": null, "tipe_kendaraan": "Kaisar" }, "geometry": { "type": "LineString", "coordinates": [ [ 119.868078777769895, -0.904792055224353 ], [ 119.867313321267659, -0.904787586927666 ] ] } },
{ "type": "Feature", "properties": { "Id": 0, "Nama_Jalan": "Lrg. P. Halmahera II", "Armada_Kel": "Lolu Selatan", "Kecamatan": null, "tipe_kendaraan": "Kaisar" }, "geometry": { "type": "LineString", "coordinates": [ [ 119.868085622891186, -0.903470135820005 ], [ 119.868447025977133, -0.903396941609432 ], [ 119.868552740689637, -0.903429132652139 ], [ 119.868622666523237, -0.903253356995442 ] ] } },
{ "type": "Feature", "properties": { "Id": 0, "Nama_Jalan": "Lrg. P. Halmahera I", "Armada_Kel": "Lolu Selatan", "Kecamatan": null, "tipe_kendaraan": "Kaisar" }, "geometry": { "type": "LineString", "coordinates": [ [ 119.868006953871131, -0.903099491208538 ], [ 119.867589696185433, -0.903172414533981 ] ] } },
{ "type": "Feature", "properties": { "Id": 0, "Nama_Jalan": "Lrg. Miangas", "Armada_Kel": "Lolu Selatan", "Kecamatan": null, "tipe_kendaraan": "Kaisar" }, "geometry": { "type": "LineString", "coordinates": [ [ 119.87056959667342, -0.906320353206719 ], [ 119.870788280741337, -0.906247739050286 ], [ 119.870815533791585, -0.906171691623938 ], [ 119.870832260458556, -0.905697354615264 ] ] } },
{ "type": "Feature", "properties": { "Id": 0, "Nama_Jalan": "Lrg. Miangas belakang Masjid Al-Misbah", "Armada_Kel": "Lolu Selatan", "Kecamatan": null, "tipe_kendaraan": "Kaisar" }, "geometry": { "type": "LineString", "coordinates": [ [ 119.870197903093199, -0.906194125060321 ], [ 119.870018319848484, -0.905679595241037 ] ] } },
{ "type": "Feature", "properties": { "Id": 0, "Nama_Jalan": "Lrg. Pattimura", "Armada_Kel": "Lolu Selatan", "Kecamatan": null, "tipe_kendaraan": "Kaisar" }, "geometry": { "type": "LineString", "coordinates": [ [ 119.869856522286199, -0.903567938250612 ], [ 119.870511363515902, -0.903536512721159 ] ] } },
{ "type": "Feature", "properties": { "Id": 0, "Nama_Jalan": "Bantaran Sungai", "Armada_Kel": "Lolu Selatan", "Kecamatan": null, "tipe_kendaraan": "Kaisar" }, "geometry": { "type": "LineString", "coordinates": [ [ 119.868066927334596, -0.906903606457529 ], [ 119.86794130591386, -0.906913902371923 ], [ 119.867846279599462, -0.906882898462969 ], [ 119.867779735001989, -0.90682796430909 ], [ 119.867510711137143, -0.90601054208288 ], [ 119.867295979533907, -0.904767522404702 ], [ 119.867264995001946, -0.904628883470562 ], [ 119.86722919467762, -0.904406572047312 ], [ 119.867197891123723, -0.903861505526029 ], [ 119.867129002444443, -0.90233147900032 ], [ 119.867071290855847, -0.901424234365329 ], [ 119.866668112541788, -0.899615942642585 ] ] } },
{ "type": "Feature", "properties": { "Id": 0, "Nama_Jalan": "Jl. Ki Hajar", "Armada_Kel": null, "Kecamatan": "PALU TIMUR", "tipe_kendaraan": "Kaisar" }, "geometry": { "type": "LineString", "coordinates": [ [ 119.881596729700149, -0.889330164401381 ], [ 119.881635826153584, -0.889385267227114 ], [ 119.88195391707535, -0.889790961445019 ], [ 119.882333327834871, -0.890253984405335 ], [ 119.882812560323231, -0.890808731968944 ], [ 119.883042180982486, -0.891059576454233 ], [ 119.883174823389069, -0.891210087134651 ], [ 119.88323472371539, -0.891274589291545 ], [ 119.883278944555229, -0.891333366083389 ], [ 119.883316052669812, -0.891407927219207 ], [ 119.883407413612957, -0.891614413177302 ], [ 119.883460216875633, -0.891714781661263 ], [ 119.883504448909434, -0.89178790271826 ], [ 119.883582903340269, -0.89188968536924 ], [ 119.883711271956344, -0.892041633664213 ], [ 119.883808251429329, -0.892143401648086 ], [ 119.883915202566357, -0.892240858447468 ], [ 119.884163297058791, -0.892425703964935 ], [ 119.884462728505213, -0.892657844989984 ], [ 119.88469940844719, -0.892824051733133 ], [ 119.884844833502541, -0.892920043521856 ], [ 119.884971710043061, -0.892985926942286 ], [ 119.885134221663108, -0.893064692023077 ], [ 119.88519838026339, -0.893107674143378 ], [ 119.885249714979935, -0.893152100827562 ], [ 119.885306763133528, -0.893213736127646 ], [ 119.885372369128959, -0.893285405648972 ], [ 119.8854422400494, -0.89334416193394 ], [ 119.885522073651956, -0.893387131620463 ], [ 119.88560760949224, -0.893432965643448 ], [ 119.88596395688991, -0.893557478879032 ], [ 119.886457122055575, -0.893704834523214 ], [ 119.886549686754918, -0.893681479076986 ] ] } },
{ "type": "Feature", "properties": { "Id": 0, "Nama_Jalan": "Jl. S. Parman sampai perempatan Setia Budi", "Armada_Kel": null, "Kecamatan": "PALU TIMUR", "tipe_kendaraan": "Kaisar" }, "geometry": { "type": "LineString", "coordinates": [ [ 119.878689636372712, -0.888609978609912 ], [ 119.879607322027411, -0.88882308262247 ], [ 119.880569369229889, -0.889039882719135 ], [ 119.880730897560326, -0.889075616621093 ], [ 119.881438775322678, -0.889237151121641 ], [ 119.88151859333361, -0.889260039287628 ], [ 119.881556607528026, -0.889278178879803 ], [ 119.881582279113772, -0.88930589106364 ], [ 119.881596729700149, -0.889330164401381 ] ] } },
{ "type": "Feature", "properties": { "Id": 0, "Nama_Jalan": "Jl. Sisingamangaraja", "Armada_Kel": null, "Kecamatan": "PALU TIMUR", "tipe_kendaraan": "Kaisar" }, "geometry": { "type": "LineString", "coordinates": [ [ 119.886197167330309, -0.892281404734648 ], [ 119.886244758665427, -0.892398512001257 ], [ 119.886380588758669, -0.892981738247565 ], [ 119.886609328035718, -0.893928278881932 ], [ 119.886814303220063, -0.894855712269978 ], [ 119.886981275500787, -0.895778394046464 ], [ 119.887155414822317, -0.896753665461487 ], [ 119.887277066751039, -0.897425358196878 ], [ 119.887331926286478, -0.897724153257513 ] ] } }
]
}
