{
"type": "FeatureCollection",
"name": "R6",
"crs": { "type": "name", "properties": { "name": "urn:ogc:def:crs:OGC:1.3:CRS84" } },
"features": [
{ "type": "Feature", "properties": { "Id": 0, "Kecamatan": "PALU SELATAN", "Armada": "30", "Lokasi": "Jl. Tj. Karang", "tipe_kendaraan": "R6" }, "geometry": { "type": "LineString", "coordinates": [ [ 119.879458230484744, -0.906375540826454 ], [ 119.878175068112526, -0.906455462360757 ], [ 119.87783644215159, -0.906522195739979 ], [ 119.876561274088715, -0.906802932075852 ], [ 119.875428266834476, -0.907104832340012 ] ] } },
{ "type": "Feature", "properties": { "Id": 0, "Kecamatan": "PALU SELATAN", "Armada": "30", "Lokasi": "Jl. Tj. Satu", "tipe_kendaraan": "R6" }, "geometry": { "type": "LineString", "coordinates": [ [ 119.879458230484744, -0.906375540826454 ], [ 119.880654338194802, -0.906434828869615 ], [ 119.881028654706185, -0.906451742110555 ], [ 119.881488560000136, -0.906444098999923 ], [ 119.882272653643327, -0.906406755670072 ], [ 119.884028187924727, -0.906309719113444 ], [ 119.884600525825604, -0.906259054955252 ], [ 119.885990360610677, -0.906082222339091 ], [ 119.887792246801908, -0.905892507616394 ], [ 119.888317680663675, -0.905847259988661 ], [ 119.889119170222529, -0.905753976522351 ] ] } },
{ "type": "Feature", "properties": { "Id": 0, "Kecamatan": "PALU SELATAN", "Armada": "30", "Lokasi": "Jl. Wolter Monginsidi dari pertigaan Tg. karang ke selatan", "tipe_kendaraan": "R6" }, "geometry": { "type": "LineString", "coordinates": [ [ 119.875428266834476, -0.907104832340012 ], [ 119.875647752207684, -0.908047323089641 ], [ 119.87574837050208, -0.908392703500006 ], [ 119.875803121049842, -0.90855044803385 ], [ 119.875910281253539, -0.908908972133723 ], [ 119.875956175209041, -0.909129480474895 ] ] } },
{ "type": "Feature", "properties": { "Id": 0, "Kecamatan": "PALU SELATAN", "Armada": "30", "Lokasi": "Jl. Emmy Saelan", "tipe_kendaraan": "R6" }, "geometry": { "type": "LineString", "coordinates": [ [ 119.87606135330924, -0.910732382671057 ], [ 119.876187538068237, -0.912615581069967 ], [ 119.876248895896069, -0.913614379784412 ], [ 119.876327520468905, -0.914883078151746 ], [ 119.876403269232071, -0.916055671218306 ], [ 119.876535852452335, -0.917761351359895 ], [ 119.876564064064723, -0.918142650262606 ], [ 119.876614111932213, -0.918357775571253 ], [ 119.876676012060031, -0.918544202467475 ], [ 119.876806880099949, -0.918845328516044 ], [ 119.876852801231863, -0.918909845076718 ] ] } },
{ "type": "Feature", "properties": { "Id": 0, "Kecamatan": "PALU SELATAN", "Armada": "30", "Lokasi": "Jl. Towua", "tipe_kendaraan": "R6" }, "geometry": { "type": "LineString", "coordinates": [ [ 119.876882735381045, -0.918920698619876 ], [ 119.877257321411435, -0.919556803116592 ], [ 119.878053988406919, -0.920841172941048 ], [ 119.87883283689672, -0.922116590060736 ], [ 119.879273953986413, -0.922798185343672 ], [ 119.879416644492565, -0.923032360137968 ], [ 119.879816331497878, -0.92387835080904 ], [ 119.88029927836439, -0.92488923274206 ], [ 119.880760857667582, -0.925908498762644 ], [ 119.881001145396723, -0.926415135253926 ], [ 119.881115305379964, -0.926611080979026 ], [ 119.881179491145232, -0.926685140781054 ], [ 119.881234167123537, -0.926747254755709 ], [ 119.881306608740715, -0.926812302721516 ], [ 119.882758314809081, -0.927506811931776 ], [ 119.883741963503965, -0.927984148034194 ], [ 119.883895452990856, -0.928061481192825 ], [ 119.883978150413142, -0.928118790459083 ], [ 119.884049446547266, -0.928174674651401 ], [ 119.884115056576562, -0.928247776661668 ], [ 119.884173547347956, -0.92832805665929 ], [ 119.884574916033301, -0.929134258458722 ], [ 119.88499363347843, -0.930011784261748 ], [ 119.885050752211555, -0.930157092640322 ], [ 119.885092678577379, -0.930311976372233 ], [ 119.88511559854436, -0.930459225465764 ], [ 119.885009679592358, -0.931052209807783 ], [ 119.884797756799657, -0.932132987443687 ], [ 119.884739811658562, -0.932431396443398 ], [ 119.884713817831198, -0.932592791139823 ], [ 119.884713842180716, -0.932622675053 ] ] } },
{ "type": "Feature", "properties": { "Id": 0, "Kecamatan": "PALU SELATAN", "Armada": "30", "Lokasi": "Jl. Karanja Lembah", "tipe_kendaraan": "R6" }, "geometry": { "type": "LineString", "coordinates": [ [ 119.884713842180716, -0.932622675053 ], [ 119.885762878924865, -0.933189124857019 ], [ 119.88641637100018, -0.933566063999901 ], [ 119.887720810573157, -0.934304445151132 ], [ 119.889070443448389, -0.935062615479264 ], [ 119.89042577740156, -0.935822691295872 ], [ 119.892126585495546, -0.936762258152504 ], [ 119.893621177618471, -0.937624056371121 ], [ 119.894870786132756, -0.938340821309785 ], [ 119.896311657468658, -0.93914862939397 ], [ 119.897725926955417, -0.939955022629564 ], [ 119.898621227897067, -0.940438148826911 ], [ 119.899567872869184, -0.940974782334831 ], [ 119.901518206348612, -0.94210154921425 ] ] } },
{ "type": "Feature", "properties": { "Id": 0, "Kecamatan": "PALU SELATAN", "Armada": "39", "Lokasi": "Jl. Tj. Manimbaya", "tipe_kendaraan": "R6" }, "geometry": { "type": "LineString", "coordinates": [ [ 119.875956175209041, -0.909129480474895 ], [ 119.87614585476895, -0.909071532305004 ], [ 119.878256862366868, -0.908574957046136 ], [ 119.879244673560862, -0.908323137882609 ], [ 119.879427525696045, -0.9082919116847 ], [ 119.879586637046316, -0.908272658171238 ], [ 119.880914273685406, -0.908271592318273 ], [ 119.882484160436562, -0.908270331348664 ], [ 119.883588496884897, -0.908212066693765 ], [ 119.883861613953229, -0.90819989359599 ], [ 119.884616888760547, -0.908225584319932 ], [ 119.885906591451871, -0.90831539424083 ], [ 119.88731503545381, -0.908395545079184 ], [ 119.88821758488568, -0.908454586189431 ], [ 119.888376958390126, -0.908467965352816 ], [ 119.888616840405078, -0.908476139650064 ], [ 119.888947900052656, -0.908456030161076 ], [ 119.889639447394075, -0.908388533389138 ] ] } },
{ "type": "Feature", "properties": { "Id": 0, "Kecamatan": "PALU SELATAN", "Armada": "39", "Lokasi": "Jl. Moh. Yamin", "tipe_kendaraan": "R6" }, "geometry": { "type": "LineString", "coordinates": [ [ 119.889169703764708, -0.905735786501259 ], [ 119.889699085073659, -0.908420122335498 ], [ 119.890085594469795, -0.91028196976444 ], [ 119.890125775709123, -0.910634805149459 ], [ 119.890142961479157, -0.910742372921323 ], [ 119.890165808380658, -0.910801165768243 ], [ 119.890205787320937, -0.910900108586397 ], [ 119.890399297334426, -0.911727135420138 ], [ 119.890716605370372, -0.913074637132396 ], [ 119.891101465661194, -0.914695818546288 ], [ 119.891380883470319, -0.915879387079131 ], [ 119.891507046753517, -0.916238487288324 ], [ 119.892021045500528, -0.917481233013201 ], [ 119.892464915824235, -0.918640360270878 ], [ 119.892492416361705, -0.918726402985687 ], [ 119.89252123836313, -0.918799857671043 ] ] } },
{ "type": "Feature", "properties": { "Id": 0, "Kecamatan": "PALU SELATAN", "Armada": "39", "Lokasi": "Jl. Anoa", "tipe_kendaraan": "R6" }, "geometry": { "type": "LineString", "coordinates": [ [ 119.890788515464848, -0.913377551346085 ], [ 119.890688118180066, -0.913387762505796 ], [ 119.890371766693661, -0.913386584400398 ], [ 119.889716715864637, -0.913356035894583 ], [ 119.888409425673032, -0.913248078280138 ], [ 119.888120607224494, -0.913226317558685 ], [ 119.887711634292913, -0.913230951836003 ], [ 119.887056156988862, -0.913263039621729 ], [ 119.886094251280838, -0.913230825984257 ], [ 119.885819224882653, -0.913231048426531 ], [ 119.885703795841223, -0.913226838496663 ], [ 119.885584086041064, -0.913215459884911 ], [ 119.885474346705024, -0.913198335492404 ], [ 119.885351775419721, -0.913172614900358 ], [ 119.884954098556094, -0.913048141143377 ], [ 119.884763111937431, -0.913003828229786 ], [ 119.884317018930474, -0.91292242628736 ], [ 119.88396643344511, -0.912881111101674 ], [ 119.88379399011302, -0.912859733969266 ], [ 119.883721306604102, -0.912849751675974 ], [ 119.883658593586674, -0.912834023604598 ], [ 119.883585898634934, -0.912809697011398 ], [ 119.883508911497941, -0.912763857423806 ], [ 119.883156722458779, -0.912498772155098 ], [ 119.882484132714822, -0.91192219541283 ], [ 119.882337260646949, -0.911801821604442 ], [ 119.882260271219238, -0.911753113008149 ], [ 119.882177579461683, -0.911701540137559 ], [ 119.882060682860541, -0.911644257108298 ], [ 119.881918141750347, -0.911594166900801 ], [ 119.881806969148542, -0.911567002309263 ], [ 119.881651618884376, -0.911537004455192 ], [ 119.88156468516074, -0.911527033500732 ], [ 119.881472055946304, -0.91152280486549 ], [ 119.881034593080031, -0.911543239519188 ], [ 119.880893516805187, -0.911543353213991 ], [ 119.880746738178544, -0.911540602630566 ], [ 119.880632730276275, -0.911532087897024 ], [ 119.880256485644736, -0.911480751413117 ], [ 119.880017066204005, -0.911459427771741 ], [ 119.879659370520216, -0.911438199372982 ], [ 119.879442768298588, -0.911438373829058 ], [ 119.879002453474328, -0.911457376097826 ], [ 119.878049146318688, -0.911494004588811 ], [ 119.877684354943256, -0.911510555207611 ], [ 119.876779022264301, -0.911547144826254 ], [ 119.876118688762972, -0.911588070718447 ] ] } },
{ "type": "Feature", "properties": { "Id": 0, "Kecamatan": "PALU SELATAN", "Armada": "39", "Lokasi": "Jl. Tj. Pangimpuan", "tipe_kendaraan": "R6" }, "geometry": { "type": "LineString", "coordinates": [ [ 119.877213971448668, -0.908820277780787 ], [ 119.876945516550762, -0.90778236609408 ], [ 119.876833575296686, -0.907384159930769 ], [ 119.876673644701, -0.906778192979572 ] ] } },
{ "type": "Feature", "properties": { "Id": 0, "Kecamatan": "PALU SELATAN", "Armada": "39", "Lokasi": "Jl. Lalove", "tipe_kendaraan": "R6" }, "geometry": { "type": "LineString", "coordinates": [ [ 119.863282414225921, -0.912805598769069 ], [ 119.864130333935719, -0.91283504213633 ], [ 119.864418192011399, -0.912836245622671 ], [ 119.864767785762282, -0.912817556259822 ], [ 119.865134915841253, -0.912834681433409 ], [ 119.865397191583455, -0.912837372534068 ], [ 119.865626384359629, -0.912837188556967 ], [ 119.865767697248586, -0.912833488983063 ], [ 119.865885250110054, -0.912817854706608 ], [ 119.866286571631193, -0.91273863762804 ], [ 119.866940754557959, -0.912556415179807 ], [ 119.86739248565911, -0.912451671590501 ], [ 119.868261756942957, -0.91225507619363 ], [ 119.868394249404048, -0.912210501865819 ], [ 119.869477035527908, -0.911912701471575 ], [ 119.870440121738895, -0.911619300780165 ], [ 119.870715566126236, -0.911542575758563 ] ] } },
{ "type": "Feature", "properties": { "Id": 0, "Kecamatan": "PALU SELATAN", "Armada": "11", "Lokasi": "Jl. Garuda", "tipe_kendaraan": "R6" }, "geometry": { "type": "LineString", "coordinates": [ [ 119.898877147897679, -0.919077761113457 ], [ 119.898884072206059, -0.918240059515356 ], [ 119.898900291961581, -0.918032056694844 ], [ 119.898967366529376, -0.917566535625822 ], [ 119.899015557984555, -0.916950895031407 ], [ 119.899049552260422, -0.916695542203741 ], [ 119.899074128596183, -0.916542040223826 ], [ 119.899128417439897, -0.916124582483856 ], [ 119.899179323776409, -0.915635407013857 ], [ 119.899218401871792, -0.91520409577193 ], [ 119.899218228983358, -0.914988934345928 ], [ 119.899148575780998, -0.914019329525783 ], [ 119.89904992333021, -0.913018191102109 ], [ 119.898982434150383, -0.912350827345245 ], [ 119.898874865071306, -0.911508376754929 ], [ 119.898800230085286, -0.910839045474655 ], [ 119.898727599991574, -0.909705919555853 ], [ 119.898677074949831, -0.908891214898473 ], [ 119.898606067730626, -0.90800384987177 ], [ 119.898525731904854, -0.907330697687632 ], [ 119.898422584501319, -0.906642263410909 ], [ 119.898361325434948, -0.906064723078769 ], [ 119.898264111394141, -0.90566890378967 ], [ 119.898243155305437, -0.905598156357656 ], [ 119.898239311247664, -0.905542695532924 ], [ 119.898254456400608, -0.905473831571638 ], [ 119.898275143447293, -0.905206058059284 ], [ 119.898273147729228, -0.90508556908246 ], [ 119.898211827238967, -0.904429614120576 ], [ 119.898116463717599, -0.903970679018608 ], [ 119.898045675831995, -0.903354895041151 ], [ 119.897890806809471, -0.902730093876064 ], [ 119.897724872069404, -0.901926956129328 ], [ 119.89768861040902, -0.901722342366689 ], [ 119.89750904246155, -0.900496541623898 ], [ 119.897440378617333, -0.900161900284209 ], [ 119.897436501605142, -0.900064363316543 ], [ 119.8974497153892, -0.899955337369195 ], [ 119.897589915487174, -0.899450311934379 ] ] } },
{ "type": "Feature", "properties": { "Id": 0, "Kecamatan": "PALU SELATAN", "Armada": "11", "Lokasi": "Jl. Basuki Rahmat", "tipe_kendaraan": "R6" }, "geometry": { "type": "LineString", "coordinates": [ [ 119.89252123836313, -0.918799857671043 ], [ 119.892485825717671, -0.918822777489464 ], [ 119.889739522351022, -0.918866734094797 ], [ 119.887618697930819, -0.918942573607598 ], [ 119.885533843648744, -0.919009298149207 ], [ 119.885067768109607, -0.919036572943805 ], [ 119.884149033000099, -0.919027047999978 ], [ 119.882407687537579, -0.918967014843287 ], [ 119.880271311323767, -0.918917947926827 ], [ 119.878124889910765, -0.91893463272503 ], [ 119.877117859981141, -0.918915726399094 ], [ 119.876882735381045, -0.918920698619876 ] ] } },
{ "type": "Feature", "properties": { "Id": 0, "Kecamatan": "PALU SELATAN", "Armada": "11", "Lokasi": "Jl. AR. Saleh", "tipe_kendaraan": "R6" }, "geometry": { "type": "LineString", "coordinates": [ [ 119.892657891346474, -0.918794008540755 ], [ 119.892742794267178, -0.918760230452248 ], [ 119.893607860385444, -0.918631562784414 ], [ 119.893784547631739, -0.918615640057352 ], [ 119.893955548710963, -0.918616934970885 ], [ 119.894115174027093, -0.918648361912484 ], [ 119.895278283561339, -0.919033270491685 ], [ 119.895397533029154, -0.919063773973243 ], [ 119.895535778599509, -0.91908948054652 ], [ 119.895668316072701, -0.919105150865536 ], [ 119.895863551090713, -0.91911790113466 ], [ 119.896329541218762, -0.919137602274033 ], [ 119.89670407869022, -0.919138491615442 ], [ 119.897551471356607, -0.919132061484654 ], [ 119.898776953965438, -0.919115759297362 ], [ 119.900300721502759, -0.919084390493437 ], [ 119.902032046103002, -0.919035160219961 ], [ 119.902469747278332, -0.919025000165446 ] ] } },
{ "type": "Feature", "properties": { "Id": 0, "Kecamatan": "PALU SELATAN", "Armada": "11", "Lokasi": "Jl. I Gusti Ngurah Rai sampai jembatan", "tipe_kendaraan": "R6" }, "geometry": { "type": "LineString", "coordinates": [ [ 119.876757111264425, -0.9189199812817 ], [ 119.876642658681575, -0.918950197349886 ], [ 119.876545771013909, -0.918967489218099 ], [ 119.875134078807804, -0.919005929601861 ], [ 119.874771665840882, -0.919028696365586 ], [ 119.874641996717699, -0.919038842587363 ], [ 119.874512334465351, -0.919057595452013 ], [ 119.874404051002031, -0.919080634309952 ], [ 119.874292928955953, -0.91911801989108 ], [ 119.874223130309801, -0.919152503089688 ], [ 119.874146226048495, -0.919211377570531 ], [ 119.873371622783282, -0.919974651163262 ], [ 119.872562831156117, -0.920753732262088 ], [ 119.872492584973401, -0.920822642607123 ] ] } },
{ "type": "Feature", "properties": { "Id": 0, "Kecamatan": "PALU SELATAN", "Armada": "11", "Lokasi": "Jl. Elang", "tipe_kendaraan": "R6" }, "geometry": { "type": "LineString", "coordinates": [ [ 119.89857780635144, -0.90776704175228 ], [ 119.897031087437043, -0.908070689096316 ], [ 119.896287362902129, -0.908223337355346 ], [ 119.89532564470079, -0.908414890832271 ], [ 119.894999370269758, -0.908476834053871 ] ] } },
{ "type": "Feature", "properties": { "Id": 0, "Kecamatan": "PALU SELATAN", "Armada": "11", "Lokasi": "Jl. Dewi sartika sampai SMA 3", "tipe_kendaraan": "R6" }, "geometry": { "type": "LineString", "coordinates": [ [ 119.892653579106238, -0.918812638402931 ], [ 119.892769197232539, -0.919052331081544 ], [ 119.893100288109494, -0.919661210537753 ], [ 119.893654035029172, -0.920710751966275 ], [ 119.893735870875673, -0.920878990030785 ], [ 119.893802499024929, -0.921037677725876 ], [ 119.893890129127371, -0.921322576932674 ], [ 119.894008364822469, -0.92186182099829 ], [ 119.894067414759846, -0.922047290580173 ], [ 119.894120712164565, -0.922167737953807 ], [ 119.894696851984264, -0.923298064106629 ], [ 119.894869541014245, -0.923624013020202 ], [ 119.894922826206013, -0.923729159794537 ], [ 119.894972311407997, -0.92383430967688 ], [ 119.895012305916609, -0.92395094266583 ], [ 119.895180212814111, -0.924822929479635 ], [ 119.895258461878115, -0.925253189812616 ], [ 119.895504105240661, -0.925922381583995 ], [ 119.89607093778487, -0.927365525977467 ], [ 119.896348549428794, -0.928128263747299 ], [ 119.89676409581088, -0.929197515242847 ], [ 119.897270524025458, -0.930457467632659 ], [ 119.897739122763085, -0.931512950786933 ] ] } },
{ "type": "Feature", "properties": { "Id": 0, "Kecamatan": "PALU SELATAN", "Armada": "10", "Lokasi": "Jl. Zebra", "tipe_kendaraan": "R6" }, "geometry": { "type": "LineString", "coordinates": [ [ 119.884102728770984, -0.919025451666756 ], [ 119.884111311914978, -0.919792130343535 ], [ 119.884113838693295, -0.919980994855347 ], [ 119.884233344567448, -0.921056622921116 ], [ 119.884329277433267, -0.922077477001749 ], [ 119.884393849915853, -0.922632070281734 ], [ 119.88445688469173, -0.923046568835727 ], [ 119.884617064740866, -0.923763652442422 ], [ 119.88471053923503, -0.924226418379603 ], [ 119.884727750595928, -0.924364109465254 ], [ 119.884749355431282, -0.924598526152697 ], [ 119.884792583579738, -0.925239536088705 ], [ 119.884855950850493, -0.926063802520242 ], [ 119.884907601168351, -0.926496001322889 ], [ 119.884928598918435, -0.926616476098649 ], [ 119.885067721581095, -0.927136581325501 ], [ 119.885092456310474, -0.927168478637145 ], [ 119.885135460877237, -0.927492742080183 ], [ 119.885276247300155, -0.928306664418002 ], [ 119.885313701585389, -0.92851175684488 ], [ 119.885338076982634, -0.928696778020473 ], [ 119.885341005011611, -0.92879288229038 ], [ 119.885331068333215, -0.928840226587587 ], [ 119.885311148406061, -0.92887753810018 ], [ 119.885269849771305, -0.92891056391351 ] ] } },
{ "type": "Feature", "properties": { "Id": 0, "Kecamatan": "PALU SELATAN", "Armada": "10", "Lokasi": "Jl. Banteng", "tipe_kendaraan": "R6" }, "geometry": { "type": "LineString", "coordinates": [ [ 119.897012091219267, -0.929956658184498 ], [ 119.896306000371922, -0.930219090185532 ], [ 119.895939889168503, -0.930359218401729 ], [ 119.89590425535367, -0.93034848975506 ], [ 119.895876918441061, -0.930318628719402 ], [ 119.895859073736716, -0.930279197070284 ], [ 119.895795968439344, -0.930073649797743 ], [ 119.895766253606766, -0.930040204680103 ], [ 119.894936437538192, -0.930344508430236 ], [ 119.894300364943589, -0.930579561218758 ], [ 119.893332125278988, -0.930933706314197 ], [ 119.892526779593325, -0.931249944062598 ], [ 119.892257292942787, -0.931344599418407 ], [ 119.892133815778038, -0.931373389875362 ], [ 119.892045949140737, -0.931384220653986 ], [ 119.89167665237666, -0.93140604220143 ], [ 119.891487844750799, -0.931413370352914 ], [ 119.891161269763586, -0.931400491391342 ], [ 119.890927310472307, -0.931375582356835 ], [ 119.889883200402139, -0.931310700586986 ], [ 119.888476666479235, -0.931252094341213 ], [ 119.887714503439312, -0.931229055395891 ], [ 119.886661378071423, -0.931179719398083 ], [ 119.885837673275617, -0.931123021676632 ], [ 119.885009679592358, -0.931052209807783 ] ] } },
{ "type": "Feature", "properties": { "Id": 0, "Kecamatan": "PALU SELATAN", "Armada": "10", "Lokasi": "Jl. Dewi Sartika batas SMA 3", "tipe_kendaraan": "R6" }, "geometry": { "type": "LineString", "coordinates": [ [ 119.897739122763085, -0.931512950786933 ], [ 119.898207778639289, -0.932538389324106 ], [ 119.898626382564302, -0.933565558584148 ], [ 119.899208041681746, -0.935058711053007 ], [ 119.899567293320487, -0.935985723279011 ], [ 119.89990180112207, -0.936891249326007 ], [ 119.90023148715899, -0.93751207353429 ], [ 119.900359926079886, -0.937741471777029 ], [ 119.900571252582139, -0.938259116883333 ], [ 119.90086110926741, -0.938964603627279 ], [ 119.901034984698853, -0.939379241257099 ], [ 119.901232539795146, -0.939900244175193 ], [ 119.901338459222501, -0.940181060356616 ], [ 119.901430245120849, -0.940602699316569 ], [ 119.901594389919026, -0.941503369596162 ], [ 119.901638381107048, -0.941855240614115 ], [ 119.901646220178847, -0.942144028019223 ] ] } },
{ "type": "Feature", "properties": { "Id": 0, "Kecamatan": "PALU SELATAN", "Armada": "10", "Lokasi": "Jl. Tj. Tururuka", "tipe_kendaraan": "R6" }, "geometry": { "type": "LineString", "coordinates": [ [ 119.884071355992631, -0.90629055796338 ], [ 119.884104092039522, -0.907166008564464 ], [ 119.884132895356146, -0.90754850002092 ], [ 119.884227439917723, -0.908171444649569 ], [ 119.884233042219691, -0.908212527775838 ] ] } },
{ "type": "Feature", "properties": { "Id": 0, "Kecamatan": "PALU SELATAN", "Armada": "10", "Lokasi": "Jl. Tj. Harapan", "tipe_kendaraan": "R6" }, "geometry": { "type": "LineString", "coordinates": [ [ 119.884259398559706, -0.908213424288472 ], [ 119.884469622791272, -0.909176231300089 ], [ 119.884498230045708, -0.909311044622888 ], [ 119.884513983758197, -0.909410007556519 ], [ 119.884537307158809, -0.91006839176507 ], [ 119.884561958950897, -0.910604848398091 ], [ 119.884575068222944, -0.91096201067815 ], [ 119.884560868373399, -0.911025137010384 ], [ 119.884523920916934, -0.911154265432001 ], [ 119.884443184290916, -0.911768266277456 ], [ 119.884415030390556, -0.912202921078273 ], [ 119.884380466125648, -0.912934003979375 ] ] } },
{ "type": "Feature", "properties": { "Id": 0, "Kecamatan": "PALU SELATAN", "Armada": "10", "Lokasi": "Jl. Batu Bata Indah", "tipe_kendaraan": "R6" }, "geometry": { "type": "LineString", "coordinates": [ [ 119.884905686727606, -0.919034892590454 ], [ 119.884894218012377, -0.917040312156566 ], [ 119.884899810788937, -0.916906427607979 ], [ 119.884946742876494, -0.916196825496295 ], [ 119.884956154144263, -0.916085888718129 ], [ 119.885334258168143, -0.916087494607871 ], [ 119.886056192132472, -0.915998930731616 ], [ 119.886222897024197, -0.915972497655014 ], [ 119.886295541418988, -0.91593370919142 ], [ 119.886269253756083, -0.915137145432018 ], [ 119.886192294694624, -0.913938026815659 ], [ 119.886154366771677, -0.913232839223932 ] ] } },
{ "type": "Feature", "properties": { "Id": 0, "Kecamatan": "PALU TIMUR", "Armada": "17", "Lokasi": "Jl. Tg Satu sebelah wilayah Palu Timur", "tipe_kendaraan": "R6" }, "geometry": { "type": "LineString", "coordinates": [ [ 119.87948019722478, -0.906361875068481 ], [ 119.880903839618483, -0.906431021822691 ], [ 119.881044920231773, -0.906436646495879 ], [ 119.881566464976771, -0.906424753018455 ], [ 119.882166370240952, -0.906394149035909 ], [ 119.883084039557588, -0.906347511435899 ], [ 119.883999804691697, -0.906296571914179 ], [ 119.884071355992631, -0.90629055796338 ] ] } },
{ "type": "Feature", "properties": { "Id": 0, "Kecamatan": "PALU TIMUR", "Armada": "17", "Lokasi": "Jl. Maluku", "tipe_kendaraan": "R6" }, "geometry": { "type": "LineString", "coordinates": [ [ 119.87004996263174, -0.90448897437592 ], [ 119.870738607747143, -0.904944579746287 ], [ 119.872060776594893, -0.905830012429359 ], [ 119.87374579115891, -0.906991163145518 ], [ 119.874773516827659, -0.907653770162714 ], [ 119.875783091081075, -0.908492738701619 ] ] } },
{ "type": "Feature", "properties": { "Id": 0, "Kecamatan": "PALU TIMUR", "Armada": "17", "Lokasi": "Jl. Miangas", "tipe_kendaraan": "R6" }, "geometry": { "type": "LineString", "coordinates": [ [ 119.87004996263174, -0.90448897437592 ], [ 119.87013725886186, -0.904858454348416 ], [ 119.870261980552982, -0.90530414653031 ], [ 119.870405914083932, -0.905812147530866 ], [ 119.870562191288315, -0.906414490521801 ], [ 119.870602241185722, -0.906603805523456 ], [ 119.870600899833192, -0.906709955659825 ], [ 119.870586720834098, -0.906800337136387 ], [ 119.870551147441475, -0.906866589184417 ], [ 119.870349498038934, -0.907157225817289 ], [ 119.870302064153591, -0.907242135179463 ], [ 119.870178294999874, -0.90750593332445 ], [ 119.869990587842295, -0.908008140016569 ], [ 119.869939437518383, -0.908198962460049 ], [ 119.869858479477443, -0.908538991333093 ], [ 119.869790039273113, -0.908843047430016 ] ] } },
{ "type": "Feature", "properties": { "Id": 0, "Kecamatan": "PALU TIMUR", "Armada": "17", "Lokasi": "Jl. Patimura", "tipe_kendaraan": "R6" }, "geometry": { "type": "LineString", "coordinates": [ [ 119.866997996521505, -0.897567026547452 ], [ 119.867132912294593, -0.897584133416466 ], [ 119.867298255413957, -0.897635643069684 ], [ 119.867486419782281, -0.897713911088048 ], [ 119.867602375446936, -0.897782673116784 ], [ 119.86771264294309, -0.897866740427912 ], [ 119.867826719454072, -0.897962280312177 ], [ 119.867908496915149, -0.898059758302932 ], [ 119.867984580255509, -0.898164891179883 ], [ 119.868037857252531, -0.898262391671528 ], [ 119.868117812318786, -0.898459326259341 ], [ 119.868285386908155, -0.898935431070303 ], [ 119.868546206753152, -0.899595071437202 ], [ 119.868665846088831, -0.899910215327793 ] ] } },
{ "type": "Feature", "properties": { "Id": 0, "Kecamatan": "PALU TIMUR", "Armada": "17", "Lokasi": "Jl. Wolter Monginsidi", "tipe_kendaraan": "R6" }, "geometry": { "type": "LineString", "coordinates": [ [ 119.875428266834476, -0.907104832340012 ], [ 119.875191319347579, -0.9063129554617 ], [ 119.874953146866503, -0.905464434796228 ], [ 119.874614913199892, -0.904221522122565 ], [ 119.874077290487932, -0.902214448718812 ], [ 119.873674750239644, -0.900736097390239 ], [ 119.873585422419211, -0.900399074219768 ], [ 119.873496153698525, -0.900137359214886 ], [ 119.873150221762174, -0.899671439602053 ], [ 119.872989797741823, -0.89953170858065 ], [ 119.872887549104846, -0.899466868818057 ] ] } },
{ "type": "Feature", "properties": { "Id": 0, "Kecamatan": "PALU TIMUR", "Armada": "17", "Lokasi": "Jl. Gatot Subroto", "tipe_kendaraan": "R6" }, "geometry": { "type": "LineString", "coordinates": [ [ 119.874490406227352, -0.89278092267958 ], [ 119.874217943802179, -0.89439966634392 ], [ 119.873849120669661, -0.896556402946249 ], [ 119.873763749188839, -0.897412441267642 ], [ 119.873678899433528, -0.898245919795449 ], [ 119.87368024126927, -0.898313186671225 ], [ 119.873681865729225, -0.898394621368053 ] ] } },
{ "type": "Feature", "properties": { "Id": 0, "Kecamatan": "PALU TIMUR", "Armada": "17", "Lokasi": "Jl. Masjid Raya", "tipe_kendaraan": "R6" }, "geometry": { "type": "LineString", "coordinates": [ [ 119.873681865729225, -0.898394621368053 ], [ 119.873830819763953, -0.89849599017952 ], [ 119.874157840495798, -0.898773056557028 ], [ 119.874363199990938, -0.898973715650152 ], [ 119.874405051360554, -0.899038710502919 ], [ 119.874437407116687, -0.899109450649532 ], [ 119.874465968822904, -0.899187844158431 ], [ 119.874683212404022, -0.900006259903081 ], [ 119.875057345991934, -0.901453911712477 ], [ 119.875285626295749, -0.902260961775314 ], [ 119.875310270435492, -0.902323113472182 ] ] } },
{ "type": "Feature", "properties": { "Id": 0, "Kecamatan": "PALU TIMUR", "Armada": "17", "Lokasi": "Jl. Tg. Santigi", "tipe_kendaraan": "R6" }, "geometry": { "type": "LineString", "coordinates": [ [ 119.875310270435492, -0.902323113472166 ], [ 119.875358770588136, -0.902386190253168 ], [ 119.875567895313679, -0.903145799083698 ], [ 119.875815626668171, -0.904071293743971 ], [ 119.876009962254017, -0.904748194363015 ], [ 119.876041152364493, -0.904846189520535 ], [ 119.876068518884267, -0.904914303561255 ], [ 119.876111312721051, -0.90496925624363 ], [ 119.876171930573378, -0.905038539081202 ], [ 119.876212346560649, -0.905089907552936 ], [ 119.876225445024616, -0.905135321013313 ], [ 119.876246893789244, -0.905228542457367 ], [ 119.876383872735801, -0.905754394163697 ], [ 119.876654102100304, -0.906782495405984 ] ] } },
{ "type": "Feature", "properties": { "Id": 0, "Kecamatan": "PALU TIMUR", "Armada": "17", "Lokasi": "Jl. Tg. Dako", "tipe_kendaraan": "R6" }, "geometry": { "type": "LineString", "coordinates": [ [ 119.879359284168288, -0.901360576301984 ], [ 119.879366380214435, -0.901431273658794 ], [ 119.879358283495264, -0.902551250742283 ], [ 119.879378132776409, -0.903305047857382 ], [ 119.879414645044022, -0.904754259943721 ], [ 119.87944836342038, -0.906099016398318 ], [ 119.87949372914278, -0.907153887903695 ], [ 119.879518403318201, -0.908280914898911 ] ] } },
{ "type": "Feature", "properties": { "Id": 0, "Kecamatan": "PALU TIMUR", "Armada": "17", "Lokasi": "Jl. Woodward", "tipe_kendaraan": "R6" }, "geometry": { "type": "LineString", "coordinates": [ [ 119.870625602468053, -0.904869815864944 ], [ 119.870782291870896, -0.904821158674903 ], [ 119.871545258597138, -0.904802619834641 ], [ 119.872091486356553, -0.90476333471708 ], [ 119.872223880473854, -0.904745298577123 ], [ 119.873722232702008, -0.904370550536406 ], [ 119.874605478417962, -0.90418629997939 ] ] } },
{ "type": "Feature", "properties": { "Id": 0, "Kecamatan": "PALU TIMUR", "Armada": "17", "Lokasi": "Jl. Emmy Saelan sepotong dan Milenium", "tipe_kendaraan": "R6" }, "geometry": { "type": "LineString", "coordinates": [ [ 119.875956175209041, -0.909129480474895 ], [ 119.875981305850374, -0.909343395625994 ], [ 119.875993304098813, -0.909498783662184 ], [ 119.87606135330924, -0.910732382671057 ] ] } },
{ "type": "Feature", "properties": { "Id": 0, "Kecamatan": "PALU TIMUR", "Armada": "17", "Lokasi": "Jl. Tg. Tururuka", "tipe_kendaraan": "R6" }, "geometry": { "type": "LineString", "coordinates": [ [ 119.884053468970592, -0.906292061383648 ], [ 119.884054169090732, -0.905342743323992 ], [ 119.884024338804423, -0.904260728983715 ], [ 119.8840238234867, -0.903608063816172 ], [ 119.883989123308424, -0.902360598835419 ], [ 119.883994181759348, -0.902160508691382 ], [ 119.883790293107779, -0.901414289658095 ] ] } },
{ "type": "Feature", "properties": { "Id": 0, "Kecamatan": "PALU TIMUR", "Armada": "17", "Lokasi": "Jl. R.A. Kartini", "tipe_kendaraan": "R6" }, "geometry": { "type": "LineString", "coordinates": [ [ 119.888228246084111, -0.901459357584225 ], [ 119.886227806876761, -0.901418888905315 ], [ 119.883869386111911, -0.9013705660964 ], [ 119.88241930594134, -0.901349279687678 ], [ 119.879949291947696, -0.901352443558446 ], [ 119.879427979364607, -0.901357640262297 ], [ 119.879285482970403, -0.901363730571449 ], [ 119.877661853699948, -0.901734988791961 ], [ 119.875414332122403, -0.902295612069282 ], [ 119.874181410909188, -0.902603156282501 ] ] } },
{ "type": "Feature", "properties": { "Id": 0, "Kecamatan": "PALU TIMUR", "Armada": "21", "Lokasi": "Jl. Juanda", "tipe_kendaraan": "R6" }, "geometry": { "type": "LineString", "coordinates": [ [ 119.887320063677876, -0.897739941376296 ], [ 119.887239828156112, -0.897723356388341 ], [ 119.885507963733914, -0.897265668915337 ], [ 119.884865989311891, -0.89710062194339 ], [ 119.884744854738813, -0.897088764574291 ], [ 119.883590596526517, -0.897082508924864 ], [ 119.882061056644673, -0.897039494502414 ], [ 119.880012967368657, -0.897008846247371 ], [ 119.87899655219114, -0.897009649754083 ], [ 119.877715974051299, -0.896988780280932 ] ] } },
{ "type": "Feature", "properties": { "Id": 0, "Kecamatan": "PALU TIMUR", "Armada": "21", "Lokasi": "Jl. Moh Hatta", "tipe_kendaraan": "R6" }, "geometry": { "type": "LineString", "coordinates": [ [ 119.877715974051299, -0.896988780280932 ], [ 119.87705359094744, -0.896950925321779 ], [ 119.875111878652845, -0.896783915674223 ], [ 119.872785321894796, -0.896506039218793 ], [ 119.871057271871663, -0.896231273685457 ], [ 119.869553791648144, -0.896124876978722 ] ] } },
{ "type": "Feature", "properties": { "Id": 0, "Kecamatan": "PALU TIMUR", "Armada": "21", "Lokasi": "Jl. Sultan Hasanuddin", "tipe_kendaraan": "R6" }, "geometry": { "type": "LineString", "coordinates": [ [ 119.871975419708022, -0.898411731973678 ], [ 119.871338565551454, -0.897969948693423 ], [ 119.870982146324238, -0.897759845223596 ], [ 119.870770696301477, -0.897667729733364 ], [ 119.870491316173144, -0.897570408268684 ], [ 119.870008619569433, -0.897456034080562 ], [ 119.869351087312609, -0.897299720727466 ], [ 119.869111646323333, -0.897252094947489 ], [ 119.868879827776752, -0.897233152091704 ], [ 119.868806865780144, -0.897221973207502 ], [ 119.868747472133094, -0.897199308009345 ], [ 119.86867713187965, -0.897149157841899 ] ] } },
{ "type": "Feature", "properties": { "Id": 0, "Kecamatan": "PALU TIMUR", "Armada": "21", "Lokasi": "seputaran Pertokoan Hasanuddin", "tipe_kendaraan": "R6" }, "geometry": { "type": "LineString", "coordinates": [ [ 119.866841343872721, -0.897098488874011 ], [ 119.868405744666177, -0.896591132182375 ], [ 119.868491241563959, -0.896585326906131 ], [ 119.86881015589033, -0.896784402058922 ] ] } },
{ "type": "Feature", "properties": { "Id": 0, "Kecamatan": "PALU TIMUR", "Armada": "21", "Lokasi": "Jl. Jenderal Sudirman", "tipe_kendaraan": "R6" }, "geometry": { "type": "LineString", "coordinates": [ [ 119.86867713187965, -0.897149157841899 ], [ 119.868725888966281, -0.897085047266782 ], [ 119.869098726566904, -0.89641964671169 ], [ 119.869326419471861, -0.896020690310322 ], [ 119.869406112333877, -0.89588148593835 ], [ 119.869426004560935, -0.895806878930221 ], [ 119.86958214070593, -0.89501494036812 ], [ 119.870101495298869, -0.89238266044944 ] ] } },
{ "type": "Feature", "properties": { "Id": 0, "Kecamatan": "PALU TIMUR", "Armada": "21", "Lokasi": "Jl. Cik Ditiro", "tipe_kendaraan": "R6" }, "geometry": { "type": "LineString", "coordinates": [ [ 119.870101495298869, -0.89238266044944 ], [ 119.871129357858422, -0.892469491097934 ], [ 119.872208628758585, -0.892543233383105 ], [ 119.873291231886441, -0.892627491837266 ], [ 119.874492240171776, -0.892726120523925 ] ] } },
{ "type": "Feature", "properties": { "Id": 0, "Kecamatan": "PALU TIMUR", "Armada": "21", "Lokasi": "Jl. Tadulako", "tipe_kendaraan": "R6" }, "geometry": { "type": "LineString", "coordinates": [ [ 119.874492240171776, -0.892726120523925 ], [ 119.874649477784558, -0.892740293298608 ], [ 119.875906651612752, -0.892835888624242 ], [ 119.876685704380193, -0.892895042957401 ], [ 119.877880401241839, -0.892975385840337 ], [ 119.877948092914409, -0.892980113913167 ] ] } },
{ "type": "Feature", "properties": { "Id": 0, "Kecamatan": "PALU TIMUR", "Armada": "21", "Lokasi": "Jl. Moh. Thamrin", "tipe_kendaraan": "R6" }, "geometry": { "type": "LineString", "coordinates": [ [ 119.877727893621284, -0.89515056495857 ], [ 119.87779057154755, -0.895153674250674 ], [ 119.878783381532386, -0.895239621766014 ], [ 119.880047010032413, -0.895393541116031 ], [ 119.88059046365278, -0.895458138680923 ], [ 119.881872109736364, -0.895572834814405 ], [ 119.883508596466342, -0.895707809177524 ], [ 119.885151003965248, -0.895824249679923 ], [ 119.886959071919861, -0.895948925092115 ] ] } },
{ "type": "Feature", "properties": { "Id": 0, "Kecamatan": "PALU TIMUR", "Armada": "21", "Lokasi": "Jl. Dr. Soetomo", "tipe_kendaraan": "R6" }, "geometry": { "type": "LineString", "coordinates": [ [ 119.877727893621284, -0.89515056495857 ], [ 119.877130821122506, -0.8951601216922 ], [ 119.876082951872945, -0.895147561645351 ], [ 119.87551290940128, -0.895100197288205 ], [ 119.87413737253452, -0.894870814438252 ] ] } },
{ "type": "Feature", "properties": { "Id": 0, "Kecamatan": "PALU TIMUR", "Armada": "21", "Lokasi": "Jl. Sedap Malam", "tipe_kendaraan": "R6" }, "geometry": { "type": "LineString", "coordinates": [ [ 119.87413737253452, -0.894870814438252 ], [ 119.873023656920822, -0.894662937922222 ] ] } },
{ "type": "Feature", "properties": { "Id": 0, "Kecamatan": "PALU TIMUR", "Armada": "21", "Lokasi": "Jl. Pramuka atas", "tipe_kendaraan": "R6" }, "geometry": { "type": "LineString", "coordinates": [ [ 119.869816706596467, -0.893826070791556 ], [ 119.871423758547692, -0.894055146813091 ] ] } },
{ "type": "Feature", "properties": { "Id": 0, "Kecamatan": "PALU TIMUR", "Armada": "21", "Lokasi": "Jl. Pemuda", "tipe_kendaraan": "R6" }, "geometry": { "type": "LineString", "coordinates": [ [ 119.871517555350138, -0.89358219874998 ], [ 119.873355041724764, -0.893923604391959 ], [ 119.874270949328292, -0.894084750898129 ] ] } },
{ "type": "Feature", "properties": { "Id": 0, "Kecamatan": "PALU TIMUR", "Armada": "21", "Lokasi": "Jl. Otto Iskandar Dinata", "tipe_kendaraan": "R6" }, "geometry": { "type": "LineString", "coordinates": [ [ 119.884908854587508, -0.89298625200899 ], [ 119.884894628829997, -0.893017342546498 ], [ 119.8848543592091, -0.89315244976795 ], [ 119.884833001920242, -0.893175178446263 ], [ 119.884800945930422, -0.893183571296046 ], [ 119.884757005603504, -0.893180019968596 ], [ 119.884385190027714, -0.893016549923327 ], [ 119.883754676136064, -0.892775824920234 ], [ 119.883639212937737, -0.892727145510994 ], [ 119.883569353160667, -0.892682733355404 ], [ 119.883492371725637, -0.892642630110068 ], [ 119.883351232753469, -0.892560979039224 ], [ 119.883134541805475, -0.892444961258367 ], [ 119.882604267462597, -0.892223043022487 ], [ 119.882293471477922, -0.89203681214128 ], [ 119.882247854606931, -0.89201533165174 ], [ 119.882192269410396, -0.892002465618052 ], [ 119.881398486226189, -0.891931370145675 ], [ 119.880631793253187, -0.891880335120893 ], [ 119.880492138226515, -0.89187470749033 ], [ 119.880237069967237, -0.891884949619552 ], [ 119.88010883056613, -0.89189939506191 ], [ 119.879632933031999, -0.891970057526364 ], [ 119.879419189780947, -0.891980267052618 ], [ 119.878666789067239, -0.891985163324774 ], [ 119.878215071426794, -0.89199842918332 ] ] } },
{ "type": "Feature", "properties": { "Id": 0, "Kecamatan": "PALU TIMUR", "Armada": "21", "Lokasi": "Jl. M.T Haryono", "tipe_kendaraan": "R6" }, "geometry": { "type": "LineString", "coordinates": [ [ 119.878147047783159, -0.891948516542342 ], [ 119.87720362355472, -0.89186175891628 ], [ 119.876466837442479, -0.891790617074658 ], [ 119.87517426868753, -0.891684529443493 ], [ 119.874266949164834, -0.891606348858636 ], [ 119.872913059371001, -0.891444843060617 ], [ 119.87270878677846, -0.891418705456377 ], [ 119.871898738948218, -0.891311328663348 ] ] } },
{ "type": "Feature", "properties": { "Id": 0, "Kecamatan": "PALU TIMUR", "Armada": "18", "Lokasi": "Jl. Raden Saleh", "tipe_kendaraan": "R6" }, "geometry": { "type": "LineString", "coordinates": [ [ 119.867812235737162, -0.884893648939864 ], [ 119.867895546631701, -0.884886794326428 ], [ 119.867974597409997, -0.884923432621962 ], [ 119.87026584147533, -0.886309110772304 ], [ 119.871022401269812, -0.886764195863969 ], [ 119.871135461936106, -0.886861562575268 ] ] } },
{ "type": "Feature", "properties": { "Id": 0, "Kecamatan": "PALU TIMUR", "Armada": "18", "Lokasi": "Jl. Hayam Wuruk", "tipe_kendaraan": "R6" }, "geometry": { "type": "LineString", "coordinates": [ [ 119.860801580806424, -0.889283785868757 ], [ 119.860872804650555, -0.889247868781927 ], [ 119.860991048931353, -0.889204742693777 ], [ 119.861092209427412, -0.889183146831848 ], [ 119.861351535965085, -0.88914564843887 ], [ 119.861727715873783, -0.889109493262657 ], [ 119.861971390164044, -0.889102130698528 ], [ 119.862293686903413, -0.889105704227408 ], [ 119.86287440670398, -0.889132744405991 ], [ 119.863374359983283, -0.889140721489332 ], [ 119.863626127502798, -0.889157260090961 ], [ 119.863820895785182, -0.889176233969749 ], [ 119.864320890151006, -0.889238002922546 ], [ 119.864575050037075, -0.889277251750171 ], [ 119.865171235078989, -0.88934133605388 ], [ 119.865388566917673, -0.889361487525154 ], [ 119.866080951511677, -0.889439601801834 ], [ 119.866214914741107, -0.889453841523913 ], [ 119.866405887722635, -0.889479512250454 ], [ 119.866592587823661, -0.889508055205881 ], [ 119.866891886801341, -0.889565199055028 ] ] } },
{ "type": "Feature", "properties": { "Id": 0, "Kecamatan": "PALU TIMUR", "Armada": "18", "Lokasi": "Jl. Raja Moili", "tipe_kendaraan": "R6" }, "geometry": { "type": "LineString", "coordinates": [ [ 119.862360157803437, -0.89213200092618 ], [ 119.862315522411592, -0.892060191207907 ], [ 119.862213200334565, -0.891808045941169 ], [ 119.862078810550287, -0.891549948830447 ], [ 119.861980110272569, -0.891374305038509 ], [ 119.861793483376132, -0.891134179421438 ], [ 119.861718583493371, -0.891023067534469 ], [ 119.861611561396771, -0.890835476322744 ], [ 119.861350164171583, -0.890344139663976 ], [ 119.86100623536332, -0.889700336431531 ], [ 119.860819291156474, -0.889356212234629 ], [ 119.86077220107444, -0.889273050361185 ], [ 119.860736527812122, -0.88921139645859 ], [ 119.860703707927556, -0.889154043702689 ], [ 119.860660887424842, -0.889063706181199 ], [ 119.86063090434935, -0.888989137688514 ], [ 119.860550888392268, -0.888710914970485 ], [ 119.860396499427807, -0.888079873101899 ], [ 119.860262657209304, -0.887606127492791 ], [ 119.860214794983392, -0.887357912806564 ] ] } },
{ "type": "Feature", "properties": { "Id": 0, "Kecamatan": "PALU TIMUR", "Armada": "18", "Lokasi": "Jl. Undata", "tipe_kendaraan": "R6" }, "geometry": { "type": "LineString", "coordinates": [ [ 119.860214794983392, -0.887357912806564 ], [ 119.860593776360062, -0.887345515091347 ], [ 119.862350756175204, -0.887394949739844 ], [ 119.863841199334672, -0.887528267852713 ], [ 119.865082284585625, -0.887691664089708 ], [ 119.865337635814441, -0.887736291454724 ], [ 119.865323054324392, -0.888076985566396 ], [ 119.865952513216314, -0.888172124154828 ], [ 119.867127549138758, -0.888416794892563 ] ] } },
{ "type": "Feature", "properties": { "Id": 0, "Kecamatan": "PALU TIMUR", "Armada": "18", "Lokasi": "Jl. Dr. Wahidin", "tipe_kendaraan": "R6" }, "geometry": { "type": "LineString", "coordinates": [ [ 119.866573131267884, -0.89219372319354 ], [ 119.866414245540341, -0.893578333334294 ], [ 119.866327870064652, -0.895511325689737 ], [ 119.866320038019239, -0.896129341722286 ], [ 119.866324873661114, -0.89623931258578 ], [ 119.866360594164192, -0.896361212865643 ], [ 119.866812473818385, -0.897159367972835 ], [ 119.866907641253704, -0.897372069835449 ], [ 119.866957501566091, -0.897530256169702 ] ] } },
{ "type": "Feature", "properties": { "Id": 0, "Kecamatan": "PALU TIMUR", "Armada": "18", "Lokasi": "Jl. Dr. Suharso", "tipe_kendaraan": "R6" }, "geometry": { "type": "LineString", "coordinates": [ [ 119.866573131267884, -0.89219372319354 ], [ 119.866769109648629, -0.890707955507091 ], [ 119.866927836686529, -0.889575092541755 ], [ 119.867127549138758, -0.888416794892563 ], [ 119.867270549250563, -0.887593110131307 ], [ 119.867402960266816, -0.886826053592291 ], [ 119.867586798488887, -0.885759754605576 ], [ 119.867729636443954, -0.884961132442726 ], [ 119.867756683143313, -0.884923815664077 ], [ 119.867812235737162, -0.884893648939864 ] ] } },
{ "type": "Feature", "properties": { "Id": 0, "Kecamatan": "PALU TIMUR", "Armada": "18", "Lokasi": "Jl. Cut Mutia", "tipe_kendaraan": "R6" }, "geometry": { "type": "LineString", "coordinates": [ [ 119.867923652938387, -0.884683040643887 ], [ 119.869411604261231, -0.883593613557428 ], [ 119.869518765710481, -0.883501008259686 ], [ 119.869598506418257, -0.883422529716041 ], [ 119.869663046950038, -0.883344063006215 ], [ 119.869828144733788, -0.883078083551789 ], [ 119.869919209232449, -0.882900141196826 ], [ 119.870141111053314, -0.882377829732699 ], [ 119.870170763219647, -0.882331326603036 ], [ 119.870218245387221, -0.882307382243752 ], [ 119.87028830587623, -0.882303741676755 ], [ 119.870342948870118, -0.88232641129152 ], [ 119.870717259193228, -0.882644089401309 ], [ 119.871248352122763, -0.883002048854293 ], [ 119.871815604527853, -0.883127838659328 ], [ 119.871884056726429, -0.883141341252786 ] ] } },
{ "type": "Feature", "properties": { "Id": 0, "Kecamatan": "PALU TIMUR", "Armada": "18", "Lokasi": "Jl. H. Hayun", "tipe_kendaraan": "R6" }, "geometry": { "type": "LineString", "coordinates": [ [ 119.866573131267884, -0.89219372319354 ], [ 119.868447660489167, -0.892273100932662 ], [ 119.869650667093936, -0.892339096750345 ], [ 119.870101495298869, -0.89238266044944 ] ] } },
{ "type": "Feature", "properties": { "Id": 0, "Kecamatan": "PALU TIMUR", "Armada": "18", "Lokasi": "Jl. Kimaja", "tipe_kendaraan": "R6" }, "geometry": { "type": "LineString", "coordinates": [ [ 119.862360157803437, -0.89213200092618 ], [ 119.862485533695775, -0.892097475701399 ], [ 119.862838912607543, -0.892060859187019 ], [ 119.863063109604411, -0.892051120429509 ], [ 119.864464403823831, -0.892072973137968 ], [ 119.865499953738166, -0.892112803781681 ], [ 119.866573131267884, -0.89219372319354 ] ] } },
{ "type": "Feature", "properties": { "Id": 0, "Kecamatan": "PALU TIMUR", "Armada": "18", "Lokasi": "Jl. Setia Budi", "tipe_kendaraan": "R6" }, "geometry": { "type": "LineString", "coordinates": [ [ 119.879408519689918, -0.884036317918337 ], [ 119.879372054286918, -0.884165814828599 ], [ 119.879355487673124, -0.884241613800816 ], [ 119.879140973081604, -0.885713991038 ], [ 119.879084351488501, -0.88620413438883 ], [ 119.879016194013502, -0.886518329305129 ], [ 119.878993491505099, -0.886644577483777 ], [ 119.878883893097523, -0.887423084191544 ], [ 119.878766653657166, -0.888148044740199 ], [ 119.878651761838782, -0.888837142670962 ], [ 119.878547843271278, -0.889587912898913 ], [ 119.878394300418847, -0.890661470626637 ], [ 119.878166777170492, -0.892041100204498 ], [ 119.87791861454788, -0.893601246671035 ], [ 119.877765106708395, -0.894715447872841 ], [ 119.877726201600822, -0.895167597795378 ], [ 119.877715974051299, -0.896988780280932 ] ] } },
{ "type": "Feature", "properties": { "Id": 0, "Kecamatan": "PALU TIMUR", "Armada": "18", "Lokasi": "Jl. Soeprapto", "tipe_kendaraan": "R6" }, "geometry": { "type": "LineString", "coordinates": [ [ 119.876498106583057, -0.881575132812198 ], [ 119.876411067733358, -0.881721212086639 ], [ 119.876362696825751, -0.881824529391644 ], [ 119.876324296565443, -0.881922101183948 ], [ 119.876204972198877, -0.882411816219506 ], [ 119.876030495690742, -0.883451443035661 ], [ 119.875786954082741, -0.88486037293735 ], [ 119.875629489972098, -0.885783797495765 ], [ 119.875478252872938, -0.886773679850729 ], [ 119.875267812982287, -0.887985947196523 ], [ 119.875019546977825, -0.889421778426173 ], [ 119.874765434446275, -0.890972967870665 ], [ 119.874657801940742, -0.891640027326176 ] ] } },
{ "type": "Feature", "properties": { "Id": 0, "Kecamatan": "PALU TIMUR", "Armada": "18", "Lokasi": "Jl. Pramuka Bawah", "tipe_kendaraan": "R6" }, "geometry": { "type": "LineString", "coordinates": [ [ 119.869816706596467, -0.893826070791556 ], [ 119.86808555060145, -0.893625331635518 ], [ 119.866432582756275, -0.893418532915787 ] ] } },
{ "type": "Feature", "properties": { "Id": 0, "Kecamatan": "PALU TIMUR", "Armada": "26", "Lokasi": "Jl. G. Sidole", "tipe_kendaraan": "R6" }, "geometry": { "type": "LineString", "coordinates": [ [ 119.883520656169466, -0.897113717167534 ], [ 119.883451725616993, -0.898142026636351 ], [ 119.88380173704418, -0.898168572896082 ], [ 119.88381410631446, -0.898997821296185 ], [ 119.883843034529193, -0.899542881719627 ], [ 119.883832024043599, -0.9006426202376 ], [ 119.883827631432453, -0.901096859941242 ], [ 119.883827874434985, -0.901369956735442 ] ] } },
{ "type": "Feature", "properties": { "Id": 0, "Kecamatan": "PALU TIMUR", "Armada": "26", "Lokasi": "Jl. Gn. Loli", "tipe_kendaraan": "R6" }, "geometry": { "type": "LineString", "coordinates": [ [ 119.879310862830565, -0.89914450337788 ], [ 119.880052331227873, -0.899129091715159 ], [ 119.880280326673159, -0.899121260205145 ], [ 119.880953644110562, -0.899121920390263 ], [ 119.881971813961229, -0.899123740667473 ], [ 119.882772186843582, -0.89911593195571 ], [ 119.882960288712582, -0.899117216760875 ], [ 119.883273768483065, -0.899089713194885 ], [ 119.883818486454956, -0.899080351471796 ] ] } },
{ "type": "Feature", "properties": { "Id": 0, "Kecamatan": "PALU TIMUR", "Armada": "26", "Lokasi": "Jl. Rajawali", "tipe_kendaraan": "R6" }, "geometry": { "type": "LineString", "coordinates": [ [ 119.876209440825988, -0.902097279670379 ], [ 119.876005506347724, -0.901296009587025 ], [ 119.875659354264087, -0.900246752653896 ], [ 119.875645071872725, -0.900205643373381 ], [ 119.87563078236083, -0.900155449307516 ], [ 119.87562218504047, -0.90009520963531 ], [ 119.87561642763427, -0.900022057741809 ], [ 119.87562872787835, -0.899352164254135 ], [ 119.875656552491833, -0.898489087148999 ], [ 119.875703918725719, -0.897710148441253 ], [ 119.875722483520605, -0.897153092709729 ], [ 119.875753995923887, -0.896839145312504 ] ] } },
{ "type": "Feature", "properties": { "Id": 0, "Kecamatan": "PALU TIMUR", "Armada": "26", "Lokasi": "Jl. G Nokilalaki", "tipe_kendaraan": "R6" }, "geometry": { "type": "LineString", "coordinates": [ [ 119.879236524655141, -0.897114678096383 ], [ 119.879265855738453, -0.898176137424327 ], [ 119.879276178311073, -0.899225658163519 ], [ 119.879313433858457, -0.900546504900487 ], [ 119.879373643952107, -0.901359962563461 ] ] } },
{ "type": "Feature", "properties": { "Id": 0, "Kecamatan": "PALU TIMUR", "Armada": "26", "Lokasi": "Jl. Mawar", "tipe_kendaraan": "R6" }, "geometry": { "type": "LineString", "coordinates": [ [ 119.872505222107094, -0.896490856011909 ], [ 119.872344415895412, -0.897382729532288 ], [ 119.872242622609747, -0.897809318306353 ], [ 119.872216117868746, -0.897931745240595 ], [ 119.872077764206068, -0.898377488989811 ], [ 119.8720359800908, -0.898398560602607 ], [ 119.871975419708022, -0.898411731973678 ] ] } },
{ "type": "Feature", "properties": { "Id": 0, "Kecamatan": "PALU TIMUR", "Armada": "26", "Lokasi": "Jl. Prof. Moh. Yamin", "tipe_kendaraan": "R6" }, "geometry": { "type": "LineString", "coordinates": [ [ 119.889169703764708, -0.905735786501259 ], [ 119.888956945153978, -0.90475073156234 ], [ 119.888744787087077, -0.903761149279596 ], [ 119.888513563872394, -0.90268790712298 ], [ 119.888228246084111, -0.901459357584225 ], [ 119.888010165643578, -0.900558786750037 ], [ 119.887762373370663, -0.89955249622435 ], [ 119.88752709965712, -0.898608353703239 ], [ 119.887340053313395, -0.897833315103371 ], [ 119.887320063677876, -0.897739941376313 ] ] } },
{ "type": "Feature", "properties": { "Id": 0, "Kecamatan": "PALU TIMUR", "Armada": "22", "Lokasi": "Jl. Ahmad Yani", "tipe_kendaraan": "R6" }, "geometry": { "type": "LineString", "coordinates": [ [ 119.871712075421186, -0.892509305918622 ], [ 119.871909342106463, -0.891336447578317 ], [ 119.872263184414763, -0.889359883729112 ], [ 119.872597978025183, -0.887351257680223 ], [ 119.872742528257419, -0.88643709371182 ], [ 119.872959331534759, -0.885186996736494 ], [ 119.873020347491661, -0.884849854801466 ], [ 119.87304729573134, -0.884684872733277 ], [ 119.873077715178837, -0.884476981419604 ] ] } },
{ "type": "Feature", "properties": { "Id": 0, "Kecamatan": "PALU TIMUR", "Armada": "22", "Lokasi": "Jl. Teratai", "tipe_kendaraan": "R6" }, "geometry": { "type": "LineString", "coordinates": [ [ 119.871226258532843, -0.895073203116205 ], [ 119.872813961824718, -0.895369998240183 ], [ 119.872883033218983, -0.895383462933721 ] ] } },
{ "type": "Feature", "properties": { "Id": 0, "Kecamatan": "PALU TIMUR", "Armada": "22", "Lokasi": "Jl. S. Parman", "tipe_kendaraan": "R6" }, "geometry": { "type": "LineString", "coordinates": [ [ 119.871135461936106, -0.886861562575251 ], [ 119.871281821063775, -0.886936039401218 ], [ 119.872083797744324, -0.88715344820182 ], [ 119.873731152861751, -0.8875107704588 ], [ 119.87551153482903, -0.88790396726634 ], [ 119.877750141736115, -0.888409286365954 ], [ 119.878689636372712, -0.888609978609912 ] ] } },
{ "type": "Feature", "properties": { "Id": 0, "Kecamatan": "PALU TIMUR", "Armada": "22", "Lokasi": "Jl. Sam Ratulangi dari pertigaan Cut Mutia", "tipe_kendaraan": "R6" }, "geometry": { "type": "LineString", "coordinates": [ [ 119.871884056726429, -0.883141341252786 ], [ 119.871679356800854, -0.884103774496019 ], [ 119.871414319871022, -0.885359121172006 ], [ 119.871206155678919, -0.886447071924813 ], [ 119.870960734680452, -0.887728104782746 ], [ 119.870756661711084, -0.888729388674542 ], [ 119.870481659967638, -0.890146120468326 ], [ 119.870313184118132, -0.891108527624271 ], [ 119.870101495298869, -0.89238266044944 ] ] } },
{ "type": "Feature", "properties": { "Id": 0, "Kecamatan": "PALU TIMUR", "Armada": "22", "Lokasi": "Jl. KH. Ahmad Dahlan", "tipe_kendaraan": "R6" }, "geometry": { "type": "LineString", "coordinates": [ [ 119.871712075421186, -0.892509305918622 ], [ 119.871614955306612, -0.893100821892483 ], [ 119.871560599872012, -0.89344871775251 ], [ 119.871445853183218, -0.894017804942483 ], [ 119.871320252824461, -0.894678466267065 ], [ 119.871245057260381, -0.895103121586953 ], [ 119.871034568769929, -0.896229667061954 ], [ 119.870927129134941, -0.89674151020159 ], [ 119.870847599484009, -0.897089665402092 ], [ 119.870658609908133, -0.897628684686597 ] ] } },
{ "type": "Feature", "properties": { "Id": 0, "Kecamatan": null, "Armada": "13", "Lokasi": "Jl. Palola", "tipe_kendaraan": "R6" }, "geometry": { "type": "LineString", "coordinates": [ [ 119.847432155980485, -0.89627529799993 ], [ 119.847438693530322, -0.897299054868241 ], [ 119.847454542811136, -0.898274576190831 ], [ 119.8474599207929, -0.898947251138201 ], [ 119.847489239634712, -0.900001567928148 ], [ 119.847499753870395, -0.901306932751963 ], [ 119.847513937357874, -0.901748386784149 ] ] } },
{ "type": "Feature", "properties": { "Id": 0, "Kecamatan": null, "Armada": "13", "Lokasi": "Jl. Kangkung", "tipe_kendaraan": "R6" }, "geometry": { "type": "LineString", "coordinates": [ [ 119.847494472709826, -0.900651288302751 ], [ 119.849348312899679, -0.90073587080939 ], [ 119.850008313848463, -0.900744885306862 ] ] } },
{ "type": "Feature", "properties": { "Id": 0, "Kecamatan": null, "Armada": "13", "Lokasi": "Jl. Kunduri", "tipe_kendaraan": "R6" }, "geometry": { "type": "LineString", "coordinates": [ [ 119.847513937357874, -0.901748386784149 ], [ 119.847899513648443, -0.901756445466373 ], [ 119.84904536230367, -0.90189516438173 ], [ 119.850027345980337, -0.902026622999796 ] ] } },
{ "type": "Feature", "properties": { "Id": 0, "Kecamatan": null, "Armada": "13", "Lokasi": "Jl. Langsat", "tipe_kendaraan": "R6" }, "geometry": { "type": "LineString", "coordinates": [ [ 119.847454251400549, -0.898256640365609 ], [ 119.847629538021479, -0.898227768141617 ], [ 119.848387612945743, -0.898161187179023 ], [ 119.849191281081602, -0.898084529026987 ], [ 119.849809579443075, -0.898008972268035 ] ] } },
{ "type": "Feature", "properties": { "Id": 0, "Kecamatan": null, "Armada": "13", "Lokasi": "Jl. Tolambu", "tipe_kendaraan": "R6" }, "geometry": { "type": "LineString", "coordinates": [ [ 119.849809579443075, -0.898008972268035 ], [ 119.849880336758787, -0.898867433258749 ], [ 119.849936759010902, -0.899650611095866 ], [ 119.84995259271976, -0.8998542937832 ], [ 119.849991561625089, -0.900488300094339 ], [ 119.850013194937191, -0.900819646267669 ], [ 119.850019340299582, -0.90139199605915 ], [ 119.850006829672694, -0.901796527245326 ], [ 119.850005501312793, -0.902019469476739 ] ] } },
{ "type": "Feature", "properties": { "Id": 0, "Kecamatan": null, "Armada": "13", "Lokasi": "Jl. Asam III", "tipe_kendaraan": "R6" }, "geometry": { "type": "LineString", "coordinates": [ [ 119.83636629740765, -0.894967536620436 ], [ 119.836488803489416, -0.894903367312596 ], [ 119.836637909976091, -0.894838220967578 ], [ 119.836748091958782, -0.894808489024933 ], [ 119.83713753889522, -0.894717334676518 ], [ 119.837235376546161, -0.894695741129111 ], [ 119.837559543687448, -0.894651019450421 ], [ 119.837879906636786, -0.894601184391314 ], [ 119.838324470903075, -0.89453006996236 ], [ 119.838801363532539, -0.894494314352132 ], [ 119.838838412123508, -0.894490460183742 ], [ 119.839081583173765, -0.894439585493758 ], [ 119.839491909508794, -0.894321637861784 ], [ 119.839768314837741, -0.894248741846297 ], [ 119.839817709481238, -0.894239140115519 ], [ 119.840377938222858, -0.894165544754341 ], [ 119.840419735845202, -0.894160252399547 ], [ 119.84110233823597, -0.894160198475063 ], [ 119.84137736849047, -0.894152811635728 ] ] } },
{ "type": "Feature", "properties": { "Id": 0, "Kecamatan": null, "Armada": "13", "Lokasi": "Jl. Munif Rahman I", "tipe_kendaraan": "R6" }, "geometry": { "type": "LineString", "coordinates": [ [ 119.837396310513284, -0.880940694690011 ], [ 119.837359774991143, -0.880994755123596 ], [ 119.837300724779269, -0.881113145746526 ], [ 119.837184797805634, -0.881397263493204 ], [ 119.837024816754777, -0.881843273300998 ], [ 119.836967936965138, -0.882004936087532 ], [ 119.836922453293994, -0.882160852179825 ], [ 119.836873276062377, -0.882457351074785 ], [ 119.836835452209314, -0.88269168006305 ], [ 119.836778698006427, -0.883018787266972 ], [ 119.836714397284823, -0.883416668454495 ], [ 119.836634350310007, -0.883877798883185 ], [ 119.836611865872513, -0.883981816682016 ], [ 119.83657515447112, -0.884116926043416 ], [ 119.836412793641102, -0.884555765817908 ], [ 119.836372488754577, -0.88465023410436 ], [ 119.836328593972013, -0.884708842911733 ], [ 119.835972170685992, -0.88512535866751 ], [ 119.835777106643235, -0.885347854978854 ], [ 119.835540727859126, -0.8855861625927 ] ] } },
{ "type": "Feature", "properties": { "Id": 0, "Kecamatan": null, "Armada": "13", "Lokasi": "Jl. Munif Rahman II", "tipe_kendaraan": "R6" }, "geometry": { "type": "LineString", "coordinates": [ [ 119.835540727859126, -0.8855861625927 ], [ 119.835655636485882, -0.88450975166468 ], [ 119.835737936823719, -0.883418877656024 ], [ 119.835798704297403, -0.882119541020407 ], [ 119.835834328196341, -0.881175140677841 ], [ 119.835883226647752, -0.880509499555659 ], [ 119.835968384465417, -0.880052310004601 ], [ 119.835998733636345, -0.879983431219235 ], [ 119.836032888743063, -0.879922200138073 ], [ 119.83609173616199, -0.879849474229103 ], [ 119.83614680800045, -0.879809266329878 ], [ 119.83672893374731, -0.879552904246624 ] ] } },
{ "type": "Feature", "properties": { "Id": 0, "Kecamatan": null, "Armada": "23", "Lokasi": "Jl. Diponegoro", "tipe_kendaraan": "R6" }, "geometry": { "type": "LineString", "coordinates": [ [ 119.83692261853696, -0.879790422286855 ], [ 119.837327997225714, -0.880666584409236 ], [ 119.837387927722133, -0.880769821639433 ], [ 119.837437851350714, -0.880831466363041 ], [ 119.837514866237271, -0.880913173139694 ], [ 119.837577609939743, -0.880967635571438 ], [ 119.837680272568136, -0.881045019183305 ], [ 119.838189265990536, -0.881373126312864 ], [ 119.840048412362208, -0.8825271766201 ], [ 119.841278105570311, -0.883297265631102 ], [ 119.841478170306814, -0.883405654131708 ], [ 119.841592216583336, -0.883461032970336 ], [ 119.841797514121481, -0.883579458745588 ], [ 119.842352597235489, -0.883925219416834 ], [ 119.843291677206594, -0.884511676267187 ], [ 119.844716460506433, -0.885408560548742 ], [ 119.846123177114293, -0.886284895180845 ], [ 119.847175842429166, -0.886946330113421 ], [ 119.848651483088759, -0.887884767094606 ], [ 119.850005928687025, -0.888737226900267 ], [ 119.851429278483337, -0.889625492321681 ], [ 119.852869264373993, -0.890528086694951 ], [ 119.854682907845628, -0.891662889626432 ], [ 119.854889775080537, -0.891815737811218 ], [ 119.854975333398599, -0.891888350602247 ], [ 119.855098934029812, -0.892014487063906 ], [ 119.855165500703649, -0.892098590397278 ], [ 119.855266318457623, -0.89224769607973 ], [ 119.855311989023235, -0.892337553587323 ], [ 119.855635639878329, -0.893169290653457 ], [ 119.855828456779989, -0.893691583914267 ] ] } },
{ "type": "Feature", "properties": { "Id": 0, "Kecamatan": null, "Armada": "23", "Lokasi": "Jl. Imam Bonjol", "tipe_kendaraan": "R6" }, "geometry": { "type": "LineString", "coordinates": [ [ 119.855828456779989, -0.893691583914267 ], [ 119.856027881039054, -0.894243876257164 ], [ 119.856077844639998, -0.894356681692675 ], [ 119.856144924609836, -0.894490034365086 ], [ 119.856244766023096, -0.894604713285661 ], [ 119.856381672846027, -0.894738011156536 ], [ 119.856555619535371, -0.894856935288086 ], [ 119.856770892289092, -0.894975826950294 ], [ 119.857381051217715, -0.895289495680198 ], [ 119.858445493269485, -0.895824670593859 ], [ 119.859420616055303, -0.896338397535394 ], [ 119.859935730198231, -0.896598107817134 ], [ 119.860076391423249, -0.8966725890554 ] ] } },
{ "type": "Feature", "properties": { "Id": 0, "Kecamatan": null, "Armada": "23", "Lokasi": "Jl. Gajah Mada", "tipe_kendaraan": "R6" }, "geometry": { "type": "LineString", "coordinates": [ [ 119.860076391423249, -0.8966725890554 ], [ 119.860914637686051, -0.897092703920008 ], [ 119.862017108534104, -0.897665618519566 ], [ 119.863172800922314, -0.898265266184958 ], [ 119.863419892523083, -0.898376002415553 ], [ 119.863552923608225, -0.898412236940791 ], [ 119.863606432360413, -0.898419921055518 ], [ 119.863648471850496, -0.898436057578125 ], [ 119.863675890043098, -0.89848138480029 ] ] } },
{ "type": "Feature", "properties": { "Id": 0, "Kecamatan": null, "Armada": "23", "Lokasi": "Jl. Sungai Gumbasa", "tipe_kendaraan": "R6" }, "geometry": { "type": "LineString", "coordinates": [ [ 119.863675890043098, -0.89848138480029 ], [ 119.863673787896587, -0.898526810887923 ], [ 119.863670987583717, -0.898590646374094 ], [ 119.863648311770149, -0.898750606085219 ], [ 119.863612893095464, -0.899016247437727 ], [ 119.863558673428287, -0.899537475864013 ], [ 119.86352092818926, -0.899865039775154 ], [ 119.863525716539272, -0.899914046561622 ], [ 119.863592383101206, -0.900125576057422 ], [ 119.863743442405479, -0.900437450639169 ] ] } },
{ "type": "Feature", "properties": { "Id": 0, "Kecamatan": null, "Armada": "23", "Lokasi": "Jl. Sungai Lariang", "tipe_kendaraan": "R6" }, "geometry": { "type": "LineString", "coordinates": [ [ 119.863743442405479, -0.900437450639169 ], [ 119.863759514605533, -0.900489436932433 ], [ 119.863780039638428, -0.900540921625248 ], [ 119.863791959707385, -0.900598290409465 ], [ 119.863769632066948, -0.90089954373211 ], [ 119.863691802939385, -0.901600097824269 ], [ 119.863627940985381, -0.902241828251942 ], [ 119.863638328265978, -0.902768265234069 ], [ 119.86365732666485, -0.903372155972563 ], [ 119.863660431893621, -0.903697774928822 ], [ 119.863654848702154, -0.903846962745898 ], [ 119.863605420265444, -0.904417915361867 ], [ 119.863564951250723, -0.904904706165029 ], [ 119.863505611161457, -0.905555996278842 ], [ 119.863435743014819, -0.906410031270721 ], [ 119.863355037679938, -0.907375245339778 ], [ 119.863308470361389, -0.9079581497644 ], [ 119.863305682416168, -0.908037047069833 ], [ 119.863310018515108, -0.90811450423496 ], [ 119.863327514912825, -0.908365240583903 ] ] } },
{ "type": "Feature", "properties": { "Id": 0, "Kecamatan": null, "Armada": "23", "Lokasi": "Jl. Cempedak", "tipe_kendaraan": "R6" }, "geometry": { "type": "LineString", "coordinates": [ [ 119.851904409499568, -0.904605839155259 ], [ 119.852694669668068, -0.904653216735546 ], [ 119.853046180868461, -0.904652938335983 ], [ 119.853486555634575, -0.904698492495912 ], [ 119.853949754507056, -0.904774152305185 ], [ 119.855070005859972, -0.904986999922277 ], [ 119.855573573263527, -0.90505354233836 ], [ 119.855640085710107, -0.905066877932438 ], [ 119.855683810955242, -0.905097445185305 ], [ 119.855716156825835, -0.905154798152645 ], [ 119.855718101802267, -0.905212175233284 ], [ 119.855687897087989, -0.905462752523069 ], [ 119.855695546742055, -0.90552586294002 ], [ 119.855729777713847, -0.905564088190776 ], [ 119.855792512525696, -0.905606116058208 ], [ 119.855874232916037, -0.905629002645641 ], [ 119.856953663600962, -0.905882524029653 ] ] } },
{ "type": "Feature", "properties": { "Id": 0, "Kecamatan": null, "Armada": "24", "Lokasi": "Jl. KH. Wahid Hasyim", "tipe_kendaraan": "R6" }, "geometry": { "type": "LineString", "coordinates": [ [ 119.855821004931016, -0.893671398716418 ], [ 119.855943522437215, -0.893644886310629 ], [ 119.857293921717883, -0.893565889211235 ], [ 119.858678596908419, -0.893483737006326 ], [ 119.859450693990127, -0.89343985882788 ], [ 119.859654941325289, -0.893430195389819 ], [ 119.859763240466251, -0.893425807094654 ], [ 119.859877792340086, -0.893406823675105 ], [ 119.859956303484864, -0.893388359745235 ], [ 119.860135098388213, -0.893327972224447 ], [ 119.860522339443051, -0.893159597720169 ], [ 119.86109875965397, -0.892845955541561 ] ] } },
{ "type": "Feature", "properties": { "Id": 0, "Kecamatan": null, "Armada": "24", "Lokasi": "Jl. Mokolembake", "tipe_kendaraan": "R6" }, "geometry": { "type": "LineString", "coordinates": [ [ 119.848318755558793, -0.887708815726345 ], [ 119.847780202768689, -0.88865044970802 ], [ 119.847187274315843, -0.889644145569475 ], [ 119.84697521308027, -0.889997191657543 ], [ 119.84688269840295, -0.890145014699299 ], [ 119.84683998661869, -0.890196689080181 ], [ 119.846785872252653, -0.890245503378797 ], [ 119.846458344729953, -0.890549867279018 ], [ 119.84642417221221, -0.890587190272645 ], [ 119.846360489889861, -0.890676346139924 ] ] } },
{ "type": "Feature", "properties": { "Id": 0, "Kecamatan": null, "Armada": "24", "Lokasi": "Jl. Lasoso", "tipe_kendaraan": "R6" }, "geometry": { "type": "LineString", "coordinates": [ [ 119.836387082401245, -0.884653565987958 ], [ 119.83710137771449, -0.885102010960759 ], [ 119.837768617305244, -0.885512716668995 ], [ 119.838755223768544, -0.886125916136304 ], [ 119.839822376533888, -0.886779576257984 ], [ 119.839943604363555, -0.88685630723605 ], [ 119.840116832203762, -0.886965911464165 ], [ 119.840236593137746, -0.887039694863392 ], [ 119.840437616092473, -0.887157884437116 ], [ 119.840823987474906, -0.887395710037573 ], [ 119.841728491308928, -0.887953083931247 ], [ 119.842095610485529, -0.888172753657949 ], [ 119.842632621469363, -0.88848792368754 ], [ 119.843181656928152, -0.888791040350962 ], [ 119.843774738789463, -0.889131030457523 ], [ 119.844219565506435, -0.889406105452525 ], [ 119.845371529092205, -0.890088022844347 ], [ 119.845905699794542, -0.890416581261032 ], [ 119.846360489889861, -0.890676346139924 ] ] } },
{ "type": "Feature", "properties": { "Id": 0, "Kecamatan": null, "Armada": null, "Lokasi": "Jl. Labu", "tipe_kendaraan": "R6" }, "geometry": { "type": "LineString", "coordinates": [ [ 119.85003184746418, -0.902040941669117 ], [ 119.849991350220407, -0.902300674918703 ], [ 119.849846996225068, -0.903585120298662 ], [ 119.849726159945291, -0.904721438031495 ], [ 119.849661330115964, -0.905494311754959 ], [ 119.849658041349983, -0.906148434133668 ], [ 119.849635714861989, -0.906754755837426 ], [ 119.849567569703041, -0.907690086460458 ], [ 119.849497107918054, -0.90869905533054 ], [ 119.849440822412305, -0.909612381479866 ] ] } },
{ "type": "Feature", "properties": { "Id": 0, "Kecamatan": null, "Armada": null, "Lokasi": "Jl. Kunduri depan pasar", "tipe_kendaraan": "R6" }, "geometry": { "type": "LineString", "coordinates": [ [ 119.85003184746418, -0.902040941669117 ], [ 119.850615335988948, -0.902110447853228 ], [ 119.851537134927824, -0.902207609839792 ], [ 119.851798806607988, -0.902202467405204 ] ] } },
{ "type": "Feature", "properties": { "Id": 0, "Kecamatan": null, "Armada": null, "Lokasi": "Jl. Bayam", "tipe_kendaraan": "R6" }, "geometry": { "type": "LineString", "coordinates": [ [ 119.847567251413736, -0.904447163907522 ], [ 119.848501295219975, -0.904483015255629 ], [ 119.84982188332917, -0.90453552455685 ], [ 119.851904409499568, -0.904605839155259 ] ] } },
{ "type": "Feature", "properties": { "Id": 0, "Kecamatan": null, "Armada": null, "Lokasi": "Jl. Kemiri", "tipe_kendaraan": "R6" }, "geometry": { "type": "LineString", "coordinates": [ [ 119.851798806607988, -0.902202467405204 ], [ 119.852068133523105, -0.902193647922697 ], [ 119.852187850749772, -0.902210767028515 ], [ 119.852366010468032, -0.902247922549916 ], [ 119.853568576442086, -0.902636191673977 ], [ 119.854820563911233, -0.903051197191725 ], [ 119.856169967472724, -0.903516330497342 ], [ 119.857606954251082, -0.904002493932346 ] ] } },
{ "type": "Feature", "properties": { "Id": 0, "Kecamatan": null, "Armada": null, "Lokasi": "Jl. Ps Ikan", "tipe_kendaraan": "R6" }, "geometry": { "type": "LineString", "coordinates": [ [ 119.858571018500697, -0.887904761574639 ], [ 119.858837478901137, -0.888495552264247 ], [ 119.859060209208408, -0.889048124463814 ], [ 119.859180160746135, -0.889371262846998 ], [ 119.859383190862999, -0.889823474034134 ] ] } },
{ "type": "Feature", "properties": { "Id": 0, "Kecamatan": null, "Armada": null, "Lokasi": "Jl. Danau Lindu", "tipe_kendaraan": "R6" }, "geometry": { "type": "LineString", "coordinates": [ [ 119.861401671314525, -0.897345797997093 ], [ 119.861100462160195, -0.897938860475497 ], [ 119.861077727493296, -0.898023511473845 ], [ 119.861052148347412, -0.898115337012963 ], [ 119.860988710969423, -0.89900044823608 ], [ 119.860936620819203, -0.899816696553744 ], [ 119.860923064160957, -0.900030035115796 ] ] } },
{ "type": "Feature", "properties": { "Id": 0, "Kecamatan": null, "Armada": null, "Lokasi": "Jl. Sungai Surumana", "tipe_kendaraan": "R6" }, "geometry": { "type": "LineString", "coordinates": [ [ 119.860882086114387, -0.900023076833674 ], [ 119.8608483715783, -0.900605675310185 ], [ 119.860773637965963, -0.902229542269973 ], [ 119.860615278049778, -0.902757489005779 ], [ 119.860330498113342, -0.903683809732034 ], [ 119.860119224399085, -0.904397948096018 ], [ 119.860079842926353, -0.904530607147368 ], [ 119.860060939853255, -0.904654942032315 ] ] } },
{ "type": "Feature", "properties": { "Id": 0, "Kecamatan": null, "Armada": null, "Lokasi": "Jl. Danau Talaga", "tipe_kendaraan": "R6" }, "geometry": { "type": "LineString", "coordinates": [ [ 119.860060939853255, -0.904654942032298 ], [ 119.860771965096333, -0.904870980745837 ], [ 119.86185975762524, -0.905193108538195 ], [ 119.862685994036397, -0.905436787412031 ], [ 119.862743005507582, -0.905449652173926 ], [ 119.863493021074305, -0.905532288421133 ] ] } }
]
}
