{
"type": "FeatureCollection",
"name": "tps_resmi",
"crs": { "type": "name", "properties": { "name": "urn:ogc:def:crs:OGC:1.3:CRS84" } },
"features": [
{ "type": "Feature", "properties": { "OID_": 0, "Name": "TPS Rusun Kayumalue Pajeko, Jl. Togolele", "FolderPath": "Document/DLH", "SymbolID": 0, "AltMode": -1, "Base": 0.0, "TimeSpan": 0, "TimeStamp": -1, "BeginTime": "2025-06-02 05:21:43.0", "EndTime": null, "Snippet": null, "PopupInfo": null, "HasLabel": -1, "LabelID": 0 }, "geometry": { "type": "Point", "coordinates": [ 119.872543335000046, -0.765582084999949, 0.0 ] } },
{ "type": "Feature", "properties": { "OID_": 0, "Name": "Armada 01 TPS Tawaeli, samping gereja GPID Bahtera", "FolderPath": "Document/DLH", "SymbolID": 0, "AltMode": -1, "Base": 0.0, "TimeSpan": 0, "TimeStamp": -1, "BeginTime": "2025-05-22 02:54:56.0", "EndTime": null, "Snippet": null, "PopupInfo": null, "HasLabel": -1, "LabelID": 0 }, "geometry": { "type": "Point", "coordinates": [ 119.864599602861134, -0.711564466251913, 0.0 ] } },
{ "type": "Feature", "properties": { "OID_": 0, "Name": "Armada 02 TPS Tawaeli, samping lapangan bola Lembara", "FolderPath": "Document/DLH", "SymbolID": 0, "AltMode": -1, "Base": 0.0, "TimeSpan": 0, "TimeStamp": -1, "BeginTime": "2025-05-22 03:14:09.0", "EndTime": null, "Snippet": null, "PopupInfo": null, "HasLabel": -1, "LabelID": 0 }, "geometry": { "type": "Point", "coordinates": [ 119.866166667000016, -0.73702, 0.0 ] } },
{ "type": "Feature", "properties": { "OID_": 0, "Name": "Armada 25 TPS 3R Huntap Duyu", "FolderPath": "Document/DLH", "SymbolID": 0, "AltMode": -1, "Base": 0.0, "TimeSpan": 0, "TimeStamp": -1, "BeginTime": "2025-06-02 05:18:19.0", "EndTime": null, "Snippet": null, "PopupInfo": null, "HasLabel": -1, "LabelID": 0 }, "geometry": { "type": "Point", "coordinates": [ 119.833483646000104, -0.916754616999924, 0.0 ] } },
{ "type": "Feature", "properties": { "OID_": 0, "Name": "Armada 25 TPS 3R Pengawu", "FolderPath": "Document/DLH", "SymbolID": 0, "AltMode": -1, "Base": 0.0, "TimeSpan": 0, "TimeStamp": -1, "BeginTime": "2025-05-23 01:00:13.0", "EndTime": null, "Snippet": null, "PopupInfo": null, "HasLabel": -1, "LabelID": 0 }, "geometry": { "type": "Point", "coordinates": [ 119.843037414000037, -0.928912156999957, 0.0 ] } },
{ "type": "Feature", "properties": { "OID_": 0, "Name": "Armada 22 Dikjar Setia budi", "FolderPath": "Document/Lapisan 4", "SymbolID": 0, "AltMode": -1, "Base": 0.0, "TimeSpan": 0, "TimeStamp": -1, "BeginTime": "2025-05-22 02:35:34.0", "EndTime": null, "Snippet": null, "PopupInfo": null, "HasLabel": -1, "LabelID": 0 }, "geometry": { "type": "Point", "coordinates": [ 119.877635548000057, -0.894604452999943, 0.0 ] } },
{ "type": "Feature", "properties": { "OID_": 0, "Name": "Armada 22 gerobak sampah SMA 1", "FolderPath": "Document/Lapisan 4", "SymbolID": 0, "AltMode": -1, "Base": 0.0, "TimeSpan": 0, "TimeStamp": -1, "BeginTime": "2025-05-22 02:14:26.0", "EndTime": null, "Snippet": null, "PopupInfo": null, "HasLabel": -1, "LabelID": 0 }, "geometry": { "type": "Point", "coordinates": [ 119.874926957000071, -0.893513630999962, 0.0 ] } },
{ "type": "Feature", "properties": { "OID_": 0, "Name": "Armada 22 gerobak sampah SMEA", "FolderPath": "Document/Lapisan 4", "SymbolID": 0, "AltMode": -1, "Base": 0.0, "TimeSpan": 0, "TimeStamp": -1, "BeginTime": "2025-05-22 02:30:04.0", "EndTime": null, "Snippet": null, "PopupInfo": null, "HasLabel": -1, "LabelID": 0 }, "geometry": { "type": "Point", "coordinates": [ 119.878285327000071, -0.891381493999972, 0.0 ] } },
{ "type": "Feature", "properties": { "OID_": 0, "Name": "Armada 22 gerobak sampah smp 1", "FolderPath": "Document/Lapisan 4", "SymbolID": 0, "AltMode": -1, "Base": 0.0, "TimeSpan": 0, "TimeStamp": -1, "BeginTime": "2025-05-22 02:06:40.0", "EndTime": null, "Snippet": null, "PopupInfo": null, "HasLabel": -1, "LabelID": 0 }, "geometry": { "type": "Point", "coordinates": [ 119.873867794000034, -0.895474313999955, 0.0 ] } },
{ "type": "Feature", "properties": { "OID_": 0, "Name": "Armada 16 dinas kehutanan", "FolderPath": "Document/Lapisan 4", "SymbolID": 0, "AltMode": -1, "Base": 0.0, "TimeSpan": 0, "TimeStamp": -1, "BeginTime": "2025-05-22 02:44:13.0", "EndTime": null, "Snippet": null, "PopupInfo": null, "HasLabel": -1, "LabelID": 0 }, "geometry": { "type": "Point", "coordinates": [ 119.877497695000102, -0.888052996999932, 0.0 ] } },
{ "type": "Feature", "properties": { "OID_": 0, "Name": "Armada 16 sungai pondoh bestin", "FolderPath": "Document/Lapisan 4", "SymbolID": 0, "AltMode": -1, "Base": 0.0, "TimeSpan": 0, "TimeStamp": -1, "BeginTime": "2025-05-22 02:52:09.0", "EndTime": null, "Snippet": null, "PopupInfo": null, "HasLabel": -1, "LabelID": 0 }, "geometry": { "type": "Point", "coordinates": [ 119.882819939000115, -0.889717478999955, 0.0 ] } },
{ "type": "Feature", "properties": { "OID_": 0, "Name": "Armada 22 gerobak sampah smp 4", "FolderPath": "Document/Lapisan 4", "SymbolID": 0, "AltMode": -1, "Base": 0.0, "TimeSpan": 0, "TimeStamp": -1, "BeginTime": "2025-05-22 02:23:24.0", "EndTime": null, "Snippet": null, "PopupInfo": null, "HasLabel": -1, "LabelID": 0 }, "geometry": { "type": "Point", "coordinates": [ 119.874361065000016, -0.893359421999946, 0.0 ] } },
{ "type": "Feature", "properties": { "OID_": 0, "Name": "Armada 22 kantor gubernur", "FolderPath": "Document/Lapisan 4", "SymbolID": 0, "AltMode": -1, "Base": 0.0, "TimeSpan": 0, "TimeStamp": -1, "BeginTime": "2025-05-21 07:54:48.0", "EndTime": null, "Snippet": null, "PopupInfo": null, "HasLabel": -1, "LabelID": 0 }, "geometry": { "type": "Point", "coordinates": [ 119.8714694250001, -0.891133038999953, 0.0 ] } },
{ "type": "Feature", "properties": { "OID_": 0, "Name": "Armada 22 tps HJ kalla Juanda", "FolderPath": "Document/Lapisan 4", "SymbolID": 0, "AltMode": -1, "Base": 0.0, "TimeSpan": 0, "TimeStamp": -1, "BeginTime": "2025-05-21 08:07:46.0", "EndTime": null, "Snippet": null, "PopupInfo": null, "HasLabel": -1, "LabelID": 0 }, "geometry": { "type": "Point", "coordinates": [ 119.883458026000085, -0.896581099999935, 0.0 ] } },
{ "type": "Feature", "properties": { "OID_": 0, "Name": "Armada 22 TPS polres", "FolderPath": "Document/Lapisan 4", "SymbolID": 0, "AltMode": -1, "Base": 0.0, "TimeSpan": 0, "TimeStamp": -1, "BeginTime": "2025-05-21 07:46:09.0", "EndTime": null, "Snippet": null, "PopupInfo": null, "HasLabel": -1, "LabelID": 0 }, "geometry": { "type": "Point", "coordinates": [ 119.869307103000097, -0.889392806999979, 0.0 ] } },
{ "type": "Feature", "properties": { "OID_": 0, "Name": "Armada 22 TPS sungai pondoh vetran", "FolderPath": "Document/Lapisan 4", "SymbolID": 0, "AltMode": -1, "Base": 0.0, "TimeSpan": 0, "TimeStamp": -1, "BeginTime": "2025-05-23 01:19:08.0", "EndTime": null, "Snippet": null, "PopupInfo": null, "HasLabel": -1, "LabelID": 0 }, "geometry": { "type": "Point", "coordinates": [ 119.895193431000052, -0.896877092999944, 0.0 ] } },
{ "type": "Feature", "properties": { "OID_": 0, "Name": "Armada 27 TPS perdos", "FolderPath": "Document/Lapisan 4", "SymbolID": 0, "AltMode": -1, "Base": 0.0, "TimeSpan": 0, "TimeStamp": -1, "BeginTime": "2025-05-21 02:47:13.0", "EndTime": null, "Snippet": null, "PopupInfo": null, "HasLabel": -1, "LabelID": 0 }, "geometry": { "type": "Point", "coordinates": [ 119.897638889000064, -0.844388888999958, 0.0 ] } },
{ "type": "Feature", "properties": { "OID_": 0, "Name": "Armada 28 tps bantaran sungai lembu (towua)", "FolderPath": "Document/Lapisan 4", "SymbolID": 0, "AltMode": -1, "Base": 0.0, "TimeSpan": 0, "TimeStamp": -1, "BeginTime": "2025-05-22 01:20:01.0", "EndTime": null, "Snippet": null, "PopupInfo": null, "HasLabel": -1, "LabelID": 0 }, "geometry": { "type": "Point", "coordinates": [ 119.876936160529766, -0.925049103693547, 0.0 ] } },
{ "type": "Feature", "properties": { "OID_": 0, "Name": "Armada 34 TPS perdos", "FolderPath": "Document/Lapisan 4", "SymbolID": 0, "AltMode": -1, "Base": 0.0, "TimeSpan": 0, "TimeStamp": -1, "BeginTime": "2025-05-21 03:02:34.0", "EndTime": null, "Snippet": null, "PopupInfo": null, "HasLabel": -1, "LabelID": 0 }, "geometry": { "type": "Point", "coordinates": [ 119.896712229000059, -0.844430272999944, 0.0 ] } },
{ "type": "Feature", "properties": { "OID_": 0, "Name": "Armada 35 TPS3R Huntap tondo", "FolderPath": "Document/Lapisan 4", "SymbolID": 0, "AltMode": -1, "Base": 0.0, "TimeSpan": 0, "TimeStamp": -1, "BeginTime": "2025-05-21 03:07:24.0", "EndTime": null, "Snippet": null, "PopupInfo": null, "HasLabel": -1, "LabelID": 0 }, "geometry": { "type": "Point", "coordinates": [ 119.900431273000095, -0.834044838999944, 0.0 ] } },
{ "type": "Feature", "properties": { "OID_": 0, "Name": "Armada 31 TPS3R Silae", "FolderPath": "Document/Lapisan 4", "SymbolID": 0, "AltMode": -1, "Base": 0.0, "TimeSpan": 0, "TimeStamp": -1, "BeginTime": "2025-05-23 07:35:52.0", "EndTime": null, "Snippet": null, "PopupInfo": null, "HasLabel": -1, "LabelID": 0 }, "geometry": { "type": "Point", "coordinates": [ 119.831244582000068, -0.873069800999929, 0.0 ] } },
{ "type": "Feature", "properties": { "OID_": 0, "Name": "Armada 23 TPS Rusunawa Ujuna", "FolderPath": "Document/Lapisan 2", "SymbolID": 0, "AltMode": -1, "Base": 0.0, "TimeSpan": 0, "TimeStamp": -1, "BeginTime": "2025-05-24 11:18:19.0", "EndTime": null, "Snippet": null, "PopupInfo": null, "HasLabel": -1, "LabelID": 0 }, "geometry": { "type": "Point", "coordinates": [ 119.865531667000027, -0.900475, 0.0 ] } },
{ "type": "Feature", "properties": { "OID_": 0, "Name": "Armada 24 TPS Tangkasi", "FolderPath": "Document/Lapisan 2", "SymbolID": 0, "AltMode": -1, "Base": 0.0, "TimeSpan": 0, "TimeStamp": -1, "BeginTime": "2025-05-23 08:02:38.0", "EndTime": null, "Snippet": null, "PopupInfo": null, "HasLabel": -1, "LabelID": 0 }, "geometry": { "type": "Point", "coordinates": [ 119.891386667, -0.928933332999975, 0.0 ] } },
{ "type": "Feature", "properties": { "OID_": 0, "Name": "Armada 27 Nggorio Vala", "FolderPath": "Document/Lapisan 2", "SymbolID": 0, "AltMode": -1, "Base": 0.0, "TimeSpan": 0, "TimeStamp": -1, "BeginTime": "2025-05-23 01:10:17.0", "EndTime": null, "Snippet": null, "PopupInfo": null, "HasLabel": -1, "LabelID": 0 }, "geometry": { "type": "Point", "coordinates": [ 119.89314666700011, -0.9041, 0.0 ] } },
{ "type": "Feature", "properties": { "OID_": 0, "Name": "Armada 28 tps pasar masomba", "FolderPath": "Document/Lapisan 2", "SymbolID": 0, "AltMode": -1, "Base": 0.0, "TimeSpan": 0, "TimeStamp": -1, "BeginTime": "2025-05-24 10:49:02.0", "EndTime": null, "Snippet": null, "PopupInfo": null, "HasLabel": -1, "LabelID": 0 }, "geometry": { "type": "Point", "coordinates": [ 119.879523333000066, -0.907706666999957, 0.0 ] } },
{ "type": "Feature", "properties": { "OID_": 0, "Name": "Armada 31 TPS Kabonena jln. Puenjidi", "FolderPath": "Document/Lapisan 2", "SymbolID": 0, "AltMode": -1, "Base": 0.0, "TimeSpan": 0, "TimeStamp": -1, "BeginTime": "2025-05-22 03:26:08.0", "EndTime": null, "Snippet": null, "PopupInfo": null, "HasLabel": -1, "LabelID": 0 }, "geometry": { "type": "Point", "coordinates": [ 119.827496667000105, -0.887881666999931, 0.0 ] } },
{ "type": "Feature", "properties": { "OID_": 0, "Name": "Armada 31 TPS RS Anutapura (Medis dan non medis (Armroll))", "FolderPath": "Document/Lapisan 2", "SymbolID": 0, "AltMode": -1, "Base": 0.0, "TimeSpan": 0, "TimeStamp": -1, "BeginTime": "2025-05-22 02:39:54.0", "EndTime": null, "Snippet": null, "PopupInfo": null, "HasLabel": -1, "LabelID": 0 }, "geometry": { "type": "Point", "coordinates": [ 119.847861105000106, -0.899219081999945, 0.0 ] } },
{ "type": "Feature", "properties": { "OID_": 0, "Name": "Armada 38 TPS Bulili", "FolderPath": "Document/Lapisan 2", "SymbolID": 0, "AltMode": -1, "Base": 0.0, "TimeSpan": 0, "TimeStamp": -1, "BeginTime": "2025-05-23 09:08:15.0", "EndTime": null, "Snippet": null, "PopupInfo": null, "HasLabel": -1, "LabelID": 0 }, "geometry": { "type": "Point", "coordinates": [ 119.905021667000028, -0.935121654999932, 0.0 ] } },
{ "type": "Feature", "properties": { "OID_": 0, "Name": "Armada 38 TPS Dirgantara (Jln. Garuda)", "FolderPath": "Document/Lapisan 2", "SymbolID": 0, "AltMode": -1, "Base": 0.0, "TimeSpan": 0, "TimeStamp": -1, "BeginTime": "2025-05-23 00:51:49.0", "EndTime": null, "Snippet": null, "PopupInfo": null, "HasLabel": -1, "LabelID": 0 }, "geometry": { "type": "Point", "coordinates": [ 119.896840000000111, -0.914931666999962, 0.0 ] } },
{ "type": "Feature", "properties": { "OID_": 0, "Name": "Armada anuar tps buluri", "FolderPath": "Document/Lapisan 2", "SymbolID": 0, "AltMode": -1, "Base": 0.0, "TimeSpan": 0, "TimeStamp": -1, "BeginTime": "2025-05-22 03:53:00.0", "EndTime": null, "Snippet": null, "PopupInfo": null, "HasLabel": -1, "LabelID": 0 }, "geometry": { "type": "Point", "coordinates": [ 119.822504581000089, -0.852172031999942, 0.0 ] } },
{ "type": "Feature", "properties": { "OID_": 0, "Name": "Armada 19 TPS Likuifaksi", "FolderPath": null, "SymbolID": 0, "AltMode": 0, "Base": 0.0, "TimeSpan": 0, "TimeStamp": 0, "BeginTime": null, "EndTime": null, "Snippet": null, "PopupInfo": null, "HasLabel": 0, "LabelID": 0 }, "geometry": { "type": "Point", "coordinates": [ 119.840562780247012, -0.907614028463778, 0.0 ] } },
{ "type": "Feature", "properties": { "OID_": 0, "Name": "Armada 24 TPS PGM", "FolderPath": null, "SymbolID": 0, "AltMode": 0, "Base": 0.0, "TimeSpan": 0, "TimeStamp": 0, "BeginTime": null, "EndTime": null, "Snippet": null, "PopupInfo": null, "HasLabel": 0, "LabelID": 0 }, "geometry": { "type": "Point", "coordinates": [ 119.841923925013589, -0.882592710517692, 0.0 ] } },
{ "type": "Feature", "properties": { "OID_": 0, "Name": "Armada 19 Pasar Inpres", "FolderPath": null, "SymbolID": 0, "AltMode": 0, "Base": 0.0, "TimeSpan": 0, "TimeStamp": 0, "BeginTime": null, "EndTime": null, "Snippet": null, "PopupInfo": null, "HasLabel": 0, "LabelID": 0 }, "geometry": { "type": "Point", "coordinates": [ 119.850170452795837, -0.902882442825554, 0.0 ] } },
{ "type": "Feature", "properties": { "OID_": 0, "Name": "Bak Mobile", "FolderPath": null, "SymbolID": 0, "AltMode": 0, "Base": 0.0, "TimeSpan": 0, "TimeStamp": 0, "BeginTime": null, "EndTime": null, "Snippet": null, "PopupInfo": null, "HasLabel": 0, "LabelID": 0 }, "geometry": { "type": "Point", "coordinates": [ 119.837569112614844, -0.913275075162043, 0.0 ] } }
]
}
